{"type":"FeatureCollection","features":[{"type":"Feature","properties":{"nombre":"Archivo Histórico de Medellín","direccion":"CL 50 43 64","horario":"Lunes a jueves: 7:30 am-12:00 m y 1:30-5:30 pm. Viernes: 7:30 am-12:00 m y 1:30 a 4:30 pm","tipo":"Archivo histórico"},"geometry":{"type":"Point","coordinates":[-75.563396,6.247632]}},{"type":"Feature","properties":{"nombre":"Biblioteca Pública Popular No.2","direccion":"CR 43 118 26 piso 3","horario":"Lunes a viernes: 9:00 am - 6:00 pm. Sábado: 9:00 am - 4:00 pm","tipo":"Biblioteca de proximidad"},"geometry":{"type":"Point","coordinates":[-75.547182,6.302195]}},{"type":"Feature","properties":{"nombre":"Parque Biblioteca Gabriel García Márquez, Doce de Octubre","direccion":"CR 80 104 04","horario":"Lunes a sábado: 9:00 am - 8:00 pm. Domingos y festivos: 11:00 am. - 4:00 pm","tipo":"Parque biblioteca"},"geometry":{"type":"Point","coordinates":[-75.577738,6.304413]}},{"type":"Feature","properties":{"nombre":"Parque Biblioteca Manuel Mejía Vallejo, Guayabal","direccion":"CR 65 14 115","horario":"Lunes a sábado: 8:00 am - 7:00 pm. Domingos y festivos: 11:00 am. - 4:00 pm","tipo":"Parque biblioteca"},"geometry":{"type":"Point","coordinates":[-75.586271,6.220314]}},{"type":"Feature","properties":{"nombre":"Parque Biblioteca José Horacio Betancur, San Antonio de Prado","direccion":"CR 4C 6 206","horario":"Lunes a sábado: 9:00 am - 8:00 pm. Domingos y festivos: 11:00 am. - 4:00 pm","tipo":"Parque biblioteca"},"geometry":{"type":"Point","coordinates":[-75.654488,6.176349]}},{"type":"Feature","properties":{"nombre":"Parque Biblioteca Belén","direccion":"CR 76 18A 19","horario":"Lunes a sábado: 9:00 am - 8:00 pm. Domingos y festivos: 10:00 am. - 4:00 pm","tipo":"Parque biblioteca"},"geometry":{"type":"Point","coordinates":[-75.598327,6.223875]}},{"type":"Feature","properties":{"nombre":"Parque Biblioteca España, Santo Domingo Savio","direccion":"CR 33B 107A 100","horario":"Lunes a sábado: 9:00 am - 8:00 pm. Domingos y festivos: 11:00 am. - 4:00 pm","tipo":"Parque biblioteca"},"geometry":{"type":"Point","coordinates":[-75.543971,6.294677]}},{"type":"Feature","properties":{"nombre":"Parque Biblioteca Presbítero José Luis Arroyave, San Javier","direccion":"CL 42C 95 90","horario":"Lunes a sábado: 9:00 am - 8:00 pm. Domingos y festivos: 11:00 am. - 4:00 pm","tipo":"Parque biblioteca"},"geometry":{"type":"Point","coordinates":[-75.613094,6.254167]}},{"type":"Feature","properties":{"nombre":"Filial San Antonio de Prado","direccion":"CL 9 11 16","horario":"Lunes a viernes: 9:00 am - 6:00 pm. Sábado: 9:00 am - 2:00 pm","tipo":"Biblioteca pública piloto y filiales"},"geometry":{"type":"Point","coordinates":[-75.641331,6.183342]}},{"type":"Feature","properties":{"nombre":"Filial Biblioteca Tren de Papel Carlos Castro Saavedra, Florencia","direccion":"CL 113 70 73","horario":"Lunes a viernes: 10:00 am - 6:00 pm. Sábado: 10:00 am - 5:00 pm","tipo":"Biblioteca pública piloto y filiales"},"geometry":{"type":"Point","coordinates":[-75.568918,6.308945]}},{"type":"Feature","properties":{"nombre":"Filial Juan Zuleta Ferrer, Campo Valdés","direccion":"CR 49A 80 46","horario":"Lunes a viernes: 10:00 am - 5:45 pm. Sábado: 10:00 am - 4:45 pm","tipo":"Biblioteca pública piloto y filiales"},"geometry":{"type":"Point","coordinates":[-75.558433,6.274006]}},{"type":"Feature","properties":{"nombre":"Biblioteca Pública Piloto","direccion":"CR 64 50 32 Carlos E. Restrepo","horario":"SOLO Auditorio, Archivo Fotográfico y Sala Antioquia. L-V 8:30-5:30 pm. S 9:00-5:00 pm","tipo":"Biblioteca pública piloto y filiales"},"geometry":{"type":"Point","coordinates":[-75.577788,6.255361]}},{"type":"Feature","properties":{"nombre":"Biblioteca Pública Centro Occidental","direccion":"CL 39D 112 81","horario":"Lunes a sábado: 9:00 am - 5:00 pm","tipo":"Biblioteca de proximidad"},"geometry":{"type":"Point","coordinates":[-75.624791,6.253418]}},{"type":"Feature","properties":{"nombre":"Biblioteca Público Corregimental Santa Elena","direccion":"Parque Central de Santa Elena","horario":"Lunes a sábado: 9:00 am - 6:00 pm. Domingo: 11:00 am - 3:00 pm","tipo":"Biblioteca de proximidad"},"geometry":{"type":"Point","coordinates":[-75.49752,6.209281]}},{"type":"Feature","properties":{"nombre":"Biblioteca Público Corregimental San Sebastián de Palmitas","direccion":"CL 20 34 105","horario":"Lunes a sábado: 9:00 am - 6:00 pm. Domingo: 11:00 am - 3:00 pm","tipo":"Biblioteca de proximidad"},"geometry":{"type":"Point","coordinates":[-75.690426,6.343252]}},{"type":"Feature","properties":{"nombre":"Biblioteca Público Corregimental El Limonar","direccion":"CL 57 Sur  61-02 Barrio El Limonar 1","horario":"Lunes a viernes: 9:00 am - 6:00 pm. Sábado: 9:00 am - 4:00 pm","tipo":"Biblioteca de proximidad"},"geometry":{"type":"Point","coordinates":[-75.642623,6.173753]}},{"type":"Feature","properties":{"nombre":"Biblioteca Público Barrial Fernando Gómez Martínez","direccion":"CR 88C 76DD 20","horario":"Lunes a viernes: 9:00 am – 6:00 pm. Sábado 9:00 am – 4:00 pm","tipo":"Biblioteca de proximidad"},"geometry":{"type":"Point","coordinates":[-75.592639,6.282901]}},{"type":"Feature","properties":{"nombre":"Biblioteca Público Escolar Santa Cruz","direccion":"CR 48 98A 63","horario":"Lunes a viernes: 9:00 am - 6:00 pm. Sábado 9:00 am – 4:00 pm","tipo":"Biblioteca de proximidad"},"geometry":{"type":"Point","coordinates":[-75.555531,6.289861]}},{"type":"Feature","properties":{"nombre":"Biblioteca Público Escolar Granizal","direccion":"CR 36B 102C 54","horario":"Lunes a viernes: 9:00 am - 6:00 pm. Sábado 9:00 am - 4:00 pm","tipo":"Biblioteca de proximidad"},"geometry":{"type":"Point","coordinates":[-75.544809,6.29228]}},{"type":"Feature","properties":{"nombre":"Casa de la Lectura Infantil, Casa Barrientos","direccion":"CL 51 45 57 Avenida La Playa","horario":"Lunes a viernes: 8:00 am - 8:00 pm. Sábado: 9:00 am. - 6:00 pm. Domingo-festivo: 11:00 am. - 5:00 pm","tipo":"Casa de lectura infantil"},"geometry":{"type":"Point","coordinates":[-75.564246,6.248869]}},{"type":"Feature","properties":{"nombre":"Centro de Documentación Departamento Administrativo de Planeación","direccion":"CL 44 52 165. Piso 3, oficina 305","horario":"Lunes a jueves: 7:30 am-12:00 m y 1:30-5:30 pm. Viernes: 7:30 am-12:00 m y 1:30 a 4:30 pm","tipo":"Centro de documentación"},"geometry":{"type":"Point","coordinates":[-75.573759,6.244862]}},{"type":"Feature","properties":{"nombre":"Centro de Documentación en Primera Infancia Buen Comienzo","direccion":"CR 76 18A 19 INT 172","horario":"Lunes a sábado: 10:00 am - 7:00 pm","tipo":"Centro de documentación"},"geometry":{"type":"Point","coordinates":[-75.597691,6.224054]}},{"type":"Feature","properties":{"nombre":"Centro de Información e Investigación Ambiental (CIIAM)","direccion":"CR 62  65 01","horario":"Lunes a jueves: 7:30 am-12:30 pm y 1:00 pm-5:00 pm. Viernes: 7:30 am-12:30m y 1:00 pm-4:00 pm","tipo":"Centro de documentación"},"geometry":{"type":"Point","coordinates":[-75.572408,6.264159]}},{"type":"Feature","properties":{"nombre":"Centro de Recursos para la Activación de la Memoria CRAM","direccion":"CL 51 36 66 Piso 3 Parque Bicentenario","horario":"Lunes a viernes: 9:00 am-7:00 pm. Sábado: 10:00 am-4:00 pm","tipo":"Centro de documentación"},"geometry":{"type":"Point","coordinates":[-75.556348,6.24532]}},{"type":"Feature","properties":{"nombre":"Parque Biblioteca León de Greiff, La Ladera","direccion":"CL 59A 36 30","horario":"Lunes a sábado: 8:00 am - 7:00 pm. Domingos y festivos: 11:00 am. - 4:00 pm","tipo":"Parque biblioteca"},"geometry":{"type":"Point","coordinates":[-75.55389,6.251406]}},{"type":"Feature","properties":{"nombre":"Parque Biblioteca Fernando Botero, San Cristóbal","direccion":"CR 131 62 15","horario":"Lunes a sábado: 9:00 am - 8:00 pm. Domingos y festivos: 11:00 am. - 4:00 pm","tipo":"Parque biblioteca"},"geometry":{"type":"Point","coordinates":[-75.636811,6.277913]}},{"type":"Feature","properties":{"nombre":"Parque Biblioteca Tomás Carrasquilla, La Quintana","direccion":"CR 80 82 60","horario":"Lunes a sábado: 9:00 am - 8:00 pm. Domingos y festivos: 11:00 am. - 4:00 pm","tipo":"Parque biblioteca"},"geometry":{"type":"Point","coordinates":[-75.583623,6.285297]}},{"type":"Feature","properties":{"nombre":"Biblioteca Pública Altavista","direccion":"CL 18 103 160 I.E Débora Arango","horario":"Lunes a viernes: 9:00 am – 6:00 pm. Sábado: 9:00 am. – 4:00 pm","tipo":"Biblioteca de proximidad"},"geometry":{"type":"Point","coordinates":[-75.625773,6.223816]}},{"type":"Feature","properties":{"nombre":"Biblioteca Pública Ávila","direccion":"CR 29A 38F 59 Casa de Cultura Ávila","horario":"Lunes a viernes: 9:00 am - 7:00 pm. Sábado: 9:00 am a 4:00 pm","tipo":"Biblioteca de proximidad"},"geometry":{"type":"Point","coordinates":[-75.556713,6.233891]}},{"type":"Feature","properties":{"nombre":"Centro de Documentación especializado en deporte INDER Medellín","direccion":"CL 48 73 10, Puerta No. 36 dentro del Estadio Atanasio Girardot","horario":"Lunes a jueves: 8:00 - 12:00m y 1:00 - 5:00 pm.  Viernes: 8:00 - 12:00m y 1:00 - 4:00 pm","tipo":"Centro de documentación"},"geometry":{"type":"Point","coordinates":[-75.590901,6.256187]}},{"type":"Feature","properties":{"nombre":"Filial Biblioteca San Javier, La Loma","direccion":"CR 124 53B 40","horario":"Lunes a viernes: 9:00 am - 6:00 pm. Sábado: 9:00 am - 12:00 m","tipo":"Biblioteca pública piloto y filiales"},"geometry":{"type":"Point","coordinates":[-75.629832,6.270647]}},{"type":"Feature","properties":{"nombre":"Biblioteca Público Barrial La Floresta","direccion":"CL 47 86 21","horario":"Lunes a viernes: 8:00 am - 7:00 pm. Sábado: 9:00 am - 4:00 pm","tipo":"Biblioteca de proximidad"},"geometry":{"type":"Point","coordinates":[-75.60253,6.256721]}}]}