{"type":"FeatureCollection","features":[{"type":"Feature","properties":{"nombre":"Edificio San Fernando","grupo":"Arquitectónico","tipo":"N.A","direccion":"Carrera 49 50 54/72/58"},"geometry":{"type":"Point","coordinates":[-75.566434,6.249429]}},{"type":"Feature","properties":{"nombre":"Edificio Gran Colombia \"Bemogu\"","grupo":"Arquitectónico","tipo":"N.A","direccion":"Carrera 49 50 10/22"},"geometry":{"type":"Point","coordinates":[-75.566627,6.249064]}},{"type":"Feature","properties":{"nombre":"Edificio Seguros Bolívar","grupo":"Arquitectónico","tipo":"Obra de arquitectura","direccion":"Carrera 49 49 73"},"geometry":{"type":"Point","coordinates":[-75.567171,6.248945]}},{"type":"Feature","properties":{"nombre":"Edificio Atlas Lalinde","grupo":"Arquitectónico","tipo":"N.A","direccion":"Calle 50 49 44"},"geometry":{"type":"Point","coordinates":[-75.567273,6.249339]}},{"type":"Feature","properties":{"nombre":"Edificio Luis M. Mejía","grupo":"Arquitectónico","tipo":"N.A","direccion":"Carrera 49 50 1"},"geometry":{"type":"Point","coordinates":[-75.567066,6.249189]}},{"type":"Feature","properties":{"nombre":"Edificio Erlinda","grupo":"Arquitectónico","tipo":"Obra de arquitectura","direccion":"Carrera 50 49 46"},"geometry":{"type":"Point","coordinates":[-75.567982,6.248811]}},{"type":"Feature","properties":{"nombre":"Edificio Martínez Corona","grupo":"Arquitectónico","tipo":"N.A","direccion":"Carrera 52 50 46/58/62/48"},"geometry":{"type":"Point","coordinates":[-75.569206,6.250725]}},{"type":"Feature","properties":{"nombre":"Edificio Víctor","grupo":"Arquitectónico","tipo":"N.A","direccion":"Calle 51 51 75/83"},"geometry":{"type":"Point","coordinates":[-75.569121,6.250651]}},{"type":"Feature","properties":{"nombre":"Edificación Republicana (Casa Parque de Berrío)","grupo":"Arquitectónico","tipo":"N.A","direccion":"Calle 51 51 69"},"geometry":{"type":"Point","coordinates":[-75.568291,6.251181]}},{"type":"Feature","properties":{"nombre":"Edificación Republicana","grupo":"Arquitectónico","tipo":"N.A","direccion":"Carrera 52 49 18/22/26"},"geometry":{"type":"Point","coordinates":[-75.569717,6.249498]}},{"type":"Feature","properties":{"nombre":"Edificación Republicana","grupo":"Arquitectónico","tipo":"N.A","direccion":"Carrera 52 49 36/32"},"geometry":{"type":"Point","coordinates":[-75.569674,6.249607]}},{"type":"Feature","properties":{"nombre":"Sede Tecnológico CEIPA","grupo":"Arquitectónico","tipo":"N.A","direccion":"Carrera 43 49 57"},"geometry":{"type":"Point","coordinates":[-75.563316,6.246848]}},{"type":"Feature","properties":{"nombre":"Edificación Republicana","grupo":"Arquitectónico","tipo":"N.A","direccion":"Carrera 48 54 42/44/46"},"geometry":{"type":"Point","coordinates":[-75.564361,6.25241]}},{"type":"Feature","properties":{"nombre":"Edificación Creaciones Muebles Mundial","grupo":"Arquitectónico","tipo":"N.A","direccion":"Carrera 49 55 11"},"geometry":{"type":"Point","coordinates":[-75.564987,6.253313]}},{"type":"Feature","properties":{"nombre":"Edificación Tecnológico Colombo Europeo","grupo":"Arquitectónico","tipo":"N.A","direccion":"Carrera 49 56 09"},"geometry":{"type":"Point","coordinates":[-75.564571,6.253993]}},{"type":"Feature","properties":{"nombre":"Edificación Republicana - Sede Congregación Mariana","grupo":"Arquitectónico","tipo":"Obra de arquitectura","direccion":"Calle 54 46 52"},"geometry":{"type":"Point","coordinates":[-75.563775,6.2517]}},{"type":"Feature","properties":{"nombre":"Casa Sede Adpostal","grupo":"Arquitectónico","tipo":"Obra de arquitectura","direccion":"Calle 51 43 75/67"},"geometry":{"type":"Point","coordinates":[-75.563199,6.248081]}},{"type":"Feature","properties":{"nombre":"Casa Pedro Díaz La Torre","grupo":"Arquitectónico","tipo":"Obra de arquitectura","direccion":"Carrera 42 54 01"},"geometry":{"type":"Point","coordinates":[-75.560672,6.249693]}},{"type":"Feature","properties":{"nombre":"Sede Teatro El Águila Descalza","grupo":"Arquitectónico","tipo":"Obra de arquitectura","direccion":"Carrera 45D 59 01/39/43/47"},"geometry":{"type":"Point","coordinates":[-75.560577,6.254938]}},{"type":"Feature","properties":{"nombre":"Restaurante Posada de la Montaña","grupo":"Arquitectónico","tipo":"N.A","direccion":"Calle 53 47 34/44/52"},"geometry":{"type":"Point","coordinates":[-75.56505,6.251508]}},{"type":"Feature","properties":{"nombre":"Manzana La Campana","grupo":"Arquitectónico","tipo":"N.A","direccion":"Calle 45 52 20 Toda la Manzana"},"geometry":{"type":"Point","coordinates":[-75.571101,6.246768]}},{"type":"Feature","properties":{"nombre":"Edificación Harinera Antioqueña","grupo":"Arquitectónico","tipo":"Obra de arquitectura","direccion":"Calle 48 56 18"},"geometry":{"type":"Point","coordinates":[-75.574007,6.250263]}},{"type":"Feature","properties":{"nombre":"Edificación Antigua (Campana en inventario)","grupo":"Arquitectónico","tipo":"N.A","direccion":"Calle 45 52A 48 / Carrera 53 45 2/16"},"geometry":{"type":"Point","coordinates":[-75.571729,6.246583]}},{"type":"Feature","properties":{"nombre":"Hotel Montería","grupo":"Arquitectónico","tipo":"N.A","direccion":"Carrera 52 45 04"},"geometry":{"type":"Point","coordinates":[-75.570846,6.246195]}},{"type":"Feature","properties":{"nombre":"Sede IDEA (Edificación redonda La Alpujarra)","grupo":"Arquitectónico","tipo":"Obra de arquitectura","direccion":"Calle 42 52 259"},"geometry":{"type":"Point","coordinates":[-75.574667,6.242946]}},{"type":"Feature","properties":{"nombre":"Edificación sede Fomento y Turismo","grupo":"Arquitectónico","tipo":"Obra de arquitectura","direccion":"Calle 57 45 129"},"geometry":{"type":"Point","coordinates":[-75.562131,6.252986]}},{"type":"Feature","properties":{"nombre":"Antigua Torre Tejicóndor","grupo":"Arquitectónico","tipo":"Obra de arquitectura","direccion":"Calle 44 66 30"},"geometry":{"type":"Point","coordinates":[-75.584689,6.249332]}},{"type":"Feature","properties":{"nombre":"Plaza de Toros La Macarena","grupo":"Arquitectónico","tipo":"Obra de arquitectura","direccion":"Carrera 63 44A 65"},"geometry":{"type":"Point","coordinates":[-75.580524,6.249704]}},{"type":"Feature","properties":{"nombre":"Centro Comercial Palacio Nacional","grupo":"Arquitectónico","tipo":"N.A","direccion":"Carrera 52 48 45"},"geometry":{"type":"Point","coordinates":[-75.570342,6.249013]}},{"type":"Feature","properties":{"nombre":"Paraninfo Universidad de Antioquia","grupo":"Arquitectónico","tipo":"N.A","direccion":"Carrera 44 48 58/86"},"geometry":{"type":"Point","coordinates":[-75.56389,6.246273]}},{"type":"Feature","properties":{"nombre":"Edificio Atlas - Ant. Fab. Colombiana de T","grupo":"Arquitectónico","tipo":"Obra de arquitectura","direccion":"Carrera 50 41 60"},"geometry":{"type":"Point","coordinates":[-75.570503,6.24209]}},{"type":"Feature","properties":{"nombre":"Templo San Ignacio","grupo":"Arquitectónico","tipo":"N.A","direccion":"Carrera 44 48 28"},"geometry":{"type":"Point","coordinates":[-75.564096,6.246067]}},{"type":"Feature","properties":{"nombre":"Antigua Fonda El Jordán","grupo":"Arquitectónico","tipo":"Obra de arquitectura","direccion":"Carrera 38 65"},"geometry":{"type":"Point","coordinates":[-75.595429,6.274867]}},{"type":"Feature","properties":{"nombre":"Trapiche Los Álvarez - Carepalo","grupo":"Arquitectónico","tipo":"Obra de arquitectura","direccion":"Vereda La Aldea"},"geometry":{"type":"Point","coordinates":[-75.70542,6.344673]}},{"type":"Feature","properties":{"nombre":"Campus Universidad de Antioquia (El Chagualo)","grupo":"Arquitectónico","tipo":"N.A","direccion":"Calle 68 53 108"},"geometry":{"type":"Point","coordinates":[-75.568839,6.267601]}},{"type":"Feature","properties":{"nombre":"Plazuela San Ignacio","grupo":"Urbanístico","tipo":"N.A","direccion":"Carrera 44 entre Calle 48 y 49"},"geometry":{"type":"Point","coordinates":[-75.564492,6.246227]}},{"type":"Feature","properties":{"nombre":"Edificación Barrio Los Ángeles","grupo":"Arquitectónico","tipo":"Obra de arquitectura","direccion":"Calle 59 45 60/70","sector":"Barrio Prado"},"geometry":{"type":"Point","coordinates":[-75.560216,6.254677]}},{"type":"Feature","properties":{"nombre":"Cerro El Volador","grupo":"Arqueológico","tipo":"N.A","direccion":"Calle 65 entre Carreras 65 y 75"},"geometry":{"type":"Point","coordinates":[-75.582088,6.266002]}},{"type":"Feature","properties":{"nombre":"Templo La Veracruz","grupo":"Arquitectónico","tipo":"N.A","direccion":"Calle 51 52 18"},"geometry":{"type":"Point","coordinates":[-75.569659,6.251293]}},{"type":"Feature","properties":{"nombre":"Templo Nuestra Señora de los Dolores","grupo":"Arquitectónico","tipo":"Obra de arquitectura","direccion":"Calle 65 A 85 60"},"geometry":{"type":"Point","coordinates":[-75.595686,6.27634]}},{"type":"Feature","properties":{"nombre":"Templo Nuestra Señora del Sagrado Corazón","grupo":"Arquitectónico","tipo":"Obra de arquitectura","direccion":"Calle 49 35 39"},"geometry":{"type":"Point","coordinates":[-75.557015,6.242563]}},{"type":"Feature","properties":{"nombre":"Casa Barrientos","grupo":"Arquitectónico","tipo":"Obra de arquitectura","direccion":"Calle 51 45 57"},"geometry":{"type":"Point","coordinates":[-75.564404,6.24857]}},{"type":"Feature","properties":{"nombre":"Comando de Policía (antiguo Pedro Justo de Berrío)","grupo":"Arquitectónico","tipo":"Obra de arquitectura","direccion":"Calle 49 55 13/29"},"geometry":{"type":"Point","coordinates":[-75.573345,6.249976]}},{"type":"Feature","properties":{"nombre":"Casa Sede Congregación Mariana","grupo":"Arquitectónico","tipo":"Obra de arquitectura","direccion":"Calle 52 40 146"},"geometry":{"type":"Point","coordinates":[-75.56077,6.248344]}},{"type":"Feature","properties":{"nombre":"Templo de La Aldea","grupo":"Arquitectónico","tipo":"Obra de arquitectura","direccion":"Vereda La Aldea"},"geometry":{"type":"Point","coordinates":[-75.703778,6.342189]}},{"type":"Feature","properties":{"nombre":"Casa Funeraria Betancur","grupo":"Arquitectónico","tipo":"Obra de arquitectura","direccion":"Transversal 39B 75 39"},"geometry":{"type":"Point","coordinates":[-75.596839,6.246424]}},{"type":"Feature","properties":{"nombre":"Templo Nuestra Señora de Belén","grupo":"Arquitectónico","tipo":"Obra de arquitectura","direccion":"Carrera 77 30A 17","sector":"Sector Belén"},"geometry":{"type":"Point","coordinates":[-75.59742,6.232458]}},{"type":"Feature","properties":{"nombre":"Teatro Metropolitano José Gutiérrez Gómez","grupo":"Arquitectónico","tipo":"Obra de arquitectura","direccion":"Calle 41 57 30"},"geometry":{"type":"Point","coordinates":[-75.577492,6.24294]}},{"type":"Feature","properties":{"nombre":"Edificación Barrio Prado","grupo":"Arquitectónico","tipo":"Obra de arquitectura","direccion":"Carrera 50 63 03/09","sector":"Barrio Prado"},"geometry":{"type":"Point","coordinates":[-75.561911,6.25977]}},{"type":"Feature","properties":{"nombre":"Edificación Barrio Prado","grupo":"Arquitectónico","tipo":"Obra de arquitectura","direccion":"Carrera 50 63 136","sector":"Barrio Prado"},"geometry":{"type":"Point","coordinates":[-75.560907,6.260544]}},{"type":"Feature","properties":{"nombre":"Edificación Barrio Prado","grupo":"Arquitectónico","tipo":"Obra de arquitectura","direccion":"Calle 63 50 62/68","sector":"Barrio Prado"},"geometry":{"type":"Point","coordinates":[-75.562322,6.260009]}},{"type":"Feature","properties":{"nombre":"Edificación Barrio Prado","grupo":"Arquitectónico","tipo":"Obra de arquitectura","direccion":"Calle 64 50A 53/55","sector":"Barrio Prado"},"geometry":{"type":"Point","coordinates":[-75.562483,6.260914]}},{"type":"Feature","properties":{"nombre":"Edificación Barrio Prado","grupo":"Arquitectónico","tipo":"Obra de arquitectura","direccion":"Carrera 50A 63 65","sector":"Barrio Prado"},"geometry":{"type":"Point","coordinates":[-75.562244,6.260632]}},{"type":"Feature","properties":{"nombre":"Edificación Barrio Prado","grupo":"Arquitectónico","tipo":"Obra de arquitectura","direccion":"Carrera 50A 63 34/40","sector":"Barrio Prado"},"geometry":{"type":"Point","coordinates":[-75.56211,6.260276]}},{"type":"Feature","properties":{"nombre":"Edificación Barrio Prado","grupo":"Arquitectónico","tipo":"Obra de arquitectura","direccion":"Carrera 50A 63 56/62","sector":"Barrio Prado"},"geometry":{"type":"Point","coordinates":[-75.562035,6.2604]}},{"type":"Feature","properties":{"nombre":"Edificación Barrio Prado","grupo":"Arquitectónico","tipo":"Obra de arquitectura","direccion":"Calle 64 50 67","sector":"Barrio Prado"},"geometry":{"type":"Point","coordinates":[-75.561731,6.26085]}},{"type":"Feature","properties":{"nombre":"Edificación Barrio Prado","grupo":"Arquitectónico","tipo":"Obra de arquitectura","direccion":"Calle 64 50 10/17/25 / Carrera 50 63 145/149","sector":"Barrio Prado"},"geometry":{"type":"Point","coordinates":[-75.561274,6.260808]}},{"type":"Feature","properties":{"nombre":"Edificación Barrio Prado","grupo":"Arquitectónico","tipo":"Obra de arquitectura","direccion":"Carrera 50 63 95","sector":"Barrio Prado"},"geometry":{"type":"Point","coordinates":[-75.561509,6.260498]}},{"type":"Feature","properties":{"nombre":"Edificación Barrio Prado","grupo":"Arquitectónico","tipo":"Obra de arquitectura","direccion":"Carrera 50 63 19","sector":"Barrio Prado"},"geometry":{"type":"Point","coordinates":[-75.561861,6.259884]}},{"type":"Feature","properties":{"nombre":"Edificación Barrio Prado","grupo":"Arquitectónico","tipo":"Obra de arquitectura","direccion":"Calle 63 49 24","sector":"Barrio Prado"},"geometry":{"type":"Point","coordinates":[-75.561233,6.259425]}},{"type":"Feature","properties":{"nombre":"Edificación Barrio Prado","grupo":"Arquitectónico","tipo":"Obra de arquitectura","direccion":"Calle 63 48 20/26","sector":"Barrio Prado"},"geometry":{"type":"Point","coordinates":[-75.560668,6.259057]}},{"type":"Feature","properties":{"nombre":"Edificación Barrio Prado","grupo":"Arquitectónico","tipo":"Obra de arquitectura","direccion":"Carrera 49 63 10/14","sector":"Barrio Prado"},"geometry":{"type":"Point","coordinates":[-75.560809,6.259152]}},{"type":"Feature","properties":{"nombre":"Edificación Barrio Prado","grupo":"Arquitectónico","tipo":"Obra de arquitectura","direccion":"Carrera 49 63 20/22","sector":"Barrio Prado"},"geometry":{"type":"Point","coordinates":[-75.560777,6.259229]}},{"type":"Feature","properties":{"nombre":"Edificación Barrio Prado","grupo":"Arquitectónico","tipo":"Obra de arquitectura","direccion":"Carrera 49 63 64/74 / Calle 63A 48 55","sector":"Barrio Prado"},"geometry":{"type":"Point","coordinates":[-75.560632,6.259626]}},{"type":"Feature","properties":{"nombre":"Edificación Barrio Prado","grupo":"Arquitectónico","tipo":"Obra de arquitectura","direccion":"Calle 63A 48 17","sector":"Barrio Prado"},"geometry":{"type":"Point","coordinates":[-75.560338,6.25945]}},{"type":"Feature","properties":{"nombre":"Edificación Barrio Prado","grupo":"Arquitectónico","tipo":"Obra de arquitectura","direccion":"Carrera 48 63 31/33","sector":"Barrio Prado"},"geometry":{"type":"Point","coordinates":[-75.560491,6.259154]}},{"type":"Feature","properties":{"nombre":"Edificación Barrio Prado","grupo":"Arquitectónico","tipo":"Obra de arquitectura","direccion":"Carrera 48 63 74","sector":"Barrio Prado"},"geometry":{"type":"Point","coordinates":[-75.560014,6.25917]}},{"type":"Feature","properties":{"nombre":"Edificación Barrio Prado","grupo":"Arquitectónico","tipo":"Obra de arquitectura","direccion":"Carrera 47 63 21","sector":"Barrio Prado"},"geometry":{"type":"Point","coordinates":[-75.559888,6.258598]}},{"type":"Feature","properties":{"nombre":"Edificación Barrio Prado","grupo":"Arquitectónico","tipo":"Obra de arquitectura","direccion":"Carrera 47 63 13","sector":"Barrio Prado"},"geometry":{"type":"Point","coordinates":[-75.559923,6.258542]}},{"type":"Feature","properties":{"nombre":"Edificación Barrio Prado","grupo":"Arquitectónico","tipo":"Obra de arquitectura","direccion":"Carrera 47 63 36","sector":"Barrio Prado"},"geometry":{"type":"Point","coordinates":[-75.559587,6.258567]}},{"type":"Feature","properties":{"nombre":"Edificación Barrio Prado","grupo":"Arquitectónico","tipo":"Obra de arquitectura","direccion":"Carrera 48 63A 60","sector":"Barrio Prado"},"geometry":{"type":"Point","coordinates":[-75.559568,6.259799]}},{"type":"Feature","properties":{"nombre":"Edificación Barrio Prado","grupo":"Arquitectónico","tipo":"Obra de arquitectura","direccion":"Carrera 48 63A 134/136","sector":"Barrio Prado"},"geometry":{"type":"Point","coordinates":[-75.559275,6.260448]}},{"type":"Feature","properties":{"nombre":"Edificación Barrio Prado","grupo":"Arquitectónico","tipo":"Obra de arquitectura","direccion":"Calle 63A 48 06 / Carrera 48 63A 03","sector":"Barrio Prado"},"geometry":{"type":"Point","coordinates":[-75.560083,6.259599]}},{"type":"Feature","properties":{"nombre":"Edificación Barrio Prado","grupo":"Arquitectónico","tipo":"Obra de arquitectura","direccion":"Calle 63A 48 12","sector":"Barrio Prado"},"geometry":{"type":"Point","coordinates":[-75.560144,6.259638]}},{"type":"Feature","properties":{"nombre":"Edificación Barrio Prado","grupo":"Arquitectónico","tipo":"Obra de arquitectura","direccion":"Calle 63A 48 16/20/22","sector":"Barrio Prado"},"geometry":{"type":"Point","coordinates":[-75.560206,6.259676]}},{"type":"Feature","properties":{"nombre":"Edificación Barrio Prado","grupo":"Arquitectónico","tipo":"Obra de arquitectura","direccion":"Calle 63A 48 24/28/30","sector":"Barrio Prado"},"geometry":{"type":"Point","coordinates":[-75.56025,6.259745]}},{"type":"Feature","properties":{"nombre":"Edificación Barrio Prado","grupo":"Arquitectónico","tipo":"Obra de arquitectura","direccion":"Calle 63A 48 32/34/36","sector":"Barrio Prado"},"geometry":{"type":"Point","coordinates":[-75.560309,6.25979]}},{"type":"Feature","properties":{"nombre":"Edificación Barrio Prado","grupo":"Arquitectónico","tipo":"Obra de arquitectura","direccion":"Calle 63A 48 40/48","sector":"Barrio Prado"},"geometry":{"type":"Point","coordinates":[-75.560403,6.259792]}},{"type":"Feature","properties":{"nombre":"Edificación Barrio Prado","grupo":"Arquitectónico","tipo":"Obra de arquitectura","direccion":"Carrera 49 63A 04","sector":"Barrio Prado"},"geometry":{"type":"Point","coordinates":[-75.560496,6.259816]}},{"type":"Feature","properties":{"nombre":"Edificación Barrio Prado","grupo":"Arquitectónico","tipo":"Obra de arquitectura","direccion":"Carrera 49 63A 18","sector":"Barrio Prado"},"geometry":{"type":"Point","coordinates":[-75.560279,6.259921]}},{"type":"Feature","properties":{"nombre":"Edificación Barrio Prado","grupo":"Arquitectónico","tipo":"Obra de arquitectura","direccion":"Carrera 49 63A 24/28","sector":"Barrio Prado"},"geometry":{"type":"Point","coordinates":[-75.560276,6.259996]}},{"type":"Feature","properties":{"nombre":"Edificación Barrio Prado","grupo":"Arquitectónico","tipo":"Obra de arquitectura","direccion":"Calle 65 48 35/39","sector":"Barrio Prado"},"geometry":{"type":"Point","coordinates":[-75.559669,6.26076]}},{"type":"Feature","properties":{"nombre":"Edificación Barrio Prado","grupo":"Arquitectónico","tipo":"Obra de arquitectura","direccion":"Carrera 48 63A 65","sector":"Barrio Prado"},"geometry":{"type":"Point","coordinates":[-75.559911,6.260082]}},{"type":"Feature","properties":{"nombre":"Edificación Barrio Prado","grupo":"Arquitectónico","tipo":"Obra de arquitectura","direccion":"Calle 64 49 14","sector":"Barrio Prado"},"geometry":{"type":"Point","coordinates":[-75.560489,6.260954]}},{"type":"Feature","properties":{"nombre":"Edificación Barrio Prado","grupo":"Arquitectónico","tipo":"Obra de arquitectura","direccion":"Calle 64 50 08 / Carrera 50 64 15","sector":"Barrio Prado"},"geometry":{"type":"Point","coordinates":[-75.561155,6.261087]}},{"type":"Feature","properties":{"nombre":"Edificación Barrio Prado","grupo":"Arquitectónico","tipo":"Obra de arquitectura","direccion":"Calle 64 50 30/36","sector":"Barrio Prado"},"geometry":{"type":"Point","coordinates":[-75.561322,6.261116]}},{"type":"Feature","properties":{"nombre":"Edificación Barrio Prado","grupo":"Arquitectónico","tipo":"Obra de arquitectura","direccion":"Calle 64 50A 44/48","sector":"Barrio Prado"},"geometry":{"type":"Point","coordinates":[-75.562229,6.261378]}},{"type":"Feature","properties":{"nombre":"Edificación Barrio Prado","grupo":"Arquitectónico","tipo":"Obra de arquitectura","direccion":"Calle 65 50A 65/63/69","sector":"Barrio Prado"},"geometry":{"type":"Point","coordinates":[-75.562232,6.26175]}},{"type":"Feature","properties":{"nombre":"Edificación Barrio Prado","grupo":"Arquitectónico","tipo":"Obra de arquitectura","direccion":"Calle 65 50A 57/61","sector":"Barrio Prado"},"geometry":{"type":"Point","coordinates":[-75.562159,6.261744]}},{"type":"Feature","properties":{"nombre":"Edificación Barrio Prado","grupo":"Arquitectónico","tipo":"Obra de arquitectura","direccion":"Calle 65 50A 49/53","sector":"Barrio Prado"},"geometry":{"type":"Point","coordinates":[-75.562091,6.261736]}},{"type":"Feature","properties":{"nombre":"Edificación Barrio Prado","grupo":"Arquitectónico","tipo":"Obra de arquitectura","direccion":"Calle 65 50A 41/43/47","sector":"Barrio Prado"},"geometry":{"type":"Point","coordinates":[-75.562025,6.261732]}},{"type":"Feature","properties":{"nombre":"Edificación Barrio Prado","grupo":"Arquitectónico","tipo":"Obra de arquitectura","direccion":"Carrera 50D 64 64/70/62 / Calle 65 50C 57","sector":"Barrio Prado"},"geometry":{"type":"Point","coordinates":[-75.563298,6.262004]}},{"type":"Feature","properties":{"nombre":"Edificación Barrio Prado","grupo":"Arquitectónico","tipo":"Obra de arquitectura","direccion":"Calle 65 50C 28","sector":"Barrio Prado"},"geometry":{"type":"Point","coordinates":[-75.563032,6.262327]}},{"type":"Feature","properties":{"nombre":"Edificación Barrio Prado","grupo":"Arquitectónico","tipo":"Obra de arquitectura","direccion":"Calle 65 50C 48/50","sector":"Barrio Prado"},"geometry":{"type":"Point","coordinates":[-75.563245,6.26237]}},{"type":"Feature","properties":{"nombre":"Edificación Barrio Prado","grupo":"Arquitectónico","tipo":"Obra de arquitectura","direccion":"Carrera 50C 65 33/37","sector":"Barrio Prado"},"geometry":{"type":"Point","coordinates":[-75.562835,6.262464]}},{"type":"Feature","properties":{"nombre":"Edificación Barrio Prado","grupo":"Arquitectónico","tipo":"Obra de arquitectura","direccion":"Calle 65 50B 02/06","sector":"Barrio Prado"},"geometry":{"type":"Point","coordinates":[-75.562213,6.26212]}},{"type":"Feature","properties":{"nombre":"Edificación Barrio Prado","grupo":"Arquitectónico","tipo":"Obra de arquitectura","direccion":"Carrera 50C 65 60/58/62/64","sector":"Barrio Prado"},"geometry":{"type":"Point","coordinates":[-75.562449,6.262658]}},{"type":"Feature","properties":{"nombre":"Edificación Barrio Prado","grupo":"Arquitectónico","tipo":"Obra de arquitectura","direccion":"Carrera 50C 65 84","sector":"Barrio Prado"},"geometry":{"type":"Point","coordinates":[-75.562446,6.26287]}},{"type":"Feature","properties":{"nombre":"Edificación Barrio Prado","grupo":"Arquitectónico","tipo":"Obra de arquitectura","direccion":"Carrera 50A 65 01/19","sector":"Barrio Prado"},"geometry":{"type":"Point","coordinates":[-75.561601,6.26205]}},{"type":"Feature","properties":{"nombre":"Edificación Barrio Prado","grupo":"Arquitectónico","tipo":"Obra de arquitectura","direccion":"Calle 65 50A 10","sector":"Barrio Prado"},"geometry":{"type":"Point","coordinates":[-75.561668,6.262054]}},{"type":"Feature","properties":{"nombre":"Edificación Barrio Prado","grupo":"Arquitectónico","tipo":"Obra de arquitectura","direccion":"Calle 65 50A 16/24","sector":"Barrio Prado"},"geometry":{"type":"Point","coordinates":[-75.561752,6.262069]}},{"type":"Feature","properties":{"nombre":"Edificación Barrio Prado","grupo":"Arquitectónico","tipo":"Obra de arquitectura","direccion":"Carrera 50B 65 20/24/26","sector":"Barrio Prado"},"geometry":{"type":"Point","coordinates":[-75.561882,6.26222]}},{"type":"Feature","properties":{"nombre":"Edificación Barrio Prado","grupo":"Arquitectónico","tipo":"Obra de arquitectura","direccion":"Carrera 50A 65 37/39","sector":"Barrio Prado"},"geometry":{"type":"Point","coordinates":[-75.561633,6.262327]}},{"type":"Feature","properties":{"nombre":"Edificación Barrio Prado","grupo":"Arquitectónico","tipo":"Obra de arquitectura","direccion":"Carrera 50A 65 29","sector":"Barrio Prado"},"geometry":{"type":"Point","coordinates":[-75.561646,6.262253]}},{"type":"Feature","properties":{"nombre":"Edificación Barrio Prado","grupo":"Arquitectónico","tipo":"Obra de arquitectura","direccion":"Carrera 50A 65 25/27","sector":"Barrio Prado"},"geometry":{"type":"Point","coordinates":[-75.561632,6.262176]}},{"type":"Feature","properties":{"nombre":"Edificación Barrio Prado","grupo":"Arquitectónico","tipo":"Obra de arquitectura","direccion":"Carrera 48 65 08","sector":"Barrio Prado"},"geometry":{"type":"Point","coordinates":[-75.559027,6.26079]}},{"type":"Feature","properties":{"nombre":"Edificación Barrio Prado","grupo":"Arquitectónico","tipo":"Obra de arquitectura","direccion":"Carrera 50A 65 28/30","sector":"Barrio Prado"},"geometry":{"type":"Point","coordinates":[-75.561261,6.262129]}},{"type":"Feature","properties":{"nombre":"Edificación Barrio Prado","grupo":"Arquitectónico","tipo":"Obra de arquitectura","direccion":"Carrera 50A 65 32/34","sector":"Barrio Prado"},"geometry":{"type":"Point","coordinates":[-75.561265,6.262225]}},{"type":"Feature","properties":{"nombre":"Edificación Barrio Prado","grupo":"Arquitectónico","tipo":"Obra de arquitectura","direccion":"Carrera 50A 65 38/44/52","sector":"Barrio Prado"},"geometry":{"type":"Point","coordinates":[-75.561198,6.262281]}},{"type":"Feature","properties":{"nombre":"Edificación Barrio Prado","grupo":"Arquitectónico","tipo":"Obra de arquitectura","direccion":"Carrera 50 65 23","sector":"Barrio Prado"},"geometry":{"type":"Point","coordinates":[-75.560924,6.262051]}},{"type":"Feature","properties":{"nombre":"Edificación Barrio Prado","grupo":"Arquitectónico","tipo":"Obra de arquitectura","direccion":"Carrera 50 65 14","sector":"Barrio Prado"},"geometry":{"type":"Point","coordinates":[-75.560594,6.261902]}},{"type":"Feature","properties":{"nombre":"Edificación Barrio Prado","grupo":"Arquitectónico","tipo":"Obra de arquitectura","direccion":"Carrera 50 65 24","sector":"Barrio Prado"},"geometry":{"type":"Point","coordinates":[-75.56058,6.26199]}},{"type":"Feature","properties":{"nombre":"Edificación Barrio Prado","grupo":"Arquitectónico","tipo":"Obra de arquitectura","direccion":"Carrera 48 65 12","sector":"Barrio Prado"},"geometry":{"type":"Point","coordinates":[-75.558986,6.260852]}},{"type":"Feature","properties":{"nombre":"Edificación Barrio Prado","grupo":"Arquitectónico","tipo":"Obra de arquitectura","direccion":"Carrera 48 65 20/22","sector":"Barrio Prado"},"geometry":{"type":"Point","coordinates":[-75.558946,6.260911]}},{"type":"Feature","properties":{"nombre":"Edificación Barrio Prado","grupo":"Arquitectónico","tipo":"Obra de arquitectura","direccion":"Carrera 48 65 28","sector":"Barrio Prado"},"geometry":{"type":"Point","coordinates":[-75.558907,6.260972]}},{"type":"Feature","properties":{"nombre":"Edificación Barrio Prado","grupo":"Arquitectónico","tipo":"Obra de arquitectura","direccion":"Carrera 48 65 38/36","sector":"Barrio Prado"},"geometry":{"type":"Point","coordinates":[-75.558869,6.261029]}},{"type":"Feature","properties":{"nombre":"Edificación Barrio Prado","grupo":"Arquitectónico","tipo":"Obra de arquitectura","direccion":"Carrera 48 65 54","sector":"Barrio Prado"},"geometry":{"type":"Point","coordinates":[-75.558727,6.261172]}},{"type":"Feature","properties":{"nombre":"Edificación Barrio Prado","grupo":"Arquitectónico","tipo":"Obra de arquitectura","direccion":"Carrera 48 65 78","sector":"Barrio Prado"},"geometry":{"type":"Point","coordinates":[-75.558655,6.261352]}},{"type":"Feature","properties":{"nombre":"Edificación Barrio Prado","grupo":"Arquitectónico","tipo":"Obra de arquitectura","direccion":"Carrera 47 65F 45/49/55/61 / Calle 65G 47 13","sector":"Barrio Prado"},"geometry":{"type":"Point","coordinates":[-75.558044,6.262009]}},{"type":"Feature","properties":{"nombre":"Edificación Barrio Prado","grupo":"Arquitectónico","tipo":"Obra de arquitectura","direccion":"Carrera 50A 63 111","sector":"Barrio Prado"},"geometry":{"type":"Point","coordinates":[-75.562106,6.260937]}},{"type":"Feature","properties":{"nombre":"Edificación Barrio Prado","grupo":"Arquitectónico","tipo":"Obra de arquitectura","direccion":"Calle 65 50A 85","sector":"Barrio Prado"},"geometry":{"type":"Point","coordinates":[-75.562408,6.26177]}},{"type":"Feature","properties":{"nombre":"Edificación Barrio Prado","grupo":"Arquitectónico","tipo":"Obra de arquitectura","direccion":"Calle 65 50A 44","sector":"Barrio Prado"},"geometry":{"type":"Point","coordinates":[-75.561968,6.262068]}},{"type":"Feature","properties":{"nombre":"Edificación Barrio Prado","grupo":"Arquitectónico","tipo":"Obra de arquitectura","direccion":"Carrera 49 63 04 / Calle 63 32 56","sector":"Barrio Prado"},"geometry":{"type":"Point","coordinates":[-75.560878,6.259092]}},{"type":"Feature","properties":{"nombre":"Edificación Barrio Prado","grupo":"Arquitectónico","tipo":"Obra de arquitectura","direccion":"Carrera 50 61 85","sector":"Barrio Prado"},"geometry":{"type":"Point","coordinates":[-75.562564,6.258821]}},{"type":"Feature","properties":{"nombre":"Casa Protocolo Alcaldía","grupo":"Arquitectónico","tipo":"Obra de arquitectura","direccion":"Carrera 50 62 45","sector":"Barrio Prado"},"geometry":{"type":"Point","coordinates":[-75.562268,6.259361]}},{"type":"Feature","properties":{"nombre":"Templo Espíritu Santo","grupo":"Arquitectónico","tipo":"Obra de arquitectura","direccion":"Calle 63 49 32","sector":"Barrio Prado"},"geometry":{"type":"Point","coordinates":[-75.561439,6.259616]}},{"type":"Feature","properties":{"nombre":"Edificación Barrio Prado","grupo":"Arquitectónico","tipo":"Obra de arquitectura","direccion":"Carrera 50A 61 60/64","sector":"Barrio Prado"},"geometry":{"type":"Point","coordinates":[-75.562971,6.258923]}},{"type":"Feature","properties":{"nombre":"Edificación Barrio Prado","grupo":"Arquitectónico","tipo":"Obra de arquitectura","direccion":"Calle 63A 48 01/13","sector":"Barrio Prado"},"geometry":{"type":"Point","coordinates":[-75.56025,6.259394]}},{"type":"Feature","properties":{"nombre":"Edificación Barrio Prado","grupo":"Arquitectónico","tipo":"Obra de arquitectura","direccion":"Carrera 50A 61 63/65","sector":"Barrio Prado"},"geometry":{"type":"Point","coordinates":[-75.56362,6.259139]}},{"type":"Feature","properties":{"nombre":"Edificación Barrio Prado","grupo":"Arquitectónico","tipo":"Obra de arquitectura","direccion":"Carrera 50 61 43/47","sector":"Barrio Prado"},"geometry":{"type":"Point","coordinates":[-75.562679,6.258585]}},{"type":"Feature","properties":{"nombre":"Edificación Barrio Prado","grupo":"Arquitectónico","tipo":"Obra de arquitectura","direccion":"Calle 62 49 05","sector":"Barrio Prado"},"geometry":{"type":"Point","coordinates":[-75.561748,6.258318]}},{"type":"Feature","properties":{"nombre":"Edificación Barrio Prado","grupo":"Arquitectónico","tipo":"Obra de arquitectura","direccion":"Carrera 50 60 09","sector":"Barrio Prado"},"geometry":{"type":"Point","coordinates":[-75.563173,6.257677]}},{"type":"Feature","properties":{"nombre":"Edificación Barrio Prado","grupo":"Arquitectónico","tipo":"Obra de arquitectura","direccion":"Carrera 50 59 72","sector":"Barrio Prado"},"geometry":{"type":"Point","coordinates":[-75.563026,6.257257]}},{"type":"Feature","properties":{"nombre":"Edificación Barrio Prado","grupo":"Arquitectónico","tipo":"Obra de arquitectura","direccion":"Calle 59 49 13 / Carrera 49 58 63/77","sector":"Barrio Prado"},"geometry":{"type":"Point","coordinates":[-75.563096,6.256203]}},{"type":"Feature","properties":{"nombre":"Edificación Barrio Prado","grupo":"Arquitectónico","tipo":"Obra de arquitectura","direccion":"Carrera 50 58 58","sector":"Barrio Prado"},"geometry":{"type":"Point","coordinates":[-75.563602,6.256369]}},{"type":"Feature","properties":{"nombre":"Residencia Palacio Egipcio","grupo":"Arquitectónico","tipo":"Obra de arquitectura","direccion":"Carrera 47 59 42/56/54","sector":"Barrio Prado"},"geometry":{"type":"Point","coordinates":[-75.561285,6.255785]}},{"type":"Feature","properties":{"nombre":"Edificación Barrio Prado","grupo":"Arquitectónico","tipo":"Obra de arquitectura","direccion":"Carrera 50A 58 27","sector":"Barrio Prado"},"geometry":{"type":"Point","coordinates":[-75.564836,6.256834]}},{"type":"Feature","properties":{"nombre":"Edificación Barrio Prado","grupo":"Arquitectónico","tipo":"Obra de arquitectura","direccion":"Calle 65 50 50","sector":"Barrio Prado"},"geometry":{"type":"Point","coordinates":[-75.561286,6.261984]}},{"type":"Feature","properties":{"nombre":"Edificación Barrio Prado","grupo":"Arquitectónico","tipo":"Obra de arquitectura","direccion":"Calle 65 49 38 / Carrera 50 65 08","sector":"Barrio Prado"},"geometry":{"type":"Point","coordinates":[-75.560606,6.261823]}},{"type":"Feature","properties":{"nombre":"Edificación Barrio Prado","grupo":"Arquitectónico","tipo":"Obra de arquitectura","direccion":"Carrera 48 63 21/27","sector":"Barrio Prado"},"geometry":{"type":"Point","coordinates":[-75.560566,6.259094]}},{"type":"Feature","properties":{"nombre":"Edificación Barrio Prado","grupo":"Arquitectónico","tipo":"Obra de arquitectura","direccion":"Carrera 50A 61 04/06/08 / Calle 61 50 78","sector":"Barrio Prado"},"geometry":{"type":"Point","coordinates":[-75.563313,6.258535]}},{"type":"Feature","properties":{"nombre":"Edificación Barrio Prado","grupo":"Arquitectónico","tipo":"Obra de arquitectura","direccion":"Carrera 50A 58 05","sector":"Barrio Prado"},"geometry":{"type":"Point","coordinates":[-75.564917,6.25665]}},{"type":"Feature","properties":{"nombre":"Edificación Barrio Prado","grupo":"Arquitectónico","tipo":"Obra de arquitectura","direccion":"Carrera 49 65 22/26","sector":"Barrio Prado"},"geometry":{"type":"Point","coordinates":[-75.559848,6.261596]}},{"type":"Feature","properties":{"nombre":"Edificación Barrio Prado","grupo":"Arquitectónico","tipo":"Obra de arquitectura","direccion":"Carrera 50 65 07","sector":"Barrio Prado"},"geometry":{"type":"Point","coordinates":[-75.560951,6.261893]}},{"type":"Feature","properties":{"nombre":"Edificación Barrio Prado","grupo":"Arquitectónico","tipo":"Obra de arquitectura","direccion":"Carrera 50C 59 61/63","sector":"Barrio Prado"},"geometry":{"type":"Point","coordinates":[-75.564881,6.258427]}},{"type":"Feature","properties":{"nombre":"Edificación Barrio Prado","grupo":"Arquitectónico","tipo":"Obra de arquitectura","direccion":"Calle 59 50 18/04/12","sector":"Barrio Prado"},"geometry":{"type":"Point","coordinates":[-75.56366,6.256982]}},{"type":"Feature","properties":{"nombre":"Edificación Barrio Prado","grupo":"Arquitectónico","tipo":"Obra de arquitectura","direccion":"Carrera 50A 59 30/32","sector":"Barrio Prado"},"geometry":{"type":"Point","coordinates":[-75.563933,6.257427]}},{"type":"Feature","properties":{"nombre":"Edificación Barrio Prado","grupo":"Arquitectónico","tipo":"Obra de arquitectura","direccion":"Carrera 50A 59 70","sector":"Barrio Prado"},"geometry":{"type":"Point","coordinates":[-75.563744,6.257782]}},{"type":"Feature","properties":{"nombre":"Edificación Barrio Prado","grupo":"Arquitectónico","tipo":"Obra de arquitectura","direccion":"Carrera 50 59 59/57","sector":"Barrio Prado"},"geometry":{"type":"Point","coordinates":[-75.563549,6.257497]}},{"type":"Feature","properties":{"nombre":"Edificación Barrio Prado","grupo":"Arquitectónico","tipo":"Obra de arquitectura","direccion":"Carrera 50 59 27/22","sector":"Barrio Prado"},"geometry":{"type":"Point","coordinates":[-75.563617,6.257175]}},{"type":"Feature","properties":{"nombre":"Edificación Barrio Prado","grupo":"Arquitectónico","tipo":"Obra de arquitectura","direccion":"Carrera 48 59 73","sector":"Barrio Prado"},"geometry":{"type":"Point","coordinates":[-75.562117,6.256638]}},{"type":"Feature","properties":{"nombre":"Edificación Barrio Prado","grupo":"Arquitectónico","tipo":"Obra de arquitectura","direccion":"Carrera 47 59 75/67","sector":"Barrio Prado"},"geometry":{"type":"Point","coordinates":[-75.561478,6.25616]}},{"type":"Feature","properties":{"nombre":"Edificación Barrio Prado","grupo":"Arquitectónico","tipo":"Obra de arquitectura","direccion":"Carrera 46 60 09/11","sector":"Barrio Prado"},"geometry":{"type":"Point","coordinates":[-75.560777,6.25602]}},{"type":"Feature","properties":{"nombre":"Edificación Barrio Prado","grupo":"Arquitectónico","tipo":"Obra de arquitectura","direccion":"Calle 60 46 20/24/28","sector":"Barrio Prado"},"geometry":{"type":"Point","coordinates":[-75.560888,6.256093]}},{"type":"Feature","properties":{"nombre":"Edificación Barrio Prado","grupo":"Arquitectónico","tipo":"Obra de arquitectura","direccion":"Carrera 47 60 10","sector":"Barrio Prado"},"geometry":{"type":"Point","coordinates":[-75.561085,6.256248]}},{"type":"Feature","properties":{"nombre":"Edificación Barrio Prado","grupo":"Arquitectónico","tipo":"Obra de arquitectura","direccion":"Calle 61 46 53","sector":"Barrio Prado"},"geometry":{"type":"Point","coordinates":[-75.560856,6.256659]}},{"type":"Feature","properties":{"nombre":"Edificación Barrio Prado","grupo":"Arquitectónico","tipo":"Obra de arquitectura","direccion":"Calle 60 47 14","sector":"Barrio Prado"},"geometry":{"type":"Point","coordinates":[-75.561383,6.256486]}},{"type":"Feature","properties":{"nombre":"Edificación Barrio Prado","grupo":"Arquitectónico","tipo":"Obra de arquitectura","direccion":"Carrera 48 60 24","sector":"Barrio Prado"},"geometry":{"type":"Point","coordinates":[-75.561539,6.256689]}},{"type":"Feature","properties":{"nombre":"Edificación Barrio Prado","grupo":"Arquitectónico","tipo":"Obra de arquitectura","direccion":"Carrera 47 60 45","sector":"Barrio Prado"},"geometry":{"type":"Point","coordinates":[-75.561168,6.256716]}},{"type":"Feature","properties":{"nombre":"Edificación Barrio Prado","grupo":"Arquitectónico","tipo":"Obra de arquitectura","direccion":"Carrera 48 60 25","sector":"Barrio Prado"},"geometry":{"type":"Point","coordinates":[-75.561883,6.256972]}},{"type":"Feature","properties":{"nombre":"Edificación Barrio Prado","grupo":"Arquitectónico","tipo":"Obra de arquitectura","direccion":"Carrera 49 60 06","sector":"Barrio Prado"},"geometry":{"type":"Point","coordinates":[-75.562234,6.257002]}},{"type":"Feature","properties":{"nombre":"Edificación Barrio Prado","grupo":"Arquitectónico","tipo":"Obra de arquitectura","direccion":"Calle 60 49 74 / Carrera 50 60 06","sector":"Barrio Prado"},"geometry":{"type":"Point","coordinates":[-75.562885,6.257453]}},{"type":"Feature","properties":{"nombre":"Edificación Barrio Prado","grupo":"Arquitectónico","tipo":"Obra de arquitectura","direccion":"Carrera 50 60 10/18","sector":"Barrio Prado"},"geometry":{"type":"Point","coordinates":[-75.562837,6.257538]}},{"type":"Feature","properties":{"nombre":"Edificación Barrio Prado","grupo":"Arquitectónico","tipo":"Obra de arquitectura","direccion":"Carrera 50 60 22/26","sector":"Barrio Prado"},"geometry":{"type":"Point","coordinates":[-75.562784,6.257618]}},{"type":"Feature","properties":{"nombre":"Edificación Barrio Prado","grupo":"Arquitectónico","tipo":"Obra de arquitectura","direccion":"Carrera 50 60 34/40","sector":"Barrio Prado"},"geometry":{"type":"Point","coordinates":[-75.562728,6.257696]}},{"type":"Feature","properties":{"nombre":"Edificación Barrio Prado","grupo":"Arquitectónico","tipo":"Obra de arquitectura","direccion":"Carrera 50 60 54/62","sector":"Barrio Prado"},"geometry":{"type":"Point","coordinates":[-75.562657,6.257883]}},{"type":"Feature","properties":{"nombre":"Edificación Barrio Prado","grupo":"Arquitectónico","tipo":"Obra de arquitectura","direccion":"Carrera 49 60 61","sector":"Barrio Prado"},"geometry":{"type":"Point","coordinates":[-75.56224,6.25765]}},{"type":"Feature","properties":{"nombre":"Edificación Barrio Prado","grupo":"Arquitectónico","tipo":"Obra de arquitectura","direccion":"Carrera 49 60 57","sector":"Barrio Prado"},"geometry":{"type":"Point","coordinates":[-75.562275,6.257581]}},{"type":"Feature","properties":{"nombre":"Edificación Barrio Prado","grupo":"Arquitectónico","tipo":"Obra de arquitectura","direccion":"Carrera 49 60 55","sector":"Barrio Prado"},"geometry":{"type":"Point","coordinates":[-75.562315,6.257517]}},{"type":"Feature","properties":{"nombre":"Edificación Barrio Prado","grupo":"Arquitectónico","tipo":"Obra de arquitectura","direccion":"Carrera 49 60 45","sector":"Barrio Prado"},"geometry":{"type":"Point","coordinates":[-75.562358,6.257454]}},{"type":"Feature","properties":{"nombre":"Edificación Barrio Prado","grupo":"Arquitectónico","tipo":"Obra de arquitectura","direccion":"Carrera 49 60 21","sector":"Barrio Prado"},"geometry":{"type":"Point","coordinates":[-75.562484,6.257263]}},{"type":"Feature","properties":{"nombre":"Edificación Barrio Prado","grupo":"Arquitectónico","tipo":"Obra de arquitectura","direccion":"Calle 60 50 16","sector":"Barrio Prado"},"geometry":{"type":"Point","coordinates":[-75.563262,6.257734]}},{"type":"Feature","properties":{"nombre":"Edificación Barrio Prado","grupo":"Arquitectónico","tipo":"Obra de arquitectura","direccion":"Carrera 50 60 43/47","sector":"Barrio Prado"},"geometry":{"type":"Point","coordinates":[-75.563053,6.258005]}},{"type":"Feature","properties":{"nombre":"Edificación Barrio Prado","grupo":"Arquitectónico","tipo":"Obra de arquitectura","direccion":"Carrera 50 60 21/27","sector":"Barrio Prado"},"geometry":{"type":"Point","coordinates":[-75.563134,6.257818]}},{"type":"Feature","properties":{"nombre":"Edificación Barrio Prado","grupo":"Arquitectónico","tipo":"Obra de arquitectura","direccion":"Calle 60 50A 58/62","sector":"Barrio Prado"},"geometry":{"type":"Point","coordinates":[-75.564262,6.258413]}},{"type":"Feature","properties":{"nombre":"Edificación Barrio Prado","grupo":"Arquitectónico","tipo":"Obra de arquitectura","direccion":"Calle 61 50A 59/65","sector":"Barrio Prado"},"geometry":{"type":"Point","coordinates":[-75.564076,6.258751]}},{"type":"Feature","properties":{"nombre":"Edificación Barrio Prado","grupo":"Arquitectónico","tipo":"Obra de arquitectura","direccion":"Calle 61 50C 04/08","sector":"Barrio Prado"},"geometry":{"type":"Point","coordinates":[-75.564251,6.259167]}},{"type":"Feature","properties":{"nombre":"Edificación Barrio Prado","grupo":"Arquitectónico","tipo":"Obra de arquitectura","direccion":"Carrera 50D 61 26","sector":"Barrio Prado"},"geometry":{"type":"Point","coordinates":[-75.564284,6.259407]}},{"type":"Feature","properties":{"nombre":"Edificación Barrio Prado","grupo":"Arquitectónico","tipo":"Obra de arquitectura","direccion":"Carrera 50D 61 50/46","sector":"Barrio Prado"},"geometry":{"type":"Point","coordinates":[-75.564217,6.259562]}},{"type":"Feature","properties":{"nombre":"Edificación Barrio Prado","grupo":"Arquitectónico","tipo":"Obra de arquitectura","direccion":"Carrera 50D 61 58/60/62","sector":"Barrio Prado"},"geometry":{"type":"Point","coordinates":[-75.56418,6.259644]}},{"type":"Feature","properties":{"nombre":"Edificación Barrio Prado","grupo":"Arquitectónico","tipo":"Obra de arquitectura","direccion":"Calle 61 50A 08/10 / Carrera 50A 61 05","sector":"Barrio Prado"},"geometry":{"type":"Point","coordinates":[-75.563635,6.258701]}},{"type":"Feature","properties":{"nombre":"Edificación Barrio Prado","grupo":"Arquitectónico","tipo":"Obra de arquitectura","direccion":"Calle 61 50A 42/46","sector":"Barrio Prado"},"geometry":{"type":"Point","coordinates":[-75.563805,6.25893]}},{"type":"Feature","properties":{"nombre":"Edificación Barrio Prado","grupo":"Arquitectónico","tipo":"Obra de arquitectura","direccion":"Calle 61 50A 70 / Carrera 50C 61 02/04","sector":"Barrio Prado"},"geometry":{"type":"Point","coordinates":[-75.564048,6.258969]}},{"type":"Feature","properties":{"nombre":"Edificación Barrio Prado","grupo":"Arquitectónico","tipo":"Obra de arquitectura","direccion":"Carrera 50C 61 22/26","sector":"Barrio Prado"},"geometry":{"type":"Point","coordinates":[-75.563945,6.259132]}},{"type":"Feature","properties":{"nombre":"Edificación Barrio Prado","grupo":"Arquitectónico","tipo":"Obra de arquitectura","direccion":"Carrera 50C 61 36","sector":"Barrio Prado"},"geometry":{"type":"Point","coordinates":[-75.56386,6.259182]}},{"type":"Feature","properties":{"nombre":"Edificación Barrio Prado","grupo":"Arquitectónico","tipo":"Obra de arquitectura","direccion":"Carrera 50A 61 43/49","sector":"Barrio Prado"},"geometry":{"type":"Point","coordinates":[-75.563415,6.259037]}},{"type":"Feature","properties":{"nombre":"Edificación Barrio Prado","grupo":"Arquitectónico","tipo":"Obra de arquitectura","direccion":"Carrera 50A 61 23/25","sector":"Barrio Prado"},"geometry":{"type":"Point","coordinates":[-75.563533,6.25886]}},{"type":"Feature","properties":{"nombre":"Edificación Barrio Prado","grupo":"Arquitectónico","tipo":"Obra de arquitectura","direccion":"Calle 61 50 26/30","sector":"Barrio Prado"},"geometry":{"type":"Point","coordinates":[-75.562928,6.258406]}},{"type":"Feature","properties":{"nombre":"Edificación Barrio Prado","grupo":"Arquitectónico","tipo":"Obra de arquitectura","direccion":"Calle 61 50 34","sector":"Barrio Prado"},"geometry":{"type":"Point","coordinates":[-75.562976,6.258475]}},{"type":"Feature","properties":{"nombre":"Edificación Barrio Prado","grupo":"Arquitectónico","tipo":"Obra de arquitectura","direccion":"Calle 61 50 46/50","sector":"Barrio Prado"},"geometry":{"type":"Point","coordinates":[-75.563027,6.258556]}},{"type":"Feature","properties":{"nombre":"Edificación Barrio Prado","grupo":"Arquitectónico","tipo":"Obra de arquitectura","direccion":"Calle 61 50 56","sector":"Barrio Prado"},"geometry":{"type":"Point","coordinates":[-75.563131,6.258572]}},{"type":"Feature","properties":{"nombre":"Edificación Barrio Prado","grupo":"Arquitectónico","tipo":"Obra de arquitectura","direccion":"Carrera 50A 61 16/18/20/22","sector":"Barrio Prado"},"geometry":{"type":"Point","coordinates":[-75.56328,6.258659]}},{"type":"Feature","properties":{"nombre":"Edificación Barrio Prado","grupo":"Arquitectónico","tipo":"Obra de arquitectura","direccion":"Carrera 50A 61 40/42","sector":"Barrio Prado"},"geometry":{"type":"Point","coordinates":[-75.563081,6.258808]}},{"type":"Feature","properties":{"nombre":"Edificación Barrio Prado","grupo":"Arquitectónico","tipo":"Obra de arquitectura","direccion":"Carrera 50A 61 86 / Calle 62 50 63","sector":"Barrio Prado"},"geometry":{"type":"Point","coordinates":[-75.562895,6.259092]}},{"type":"Feature","properties":{"nombre":"Edificación Barrio Prado","grupo":"Arquitectónico","tipo":"Obra de arquitectura","direccion":"Calle 61 49 30","sector":"Barrio Prado"},"geometry":{"type":"Point","coordinates":[-75.562174,6.257989]}},{"type":"Feature","properties":{"nombre":"Edificación Barrio Prado","grupo":"Arquitectónico","tipo":"Obra de arquitectura","direccion":"Calle 61 49 38","sector":"Barrio Prado"},"geometry":{"type":"Point","coordinates":[-75.562237,6.258021]}},{"type":"Feature","properties":{"nombre":"Edificación Barrio Prado","grupo":"Arquitectónico","tipo":"Obra de arquitectura","direccion":"Calle 61 49 58/62","sector":"Barrio Prado"},"geometry":{"type":"Point","coordinates":[-75.562436,6.2581]}},{"type":"Feature","properties":{"nombre":"Edificación Barrio Prado","grupo":"Arquitectónico","tipo":"Obra de arquitectura","direccion":"Carrera 50 61 48","sector":"Barrio Prado"},"geometry":{"type":"Point","coordinates":[-75.562379,6.258413]}},{"type":"Feature","properties":{"nombre":"Edificación Barrio Prado","grupo":"Arquitectónico","tipo":"Obra de arquitectura","direccion":"Carrera 50 61 82/76","sector":"Barrio Prado"},"geometry":{"type":"Point","coordinates":[-75.562239,6.258638]}},{"type":"Feature","properties":{"nombre":"Edificación Barrio Prado","grupo":"Arquitectónico","tipo":"Obra de arquitectura","direccion":"Calle 62 49 67","sector":"Barrio Prado"},"geometry":{"type":"Point","coordinates":[-75.562202,6.258491]}},{"type":"Feature","properties":{"nombre":"Edificación Barrio Prado","grupo":"Arquitectónico","tipo":"Obra de arquitectura","direccion":"Calle 62 49 57","sector":"Barrio Prado"},"geometry":{"type":"Point","coordinates":[-75.56212,6.258477]}},{"type":"Feature","properties":{"nombre":"Edificación Barrio Prado","grupo":"Arquitectónico","tipo":"Obra de arquitectura","direccion":"Carrera 48 61 01/05/07 / Calle 61 48 14/26","sector":"Barrio Prado"},"geometry":{"type":"Point","coordinates":[-75.561577,6.257426]}},{"type":"Feature","properties":{"nombre":"Edificación Barrio Prado","grupo":"Arquitectónico","tipo":"Obra de arquitectura","direccion":"Carrera 48 61 78","sector":"Barrio Prado"},"geometry":{"type":"Point","coordinates":[-75.560881,6.257773]}},{"type":"Feature","properties":{"nombre":"Edificación Barrio Prado","grupo":"Arquitectónico","tipo":"Obra de arquitectura","direccion":"Carrera 47 61 47","sector":"Barrio Prado"},"geometry":{"type":"Point","coordinates":[-75.560733,6.25739]}},{"type":"Feature","properties":{"nombre":"Edificación Barrio Prado","grupo":"Arquitectónico","tipo":"Obra de arquitectura","direccion":"Carrera 47 61 37","sector":"Barrio Prado"},"geometry":{"type":"Point","coordinates":[-75.560782,6.257309]}},{"type":"Feature","properties":{"nombre":"Edificación Barrio Prado","grupo":"Arquitectónico","tipo":"Obra de arquitectura","direccion":"Carrera 47 61 58","sector":"Barrio Prado"},"geometry":{"type":"Point","coordinates":[-75.560362,6.257245]}},{"type":"Feature","properties":{"nombre":"Edificación Barrio Prado","grupo":"Arquitectónico","tipo":"Obra de arquitectura","direccion":"Calle 62 46 06","sector":"Barrio Prado"},"geometry":{"type":"Point","coordinates":[-75.559832,6.257421]}},{"type":"Feature","properties":{"nombre":"Edificación Barrio Prado","grupo":"Arquitectónico","tipo":"Obra de arquitectura","direccion":"Calle 62 46 14","sector":"Barrio Prado"},"geometry":{"type":"Point","coordinates":[-75.559875,6.257492]}},{"type":"Feature","properties":{"nombre":"Edificación Barrio Prado","grupo":"Arquitectónico","tipo":"Obra de arquitectura","direccion":"Carrera 49 62 26","sector":"Barrio Prado"},"geometry":{"type":"Point","coordinates":[-75.561247,6.258556]}},{"type":"Feature","properties":{"nombre":"Edificación Barrio Prado","grupo":"Arquitectónico","tipo":"Obra de arquitectura","direccion":"Carrera 49 62 42","sector":"Barrio Prado"},"geometry":{"type":"Point","coordinates":[-75.561166,6.258627]}},{"type":"Feature","properties":{"nombre":"Edificación Barrio Prado","grupo":"Arquitectónico","tipo":"Obra de arquitectura","direccion":"Carrera 49 62 50","sector":"Barrio Prado"},"geometry":{"type":"Point","coordinates":[-75.561127,6.258705]}},{"type":"Feature","properties":{"nombre":"Edificación Barrio Prado","grupo":"Arquitectónico","tipo":"Obra de arquitectura","direccion":"Carrera 49 62 70 / Calle 63 48 55/35","sector":"Barrio Prado"},"geometry":{"type":"Point","coordinates":[-75.561009,6.258884]}},{"type":"Feature","properties":{"nombre":"Edificación Barrio Prado","grupo":"Arquitectónico","tipo":"Obra de arquitectura","direccion":"Calle 62 49 16/26","sector":"Barrio Prado"},"geometry":{"type":"Point","coordinates":[-75.561706,6.258626]}},{"type":"Feature","properties":{"nombre":"Edificación Barrio Prado","grupo":"Arquitectónico","tipo":"Obra de arquitectura","direccion":"Carrera 50 62 06 / Calle 62 49 76","sector":"Barrio Prado"},"geometry":{"type":"Point","coordinates":[-75.562097,6.258838]}},{"type":"Feature","properties":{"nombre":"Edificación Barrio Prado","grupo":"Arquitectónico","tipo":"Obra de arquitectura","direccion":"Carrera 50 62 20/22","sector":"Barrio Prado"},"geometry":{"type":"Point","coordinates":[-75.56197,6.258928]}},{"type":"Feature","properties":{"nombre":"Edificación Barrio Prado","grupo":"Arquitectónico","tipo":"Obra de arquitectura","direccion":"Carrera 50 62 24","sector":"Barrio Prado"},"geometry":{"type":"Point","coordinates":[-75.561916,6.258982]}},{"type":"Feature","properties":{"nombre":"Edificación Barrio Prado","grupo":"Arquitectónico","tipo":"Obra de arquitectura","direccion":"Carrera 50 62 64/72 / Calle 63 49 55/59/63","sector":"Barrio Prado"},"geometry":{"type":"Point","coordinates":[-75.561702,6.259322]}},{"type":"Feature","properties":{"nombre":"Edificación Barrio Prado","grupo":"Arquitectónico","tipo":"Obra de arquitectura","direccion":"Carrera 49 62 29","sector":"Barrio Prado"},"geometry":{"type":"Point","coordinates":[-75.561555,6.258745]}},{"type":"Feature","properties":{"nombre":"Edificación Barrio Prado","grupo":"Arquitectónico","tipo":"Obra de arquitectura","direccion":"Calle 62 50 34","sector":"Barrio Prado"},"geometry":{"type":"Point","coordinates":[-75.562499,6.259181]}},{"type":"Feature","properties":{"nombre":"Edificación Barrio Prado","grupo":"Arquitectónico","tipo":"Obra de arquitectura","direccion":"Calle 62 50 54","sector":"Barrio Prado"},"geometry":{"type":"Point","coordinates":[-75.562604,6.25938]}},{"type":"Feature","properties":{"nombre":"Edificación Barrio Prado","grupo":"Arquitectónico","tipo":"Obra de arquitectura","direccion":"Carrera 50A 62 06/08","sector":"Barrio Prado"},"geometry":{"type":"Point","coordinates":[-75.562803,6.259319]}},{"type":"Feature","properties":{"nombre":"Edificación Barrio Prado","grupo":"Arquitectónico","tipo":"Obra de arquitectura","direccion":"Calle 63 50 61","sector":"Barrio Prado"},"geometry":{"type":"Point","coordinates":[-75.562401,6.259783]}},{"type":"Feature","properties":{"nombre":"Edificación Barrio Prado","grupo":"Arquitectónico","tipo":"Obra de arquitectura","direccion":"Calle 63 50 53","sector":"Barrio Prado"},"geometry":{"type":"Point","coordinates":[-75.562333,6.259739]}},{"type":"Feature","properties":{"nombre":"Edificación Barrio Prado","grupo":"Arquitectónico","tipo":"Obra de arquitectura","direccion":"Carrera 50C 62 06","sector":"Barrio Prado"},"geometry":{"type":"Point","coordinates":[-75.563537,6.2598]}},{"type":"Feature","properties":{"nombre":"Edificación Barrio Prado","grupo":"Arquitectónico","tipo":"Obra de arquitectura","direccion":"Carrera 50C 62 56","sector":"Barrio Prado"},"geometry":{"type":"Point","coordinates":[-75.563334,6.260196]}},{"type":"Feature","properties":{"nombre":"Edificación Barrio Prado","grupo":"Arquitectónico","tipo":"Obra de arquitectura","direccion":"Calle 63 50A 53/55","sector":"Barrio Prado"},"geometry":{"type":"Point","coordinates":[-75.563157,6.26005]}},{"type":"Feature","properties":{"nombre":"Edificación Barrio Prado","grupo":"Arquitectónico","tipo":"Obra de arquitectura","direccion":"Calle 63 50A 29/31","sector":"Barrio Prado"},"geometry":{"type":"Point","coordinates":[-75.562906,6.260018]}},{"type":"Feature","properties":{"nombre":"Edificación Barrio Prado","grupo":"Arquitectónico","tipo":"Obra de arquitectura","direccion":"Calle 63 50A 05/15","sector":"Barrio Prado"},"geometry":{"type":"Point","coordinates":[-75.562716,6.259969]}},{"type":"Feature","properties":{"nombre":"Edificación Barrio Prado","grupo":"Arquitectónico","tipo":"Obra de arquitectura","direccion":"Calle 62 50C 04","sector":"Barrio Prado"},"geometry":{"type":"Point","coordinates":[-75.563698,6.260009]}},{"type":"Feature","properties":{"nombre":"Edificación Barrio Prado","grupo":"Arquitectónico","tipo":"Obra de arquitectura","direccion":"Carrera 50D 62 14","sector":"Barrio Prado"},"geometry":{"type":"Point","coordinates":[-75.563954,6.260206]}},{"type":"Feature","properties":{"nombre":"Edificación Barrio Prado","grupo":"Arquitectónico","tipo":"Obra de arquitectura","direccion":"Carrera 50D 62 26","sector":"Barrio Prado"},"geometry":{"type":"Point","coordinates":[-75.563945,6.260329]}},{"type":"Feature","properties":{"nombre":"Edificación Barrio Prado","grupo":"Arquitectónico","tipo":"Obra de arquitectura","direccion":"Carrera 50D 62 130","sector":"Barrio Prado"},"geometry":{"type":"Point","coordinates":[-75.563567,6.26124]}},{"type":"Feature","properties":{"nombre":"Edificación Barrio Prado","grupo":"Arquitectónico","tipo":"Obra de arquitectura","direccion":"Carrera 50C 63 51/59/61/67 / Calle 64 50C 09","sector":"Barrio Prado"},"geometry":{"type":"Point","coordinates":[-75.56314,6.261133]}},{"type":"Feature","properties":{"nombre":"Edificación Barrio Prado","grupo":"Arquitectónico","tipo":"Obra de arquitectura","direccion":"Carrera 50A 63 03","sector":"Barrio Prado"},"geometry":{"type":"Point","coordinates":[-75.562596,6.260196]}},{"type":"Feature","properties":{"nombre":"Edificación Barrio Prado","grupo":"Arquitectónico","tipo":"Obra de arquitectura","direccion":"Calle 63 50A 28","sector":"Barrio Prado"},"geometry":{"type":"Point","coordinates":[-75.562699,6.260321]}},{"type":"Feature","properties":{"nombre":"Edificación Barrio Prado","grupo":"Arquitectónico","tipo":"Obra de arquitectura","direccion":"Calle 63 50A 64/68","sector":"Barrio Prado"},"geometry":{"type":"Point","coordinates":[-75.562921,6.260553]}},{"type":"Feature","properties":{"nombre":"Edificación Barrio Prado","grupo":"Arquitectónico","tipo":"Obra de arquitectura","direccion":"Calle 64 50A 77/79","sector":"Barrio Prado"},"geometry":{"type":"Point","coordinates":[-75.562725,6.260843]}},{"type":"Feature","properties":{"nombre":"Edificación Barrio Prado","grupo":"Arquitectónico","tipo":"Obra de arquitectura","direccion":"Calle 64 50A 61/63/67","sector":"Barrio Prado"},"geometry":{"type":"Point","coordinates":[-75.562553,6.260926]}},{"type":"Feature","properties":{"nombre":"Yacimiento arqueológico cuenca alta Quebrada Piedras Blancas","grupo":"Arqueológico","tipo":"Sitio arqueológico","direccion":"Corregimiento de Santa Elena"},"geometry":{"type":"Point","coordinates":[-75.523144,6.262837]}},{"type":"Feature","properties":{"nombre":"Yacimiento arqueológico cuenca alta Quebrada Piedras Blancas","grupo":"Arqueológico","tipo":"Sitio arqueológico","direccion":"Corregimiento de Santa Elena"},"geometry":{"type":"Point","coordinates":[-75.496857,6.271236]}},{"type":"Feature","properties":{"nombre":"Yacimiento arqueológico cuenca alta Quebrada Piedras Blancas","grupo":"Arqueológico","tipo":"Sitio arqueológico","direccion":"Corregimiento de Santa Elena"},"geometry":{"type":"Point","coordinates":[-75.480229,6.247272]}},{"type":"Feature","properties":{"nombre":"Yacimiento arqueológico cuenca alta Quebrada Piedras Blancas","grupo":"Arqueológico","tipo":"Sitio arqueológico","direccion":"Corregimiento de Santa Elena"},"geometry":{"type":"Point","coordinates":[-75.498871,6.257276]}},{"type":"Feature","properties":{"nombre":"Catedral Metropolitana","grupo":"Arquitectónico","tipo":"N.A","direccion":"Carrera 48 56 81"},"geometry":{"type":"Point","coordinates":[-75.563857,6.254008]}},{"type":"Feature","properties":{"nombre":"Edificio M3 - Facultad de Minas UNAL","grupo":"Arquitectónico","tipo":"N.A","direccion":"Carrera 80 65 223"},"geometry":{"type":"Point","coordinates":[-75.591158,6.275281]}},{"type":"Feature","properties":{"nombre":"Edificio M5 - Facultad de Minas UNAL","grupo":"Arquitectónico","tipo":"N.A","direccion":"Carrera 80 65 223"},"geometry":{"type":"Point","coordinates":[-75.591646,6.27483]}},{"type":"Feature","properties":{"nombre":"Palacio Bellas Artes","grupo":"Arquitectónico","tipo":"N.A","direccion":"Carrera 42 52 33"},"geometry":{"type":"Point","coordinates":[-75.561451,6.248479]}},{"type":"Feature","properties":{"nombre":"Museo de Antioquia","grupo":"Arquitectónico","tipo":"N.A","direccion":"Carrera 52 52 43"},"geometry":{"type":"Point","coordinates":[-75.569133,6.252394]}},{"type":"Feature","properties":{"nombre":"Palacio de la Cultura Rafael Uribe Uribe","grupo":"Arquitectónico","tipo":"N.A","direccion":"Carrera 51 52 01"},"geometry":{"type":"Point","coordinates":[-75.568151,6.251703]}},{"type":"Feature","properties":{"nombre":"Templo Nuestra Señora de la Candelaria","grupo":"Arquitectónico","tipo":"N.A","direccion":"Calle 51 49 51"},"geometry":{"type":"Point","coordinates":[-75.567288,6.249901]}},{"type":"Feature","properties":{"nombre":"Templo El Calvario","grupo":"Arquitectónico","tipo":"N.A","direccion":"Carrera 48A 77 04"},"geometry":{"type":"Point","coordinates":[-75.557671,6.271152]}},{"type":"Feature","properties":{"nombre":"Edificio Carré","grupo":"Arquitectónico","tipo":"N.A","direccion":"Calle 44B 52 34"},"geometry":{"type":"Point","coordinates":[-75.571351,6.245994]}},{"type":"Feature","properties":{"nombre":"Edificio Vásquez","grupo":"Arquitectónico","tipo":"N.A","direccion":"Carrera 52 44A 17"},"geometry":{"type":"Point","coordinates":[-75.57152,6.245532]}},{"type":"Feature","properties":{"nombre":"Estación Medellín-Cisneros","grupo":"Arquitectónico","tipo":"N.A","direccion":"Carrera 52 43 31"},"geometry":{"type":"Point","coordinates":[-75.571951,6.244694]}},{"type":"Feature","properties":{"nombre":"Templo Sagrado Corazón de Jesús","grupo":"Arquitectónico","tipo":"N.A","direccion":"Carrera 57A 44A 15"},"geometry":{"type":"Point","coordinates":[-75.576176,6.247723]}},{"type":"Feature","properties":{"nombre":"Hospital San Vicente de Paul","grupo":"Arquitectónico","tipo":"N.A","direccion":"Calle 64 51 78"},"geometry":{"type":"Point","coordinates":[-75.565296,6.26259]}},{"type":"Feature","properties":{"nombre":"Templo Jesús Nazareno y Antigua Ermita","grupo":"Arquitectónico","tipo":"N.A","direccion":"Carrera 52 61 30"},"geometry":{"type":"Point","coordinates":[-75.566767,6.259959]}},{"type":"Feature","properties":{"nombre":"Edificios de Morfología y Bioquímica UdeA","grupo":"Arquitectónico","tipo":"N.A","direccion":"Carrera 51D 62 29"},"geometry":{"type":"Point","coordinates":[-75.566194,6.261494]}},{"type":"Feature","properties":{"nombre":"Edificios de Morfología y Bioquímica UdeA","grupo":"Arquitectónico","tipo":"N.A","direccion":"Carrera 51D 62 29"},"geometry":{"type":"Point","coordinates":[-75.56627,6.261041]}},{"type":"Feature","properties":{"nombre":"Museo Cementerio San Pedro","grupo":"Arquitectónico","tipo":"N.A","direccion":"Carrera 51 68 68"},"geometry":{"type":"Point","coordinates":[-75.561378,6.26561]}},{"type":"Feature","properties":{"nombre":"Cementerio San Lorenzo","grupo":"Arquitectónico","tipo":"Conjunto","direccion":"Carrera 43B 43 03"},"geometry":{"type":"Point","coordinates":[-75.566086,6.24152]}},{"type":"Feature","properties":{"nombre":"Biblioteca Universidad Nacional","grupo":"Arquitectónico","tipo":"Obra de arquitectura","direccion":"Calle 59A 63 20"},"geometry":{"type":"Point","coordinates":[-75.577308,6.261525]}},{"type":"Feature","properties":{"nombre":"Estación El Bosque","grupo":"Arquitectónico","tipo":"N.A","direccion":"Carrera 53 77"},"geometry":{"type":"Point","coordinates":[-75.56559,6.271791]}},{"type":"Feature","properties":{"nombre":"Aeropuerto Olaya Herrera","grupo":"Arquitectónico","tipo":"Obra de arquitectura","direccion":"Carrera 65A 13 157"},"geometry":{"type":"Point","coordinates":[-75.586919,6.218858]}},{"type":"Feature","properties":{"nombre":"Casa Natal Francisco Antonio Zea","grupo":"Arquitectónico","tipo":"N.A","direccion":"Calle 51 54 63"},"geometry":{"type":"Point","coordinates":[-75.571654,6.251894]}},{"type":"Feature","properties":{"nombre":"Casa Museo Pedro Nel Gómez","grupo":"Arquitectónico","tipo":"Obra de arquitectura","direccion":"Carrera 51B 85 24"},"geometry":{"type":"Point","coordinates":[-75.562185,6.278503]}},{"type":"Feature","properties":{"nombre":"Archivo Histórico de Medellín","grupo":"Arquitectónico","tipo":"Obra de arquitectura","direccion":"Calle 50 43 64"},"geometry":{"type":"Point","coordinates":[-75.563341,6.247747]}},{"type":"Feature","properties":{"nombre":"Parque de la Esculturas del Cerro Nutibara","grupo":"Urbanístico","tipo":"Zona verde recreacional","direccion":"Cerro Nutibara"},"geometry":{"type":"Point","coordinates":[-75.581046,6.236565]}},{"type":"Feature","properties":{"nombre":"Parque El Poblado","grupo":"Urbanístico","tipo":"Parque cívico","direccion":"Carrera 43A y 43B Calle 9 y 10"},"geometry":{"type":"Point","coordinates":[-75.570988,6.210341]}},{"type":"Feature","properties":{"nombre":"Templo de Mazo","grupo":"Arquitectónico","tipo":"Obra de arquitectura","direccion":"Vereda Mazo"},"geometry":{"type":"Point","coordinates":[-75.50087,6.254888]}},{"type":"Feature","properties":{"nombre":"Templo Señor de las Misericordias y Convento","grupo":"Arquitectónico","tipo":"Obra de arquitectura","direccion":"Calle 67 47 06/08"},"geometry":{"type":"Point","coordinates":[-75.556926,6.263618]}},{"type":"Feature","properties":{"nombre":"Templo San José (Centro)","grupo":"Arquitectónico","tipo":"Obra de arquitectura","direccion":"Calle 46 49 98"},"geometry":{"type":"Point","coordinates":[-75.56521,6.247822]}},{"type":"Feature","properties":{"nombre":"Templo San Benito","grupo":"Arquitectónico","tipo":"Obra de arquitectura","direccion":"Calle 51 56A 76"},"geometry":{"type":"Point","coordinates":[-75.573747,6.254131]}},{"type":"Feature","properties":{"nombre":"Templo San Juan de Dios","grupo":"Arquitectónico","tipo":"Obra de arquitectura","direccion":"Carrera 54 49 85"},"geometry":{"type":"Point","coordinates":[-75.571517,6.250961]}},{"type":"Feature","properties":{"nombre":"Antiguo Claustro San Ignacio","grupo":"Arquitectónico","tipo":"N.A","direccion":"Carrera 44 48 18"},"geometry":{"type":"Point","coordinates":[-75.56401,6.245767]}},{"type":"Feature","properties":{"nombre":"Antigua Fac. Derecho UdeA - Antiguo Liceo Javiera","grupo":"Arquitectónico","tipo":"N.A","direccion":"Carrera 43 48 44"},"geometry":{"type":"Point","coordinates":[-75.563416,6.245724]}},{"type":"Feature","properties":{"nombre":"Templo San Antonio","grupo":"Arquitectónico","tipo":"Obra de arquitectura","direccion":"Carrera 48 44 55/31"},"geometry":{"type":"Point","coordinates":[-75.569158,6.244671]}},{"type":"Feature","properties":{"nombre":"Templo Nuestra Señora Perpetuo Socorro","grupo":"Arquitectónico","tipo":"Obra de arquitectura","direccion":"Carrera 50 35 12"},"geometry":{"type":"Point","coordinates":[-75.57277,6.236308]}},{"type":"Feature","properties":{"nombre":"Templo San José (El Poblado)","grupo":"Arquitectónico","tipo":"Obra de arquitectura","direccion":"Carrera 43A 9 30"},"geometry":{"type":"Point","coordinates":[-75.570249,6.210034]}},{"type":"Feature","properties":{"nombre":"Puente de Guayaquil","grupo":"Arquitectónico","tipo":"Obra de ingeniería","direccion":"Calle 32 48 62"},"geometry":{"type":"Point","coordinates":[-75.575652,6.234015]}},{"type":"Feature","properties":{"nombre":"Sede Pequeño Teatro","grupo":"Arquitectónico","tipo":"Obra de arquitectura","direccion":"Carrera 42 50A 12"},"geometry":{"type":"Point","coordinates":[-75.561448,6.247406]}},{"type":"Feature","properties":{"nombre":"Fundación Antioqueña para Estudios Sociales FAES","grupo":"Arquitectónico","tipo":"Obra de arquitectura","direccion":"Carrera 45 59 77"},"geometry":{"type":"Point","coordinates":[-75.559699,6.254694]}},{"type":"Feature","properties":{"nombre":"Centro Comercial Villanueva parte antigua","grupo":"Arquitectónico","tipo":"N.A","direccion":"Calle 57 49 44"},"geometry":{"type":"Point","coordinates":[-75.564135,6.255211]}},{"type":"Feature","properties":{"nombre":"Teatro Pablo Tobón Uribe","grupo":"Arquitectónico","tipo":"Obra de arquitectura","direccion":"Carrera 40 51 24"},"geometry":{"type":"Point","coordinates":[-75.559103,6.247473]}},{"type":"Feature","properties":{"nombre":"Hogar Geriátrico Mi Casa","grupo":"Arquitectónico","tipo":"Obra de arquitectura","direccion":"Calle 44 43 58"},"geometry":{"type":"Point","coordinates":[-75.565514,6.243447]}},{"type":"Feature","properties":{"nombre":"Teatro Lido","grupo":"Arquitectónico","tipo":"N.A","direccion":"Carrera 48 54 20/30"},"geometry":{"type":"Point","coordinates":[-75.564362,6.252211]}},{"type":"Feature","properties":{"nombre":"Casa Restaurante La Estancia","grupo":"Arquitectónico","tipo":"N.A","direccion":"Carrera 49 54 03/07"},"geometry":{"type":"Point","coordinates":[-75.565295,6.252674]}},{"type":"Feature","properties":{"nombre":"Casa Sede Comfenalco","grupo":"Arquitectónico","tipo":"N.A","direccion":"Carrera 49 54 63"},"geometry":{"type":"Point","coordinates":[-75.565132,6.253023]}},{"type":"Feature","properties":{"nombre":"Casa Sede Jardines Montesacro - Prever","grupo":"Arquitectónico","tipo":"N.A","direccion":"Carrera 49 54 47"},"geometry":{"type":"Point","coordinates":[-75.565264,6.252942]}},{"type":"Feature","properties":{"nombre":"Casa Sede Banco Ganadero","grupo":"Arquitectónico","tipo":"N.A","direccion":"Calle 56 47 32"},"geometry":{"type":"Point","coordinates":[-75.563682,6.253538]}},{"type":"Feature","properties":{"nombre":"Sede Club Unión","grupo":"Arquitectónico","tipo":"Obra de arquitectura","direccion":"Carrera 49 52 117/123"},"geometry":{"type":"Point","coordinates":[-75.566379,6.251201]}},{"type":"Feature","properties":{"nombre":"Casa Sede Censa (antes Cedecomputo)","grupo":"Arquitectónico","tipo":"Obra de arquitectura","direccion":"Calle 51 43 83/87"},"geometry":{"type":"Point","coordinates":[-75.563284,6.24816]}},{"type":"Feature","properties":{"nombre":"Casa Sede Confiar","grupo":"Arquitectónico","tipo":"Obra de arquitectura","direccion":"Calle 54 46 83"},"geometry":{"type":"Point","coordinates":[-75.564289,6.251656]}},{"type":"Feature","properties":{"nombre":"Casa Sede Bancolombia","grupo":"Arquitectónico","tipo":"N.A","direccion":"Calle 54 47 49/37"},"geometry":{"type":"Point","coordinates":[-75.564819,6.251956]}},{"type":"Feature","properties":{"nombre":"Casa Sede Salón Mariela","grupo":"Arquitectónico","tipo":"Obra de arquitectura","direccion":"Calle 53 45 44/46"},"geometry":{"type":"Point","coordinates":[-75.56323,6.250027]}},{"type":"Feature","properties":{"nombre":"Orfanato San José","grupo":"Arquitectónico","tipo":"Obra de arquitectura","direccion":"Calle 59A 39 54"},"geometry":{"type":"Point","coordinates":[-75.556263,6.252135]}},{"type":"Feature","properties":{"nombre":"Colegio María Auxiliadora","grupo":"Arquitectónico","tipo":"Obra de arquitectura","direccion":"Carrera 45 58 88"},"geometry":{"type":"Point","coordinates":[-75.559829,6.253379]}},{"type":"Feature","properties":{"nombre":"Hotel Nutibara","grupo":"Arquitectónico","tipo":"N.A","direccion":"Calle 52A 50 46"},"geometry":{"type":"Point","coordinates":[-75.567224,6.252453]}},{"type":"Feature","properties":{"nombre":"Edificio Henry","grupo":"Arquitectónico","tipo":"N.A","direccion":"Carrera 51 51 17"},"geometry":{"type":"Point","coordinates":[-75.568414,6.250774]}},{"type":"Feature","properties":{"nombre":"Edificio Bolsa de Medellín","grupo":"Arquitectónico","tipo":"N.A","direccion":"Carrera 50 50 48"},"geometry":{"type":"Point","coordinates":[-75.567516,6.249773]}},{"type":"Feature","properties":{"nombre":"Edificio Banco de Colombia","grupo":"Arquitectónico","tipo":"N.A","direccion":"Carrera 51 49 59"},"geometry":{"type":"Point","coordinates":[-75.568914,6.249648]}},{"type":"Feature","properties":{"nombre":"Edificio Banco de Bogotá","grupo":"Arquitectónico","tipo":"N.A","direccion":"Calle 50 51 37"},"geometry":{"type":"Point","coordinates":[-75.569134,6.249702]}},{"type":"Feature","properties":{"nombre":"Edificio Banco Industrial Colombiano","grupo":"Arquitectónico","tipo":"N.A","direccion":"Carrera 52 50 20"},"geometry":{"type":"Point","coordinates":[-75.569192,6.250312]}},{"type":"Feature","properties":{"nombre":"Edificio Banco Ganadero","grupo":"Arquitectónico","tipo":"N.A","direccion":"Calle 50 51 24"},"geometry":{"type":"Point","coordinates":[-75.568927,6.250143]}},{"type":"Feature","properties":{"nombre":"Edificio Banco Comercial Antioqueño","grupo":"Arquitectónico","tipo":"N.A","direccion":"Calle 50 51 75"},"geometry":{"type":"Point","coordinates":[-75.569328,6.249805]}},{"type":"Feature","properties":{"nombre":"Edificio Suramericana de Capitalización","grupo":"Arquitectónico","tipo":"N.A","direccion":"Carrera 52 50 13"},"geometry":{"type":"Point","coordinates":[-75.569664,6.250468]}},{"type":"Feature","properties":{"nombre":"Edificio Coltabaco","grupo":"Arquitectónico","tipo":"N.A","direccion":"Carrera 51 50 67/41"},"geometry":{"type":"Point","coordinates":[-75.56857,6.250402]}},{"type":"Feature","properties":{"nombre":"Edificio Suramericana de Seguros (Banco Sudameris)","grupo":"Arquitectónico","tipo":"N.A","direccion":"Carrera 52 50 25/37/33"},"geometry":{"type":"Point","coordinates":[-75.569611,6.250685]}},{"type":"Feature","properties":{"nombre":"Edificio Colseguros","grupo":"Arquitectónico","tipo":"N.A","direccion":"Carrera 52 51A 23"},"geometry":{"type":"Point","coordinates":[-75.56936,6.251496]}},{"type":"Feature","properties":{"nombre":"Edificio Cárdenas","grupo":"Arquitectónico","tipo":"N.A","direccion":"Calle 52 50 27/19"},"geometry":{"type":"Point","coordinates":[-75.567548,6.250982]}},{"type":"Feature","properties":{"nombre":"Edificio Álvarez Santamaría","grupo":"Arquitectónico","tipo":"N.A","direccion":"Carrera 50 51A 27"},"geometry":{"type":"Point","coordinates":[-75.567516,6.250847]}},{"type":"Feature","properties":{"nombre":"Edificio Naviera Colombiana","grupo":"Arquitectónico","tipo":"N.A","direccion":"Carrera 50A 52 36"},"geometry":{"type":"Point","coordinates":[-75.56731,6.251302]}},{"type":"Feature","properties":{"nombre":"Edificio Gutemberg","grupo":"Arquitectónico","tipo":"N.A","direccion":"Calle 52 51 65 / Carrera 52 51 62"},"geometry":{"type":"Point","coordinates":[-75.568753,6.251461]}},{"type":"Feature","properties":{"nombre":"Edificio Constain","grupo":"Arquitectónico","tipo":"N.A","direccion":"Carrera 50 51 24/16"},"geometry":{"type":"Point","coordinates":[-75.567396,6.250229]}},{"type":"Feature","properties":{"nombre":"Edificio Palacé","grupo":"Arquitectónico","tipo":"N.A","direccion":"Calle 52 49 105/109"},"geometry":{"type":"Point","coordinates":[-75.567319,6.250498]}},{"type":"Feature","properties":{"nombre":"Edificio Central","grupo":"Arquitectónico","tipo":"N.A","direccion":"Calle 52 49 103"},"geometry":{"type":"Point","coordinates":[-75.567147,6.250182]}},{"type":"Feature","properties":{"nombre":"Edificio Vélez Ángel","grupo":"Arquitectónico","tipo":"N.A","direccion":"Calle 52 49 45/61"},"geometry":{"type":"Point","coordinates":[-75.566961,6.250094]}},{"type":"Feature","properties":{"nombre":"Edificio Fabricato","grupo":"Arquitectónico","tipo":"N.A","direccion":"Calle 51 49 11/31"},"geometry":{"type":"Point","coordinates":[-75.566825,6.249696]}},{"type":"Feature","properties":{"nombre":"Edificio La Bastilla","grupo":"Arquitectónico","tipo":"N.A","direccion":"Calle 51 48 03/21/09"},"geometry":{"type":"Point","coordinates":[-75.566335,6.249619]}},{"type":"Feature","properties":{"nombre":"Lucrecio Vélez","grupo":"Arquitectónico","tipo":"N.A","direccion":"Carrera 49 50 26/42/30"},"geometry":{"type":"Point","coordinates":[-75.566523,6.24926]}},{"type":"Feature","properties":{"nombre":"Edificación Barrio Prado","grupo":"Arquitectónico","tipo":"Obra de arquitectura","direccion":"Calle 65 49 04/12","sector":"Barrio Prado"},"geometry":{"type":"Point","coordinates":[-75.560245,6.261834]}},{"type":"Feature","properties":{"nombre":"Edificación Barrio Prado","grupo":"Arquitectónico","tipo":"Obra de arquitectura","direccion":"Carrera 50 64 44/50","sector":"Barrio Prado"},"geometry":{"type":"Point","coordinates":[-75.560649,6.261393]}},{"type":"Feature","properties":{"nombre":"Edificación Barrio Prado","grupo":"Arquitectónico","tipo":"Obra de arquitectura","direccion":"Carrera 50 64 67","sector":"Barrio Prado"},"geometry":{"type":"Point","coordinates":[-75.561053,6.261602]}},{"type":"Feature","properties":{"nombre":"Edificación Barrio Prado","grupo":"Arquitectónico","tipo":"Obra de arquitectura","direccion":"Carrera 50 64 31","sector":"Barrio Prado"},"geometry":{"type":"Point","coordinates":[-75.561155,6.261253]}},{"type":"Feature","properties":{"nombre":"Edificación Barrio Prado","grupo":"Arquitectónico","tipo":"Obra de arquitectura","direccion":"Carrera 50A 64 09","sector":"Barrio Prado"},"geometry":{"type":"Point","coordinates":[-75.561951,6.261237]}},{"type":"Feature","properties":{"nombre":"Edificación Barrio Prado","grupo":"Arquitectónico","tipo":"Obra de arquitectura","direccion":"Carrera 50C 64 18/26","sector":"Barrio Prado"},"geometry":{"type":"Point","coordinates":[-75.562691,6.261447]}},{"type":"Feature","properties":{"nombre":"Casa Turantioquia","grupo":"Arquitectónico","tipo":"Obra de arquitectura","direccion":"Carrera 48 58 11/29","sector":"Barrio Prado"},"geometry":{"type":"Point","coordinates":[-75.562847,6.255438]}},{"type":"Feature","properties":{"nombre":"Edificación Barrio Prado","grupo":"Arquitectónico","tipo":"Obra de arquitectura","direccion":"Carrera 49 58 74/78/80","sector":"Barrio Prado"},"geometry":{"type":"Point","coordinates":[-75.562744,6.256044]}},{"type":"Feature","properties":{"nombre":"Edificación Barrio Prado","grupo":"Arquitectónico","tipo":"Obra de arquitectura","direccion":"Carrera 48 58 75","sector":"Barrio Prado"},"geometry":{"type":"Point","coordinates":[-75.562553,6.25584]}},{"type":"Feature","properties":{"nombre":"Edificación Barrio Prado","grupo":"Arquitectónico","tipo":"Obra de arquitectura","direccion":"Carrera 50 58 14","sector":"Barrio Prado"},"geometry":{"type":"Point","coordinates":[-75.563793,6.25607]}},{"type":"Feature","properties":{"nombre":"Edificación Barrio Prado","grupo":"Arquitectónico","tipo":"Obra de arquitectura","direccion":"Carrera 50 58 48","sector":"Barrio Prado"},"geometry":{"type":"Point","coordinates":[-75.563588,6.256247]}},{"type":"Feature","properties":{"nombre":"Edificación Barrio Prado","grupo":"Arquitectónico","tipo":"Obra de arquitectura","direccion":"Carrera 50 58 07","sector":"Barrio Prado"},"geometry":{"type":"Point","coordinates":[-75.564219,6.256202]}},{"type":"Feature","properties":{"nombre":"Edificación Barrio Prado","grupo":"Arquitectónico","tipo":"Obra de arquitectura","direccion":"Carrera 50A 58 88 / Calle 59 50 45/51/53/57/61/65","sector":"Barrio Prado"},"geometry":{"type":"Point","coordinates":[-75.56419,6.257046]}},{"type":"Feature","properties":{"nombre":"Edificación Barrio Prado","grupo":"Arquitectónico","tipo":"Obra de arquitectura","direccion":"Calle 59 50 39","sector":"Barrio Prado"},"geometry":{"type":"Point","coordinates":[-75.564091,6.25687]}},{"type":"Feature","properties":{"nombre":"Edificación Barrio Prado","grupo":"Arquitectónico","tipo":"Obra de arquitectura","direccion":"Calle 58 50A 36","sector":"Barrio Prado"},"geometry":{"type":"Point","coordinates":[-75.565044,6.256813]}},{"type":"Feature","properties":{"nombre":"Edificación Barrio Prado","grupo":"Arquitectónico","tipo":"Obra de arquitectura","direccion":"Carrera 50A 58 79","sector":"Barrio Prado"},"geometry":{"type":"Point","coordinates":[-75.564536,6.257186]}},{"type":"Feature","properties":{"nombre":"Edificación Barrio Prado","grupo":"Arquitectónico","tipo":"Obra de arquitectura","direccion":"Calle 59 50A 14","sector":"Barrio Prado"},"geometry":{"type":"Point","coordinates":[-75.564384,6.257464]}},{"type":"Feature","properties":{"nombre":"Edificación Barrio Prado","grupo":"Arquitectónico","tipo":"Obra de arquitectura","direccion":"Calle 59 50A 74","sector":"Barrio Prado"},"geometry":{"type":"Point","coordinates":[-75.564812,6.257875]}},{"type":"Feature","properties":{"nombre":"Edificación Barrio Prado","grupo":"Arquitectónico","tipo":"Obra de arquitectura","direccion":"Carrera 50C 59 32","sector":"Barrio Prado"},"geometry":{"type":"Point","coordinates":[-75.564691,6.257986]}},{"type":"Feature","properties":{"nombre":"Edificación Barrio Prado","grupo":"Arquitectónico","tipo":"Obra de arquitectura","direccion":"Carrera 50C 59 52","sector":"Barrio Prado"},"geometry":{"type":"Point","coordinates":[-75.564576,6.258124]}},{"type":"Feature","properties":{"nombre":"Edificación Barrio Prado","grupo":"Arquitectónico","tipo":"Obra de arquitectura","direccion":"Carrera 50C 59 62","sector":"Barrio Prado"},"geometry":{"type":"Point","coordinates":[-75.564528,6.258195]}},{"type":"Feature","properties":{"nombre":"Edificación Barrio Prado","grupo":"Arquitectónico","tipo":"Obra de arquitectura","direccion":"Carrera 50 59 71","sector":"Barrio Prado"},"geometry":{"type":"Point","coordinates":[-75.563388,6.257499]}},{"type":"Feature","properties":{"nombre":"Edificación Barrio Prado","grupo":"Arquitectónico","tipo":"Obra de arquitectura","direccion":"Carrera 50 59 19","sector":"Barrio Prado"},"geometry":{"type":"Point","coordinates":[-75.56369,6.25713]}},{"type":"Feature","properties":{"nombre":"Edificación Barrio Prado","grupo":"Arquitectónico","tipo":"Obra de arquitectura","direccion":"Calle 59 49 42","sector":"Barrio Prado"},"geometry":{"type":"Point","coordinates":[-75.563197,6.256663]}},{"type":"Feature","properties":{"nombre":"Edificación Barrio Prado","grupo":"Arquitectónico","tipo":"Obra de arquitectura","direccion":"Carrera 50 59 6","sector":"Barrio Prado"},"geometry":{"type":"Point","coordinates":[-75.563342,6.256763]}},{"type":"Feature","properties":{"nombre":"Edificación Barrio Prado","grupo":"Arquitectónico","tipo":"Obra de arquitectura","direccion":"Carrera 50 59 22","sector":"Barrio Prado"},"geometry":{"type":"Point","coordinates":[-75.563245,6.25685]}},{"type":"Feature","properties":{"nombre":"Edificación Barrio Prado","grupo":"Arquitectónico","tipo":"Obra de arquitectura","direccion":"Carrera 50 59 32","sector":"Barrio Prado"},"geometry":{"type":"Point","coordinates":[-75.563189,6.256954]}},{"type":"Feature","properties":{"nombre":"Edificación Barrio Prado","grupo":"Arquitectónico","tipo":"Obra de arquitectura","direccion":"Carrera 49 59 63","sector":"Barrio Prado"},"geometry":{"type":"Point","coordinates":[-75.562704,6.256925]}},{"type":"Feature","properties":{"nombre":"Edificación Barrio Prado","grupo":"Arquitectónico","tipo":"Obra de arquitectura","direccion":"Carrera 49 59 43","sector":"Barrio Prado"},"geometry":{"type":"Point","coordinates":[-75.562803,6.256773]}},{"type":"Feature","properties":{"nombre":"Edificación Barrio Prado","grupo":"Arquitectónico","tipo":"Obra de arquitectura","direccion":"Carrera 49 59 33","sector":"Barrio Prado"},"geometry":{"type":"Point","coordinates":[-75.562851,6.256705]}},{"type":"Feature","properties":{"nombre":"Edificación Barrio Prado","grupo":"Arquitectónico","tipo":"Obra de arquitectura","direccion":"Carrera 49 59 38/42","sector":"Barrio Prado"},"geometry":{"type":"Point","coordinates":[-75.562478,6.256547]}},{"type":"Feature","properties":{"nombre":"Edificación Barrio Prado","grupo":"Arquitectónico","tipo":"Obra de arquitectura","direccion":"Carrera 49 59 58/62","sector":"Barrio Prado"},"geometry":{"type":"Point","coordinates":[-75.562376,6.256704]}},{"type":"Feature","properties":{"nombre":"Edificación Barrio Prado","grupo":"Arquitectónico","tipo":"Obra de arquitectura","direccion":"Carrera 49 59 70/74","sector":"Barrio Prado"},"geometry":{"type":"Point","coordinates":[-75.562329,6.256778]}},{"type":"Feature","properties":{"nombre":"Edificación Barrio Prado","grupo":"Arquitectónico","tipo":"Obra de arquitectura","direccion":"Calle 60 47 15/27","sector":"Barrio Prado"},"geometry":{"type":"Point","coordinates":[-75.561583,6.256238]}},{"type":"Feature","properties":{"nombre":"Edificación Barrio Prado","grupo":"Arquitectónico","tipo":"Obra de arquitectura","direccion":"Carrera 50 60 44/50","sector":"Barrio Prado"},"geometry":{"type":"Point","coordinates":[-75.56266,6.257741]}},{"type":"Feature","properties":{"nombre":"Edificación Barrio Prado","grupo":"Arquitectónico","tipo":"Obra de arquitectura","direccion":"Calle 60 50 24/36","sector":"Barrio Prado"},"geometry":{"type":"Point","coordinates":[-75.563346,6.25781]}},{"type":"Feature","properties":{"nombre":"Edificación Barrio Prado","grupo":"Arquitectónico","tipo":"Obra de arquitectura","direccion":"Carrera 50 60 39","sector":"Barrio Prado"},"geometry":{"type":"Point","coordinates":[-75.56313,6.257928]}},{"type":"Feature","properties":{"nombre":"Edificación Barrio Prado","grupo":"Arquitectónico","tipo":"Obra de arquitectura","direccion":"Carrera 50C 61 80/82","sector":"Barrio Prado"},"geometry":{"type":"Point","coordinates":[-75.563641,6.259529]}},{"type":"Feature","properties":{"nombre":"Edificación Barrio Prado","grupo":"Arquitectónico","tipo":"Obra de arquitectura","direccion":"Carrera 50A 61 33/35","sector":"Barrio Prado"},"geometry":{"type":"Point","coordinates":[-75.563481,6.258941]}},{"type":"Feature","properties":{"nombre":"Edificación Barrio Prado","grupo":"Arquitectónico","tipo":"Obra de arquitectura","direccion":"Calle 61 50 16","sector":"Barrio Prado"},"geometry":{"type":"Point","coordinates":[-75.562904,6.258291]}},{"type":"Feature","properties":{"nombre":"Edificación Barrio Prado","grupo":"Arquitectónico","tipo":"Obra de arquitectura","direccion":"Carrera 50A 61 70/72","sector":"Barrio Prado"},"geometry":{"type":"Point","coordinates":[-75.562949,6.259012]}},{"type":"Feature","properties":{"nombre":"Edificación Barrio Prado","grupo":"Arquitectónico","tipo":"Obra de arquitectura","direccion":"Carrera 50 61 27/35","sector":"Barrio Prado"},"geometry":{"type":"Point","coordinates":[-75.562757,6.258482]}},{"type":"Feature","properties":{"nombre":"Edificación Barrio Prado","grupo":"Arquitectónico","tipo":"Obra de arquitectura","direccion":"Carrera 50 61 19/21","sector":"Barrio Prado"},"geometry":{"type":"Point","coordinates":[-75.562791,6.258347]}},{"type":"Feature","properties":{"nombre":"Edificación Barrio Prado","grupo":"Arquitectónico","tipo":"Obra de arquitectura","direccion":"Carrera 50 61 06/08","sector":"Barrio Prado"},"geometry":{"type":"Point","coordinates":[-75.562588,6.258068]}},{"type":"Feature","properties":{"nombre":"Edificación Barrio Prado","grupo":"Arquitectónico","tipo":"Obra de arquitectura","direccion":"Carrera 50 61 12/16","sector":"Barrio Prado"},"geometry":{"type":"Point","coordinates":[-75.56252,6.258107]}},{"type":"Feature","properties":{"nombre":"Edificación Barrio Prado","grupo":"Arquitectónico","tipo":"Obra de arquitectura","direccion":"Carrera 50 61 34/38/40","sector":"Barrio Prado"},"geometry":{"type":"Point","coordinates":[-75.562375,6.258275]}},{"type":"Feature","properties":{"nombre":"Edificación Barrio Prado","grupo":"Arquitectónico","tipo":"Obra de arquitectura","direccion":"Carrera 50 61 24","sector":"Barrio Prado"},"geometry":{"type":"Point","coordinates":[-75.562487,6.25823]}},{"type":"Feature","properties":{"nombre":"Edificación Barrio Prado","grupo":"Arquitectónico","tipo":"Obra de arquitectura","direccion":"Carrera 49 62 20","sector":"Barrio Prado"},"geometry":{"type":"Point","coordinates":[-75.561306,6.258469]}},{"type":"Feature","properties":{"nombre":"Edificación Barrio Prado","grupo":"Arquitectónico","tipo":"Obra de arquitectura","direccion":"Carrera 49 62 01","sector":"Barrio Prado"},"geometry":{"type":"Point","coordinates":[-75.5616,6.258556]}},{"type":"Feature","properties":{"nombre":"Edificación Barrio Prado","grupo":"Arquitectónico","tipo":"Obra de arquitectura","direccion":"Calle 62 49 30/34","sector":"Barrio Prado"},"geometry":{"type":"Point","coordinates":[-75.561747,6.258828]}},{"type":"Feature","properties":{"nombre":"Edificación Barrio Prado","grupo":"Arquitectónico","tipo":"Obra de arquitectura","direccion":"Carrera 50 62 05","sector":"Barrio Prado"},"geometry":{"type":"Point","coordinates":[-75.562349,6.259085]}},{"type":"Feature","properties":{"nombre":"Edificación Barrio Prado","grupo":"Arquitectónico","tipo":"Obra de arquitectura","direccion":"Calle 62 50 44/48","sector":"Barrio Prado"},"geometry":{"type":"Point","coordinates":[-75.56254,6.259275]}},{"type":"Feature","properties":{"nombre":"Edificación Barrio Prado","grupo":"Arquitectónico","tipo":"Obra de arquitectura","direccion":"Carrera 50 62 63","sector":"Barrio Prado"},"geometry":{"type":"Point","coordinates":[-75.562129,6.259508]}},{"type":"Feature","properties":{"nombre":"Edificación Barrio Prado","grupo":"Arquitectónico","tipo":"Obra de arquitectura","direccion":"Calle 62 50A 28","sector":"Barrio Prado"},"geometry":{"type":"Point","coordinates":[-75.563153,6.259616]}},{"type":"Feature","properties":{"nombre":"Edificación Barrio Prado","grupo":"Arquitectónico","tipo":"Obra de arquitectura","direccion":"Carrera 50A 63 79/85","sector":"Barrio Prado"},"geometry":{"type":"Point","coordinates":[-75.562227,6.260777]}},{"type":"Feature","properties":{"nombre":"Edificación Barrio Prado","grupo":"Arquitectónico","tipo":"Obra de arquitectura","direccion":"Carrera 50A 63 96/98","sector":"Barrio Prado"},"geometry":{"type":"Point","coordinates":[-75.561838,6.260616]}},{"type":"Feature","properties":{"nombre":"Edificación Barrio Prado","grupo":"Arquitectónico","tipo":"Obra de arquitectura","direccion":"Carrera 50 63 81","sector":"Barrio Prado"},"geometry":{"type":"Point","coordinates":[-75.561555,6.260357]}},{"type":"Feature","properties":{"nombre":"Edificación Barrio Prado","grupo":"Arquitectónico","tipo":"Obra de arquitectura","direccion":"Carrera 50 63 59","sector":"Barrio Prado"},"geometry":{"type":"Point","coordinates":[-75.561629,6.260235]}},{"type":"Feature","properties":{"nombre":"Edificación Barrio Prado","grupo":"Arquitectónico","tipo":"Obra de arquitectura","direccion":"Carrera 50 63 29/43","sector":"Barrio Prado"},"geometry":{"type":"Point","coordinates":[-75.561862,6.2602]}},{"type":"Feature","properties":{"nombre":"Edificación Barrio Prado","grupo":"Arquitectónico","tipo":"Obra de arquitectura","direccion":"Calle 63 49 08","sector":"Barrio Prado"},"geometry":{"type":"Point","coordinates":[-75.561113,6.259348]}},{"type":"Feature","properties":{"nombre":"Edificación Barrio Prado","grupo":"Arquitectónico","tipo":"Obra de arquitectura","direccion":"Carrera 50 63 78/84","sector":"Barrio Prado"},"geometry":{"type":"Point","coordinates":[-75.561149,6.260089]}},{"type":"Feature","properties":{"nombre":"Edificación Barrio Prado","grupo":"Arquitectónico","tipo":"Obra de arquitectura","direccion":"Carrera 50 63 96/102","sector":"Barrio Prado"},"geometry":{"type":"Point","coordinates":[-75.561057,6.260274]}},{"type":"Feature","properties":{"nombre":"Edificación Barrio Prado","grupo":"Arquitectónico","tipo":"Obra de arquitectura","direccion":"Carrera 50 63 116/120","sector":"Barrio Prado"},"geometry":{"type":"Point","coordinates":[-75.560936,6.26036]}},{"type":"Feature","properties":{"nombre":"Edificación Barrio Prado","grupo":"Arquitectónico","tipo":"Obra de arquitectura","direccion":"Carrera 50 63 162/146","sector":"Barrio Prado"},"geometry":{"type":"Point","coordinates":[-75.560854,6.26072]}},{"type":"Feature","properties":{"nombre":"Edificación Barrio Prado","grupo":"Arquitectónico","tipo":"Obra de arquitectura","direccion":"Calle 63 47 42","sector":"Barrio Prado"},"geometry":{"type":"Point","coordinates":[-75.560179,6.258701]}},{"type":"Feature","properties":{"nombre":"Edificación Barrio Prado","grupo":"Arquitectónico","tipo":"Obra de arquitectura","direccion":"Carrera 48 63A 115/117","sector":"Barrio Prado"},"geometry":{"type":"Point","coordinates":[-75.55974,6.26049]}},{"type":"Feature","properties":{"nombre":"Edificación Barrio Prado","grupo":"Arquitectónico","tipo":"Obra de arquitectura","direccion":"Carrera 50 64 00","sector":"Barrio Prado"},"geometry":{"type":"Point","coordinates":[-75.560748,6.261048]}},{"type":"Feature","properties":{"nombre":"Edificación Barrio Prado","grupo":"Arquitectónico","tipo":"Obra de arquitectura","direccion":"Carrera 50 64 26/18","sector":"Barrio Prado"},"geometry":{"type":"Point","coordinates":[-75.560664,6.261171]}},{"type":"Feature","properties":{"nombre":"Edificación Barrio Prado","grupo":"Arquitectónico","tipo":"Obra de arquitectura","direccion":"Carrera 50 64 38","sector":"Barrio Prado"},"geometry":{"type":"Point","coordinates":[-75.56064,6.26127]}},{"type":"Feature","properties":{"nombre":"Edificación Barrio Prado","grupo":"Arquitectónico","tipo":"Obra de arquitectura","direccion":"Carrera 50 64 66","sector":"Barrio Prado"},"geometry":{"type":"Point","coordinates":[-75.56062,6.261521]}},{"type":"Feature","properties":{"nombre":"Edificación Barrio Prado","grupo":"Arquitectónico","tipo":"Obra de arquitectura","direccion":"Carrera 50A 64 12","sector":"Barrio Prado"},"geometry":{"type":"Point","coordinates":[-75.561563,6.261183]}},{"type":"Feature","properties":{"nombre":"Edificación Barrio Prado","grupo":"Arquitectónico","tipo":"Obra de arquitectura","direccion":"Carrera 50A 64 24/30","sector":"Barrio Prado"},"geometry":{"type":"Point","coordinates":[-75.561495,6.261327]}},{"type":"Feature","properties":{"nombre":"Edificación Barrio Prado","grupo":"Arquitectónico","tipo":"Obra de arquitectura","direccion":"Carrera 50 64 45/51","sector":"Barrio Prado"},"geometry":{"type":"Point","coordinates":[-75.56109,6.261468]}},{"type":"Feature","properties":{"nombre":"Edificación Barrio Prado","grupo":"Arquitectónico","tipo":"Obra de arquitectura","direccion":"Carrera 50C 64 5/13","sector":"Barrio Prado"},"geometry":{"type":"Point","coordinates":[-75.563002,6.261397]}},{"type":"Feature","properties":{"nombre":"Convento Siervas de María","grupo":"Arquitectónico","tipo":"Conjunto","direccion":"Carrera 46 65F 02/17","sector":"Barrio Prado"},"geometry":{"type":"Point","coordinates":[-75.557508,6.261628]}},{"type":"Feature","properties":{"nombre":"Edificación Republicana","grupo":"Arquitectonico","direccion":"Cl 51 # 51-69"},"geometry":{"type":"Point","coordinates":[-75.569023,6.250644]}},{"type":"Feature","properties":{"nombre":"Edificio Erlinda","grupo":"Arquitectonico","direccion":"Cra. 50 # 49-46"},"geometry":{"type":"Point","coordinates":[-75.567951,6.249017]}},{"type":"Feature","properties":{"nombre":"Edificación Republicana Sede Congregación Mariana","grupo":"Arquitectónico","tipo":"Obra de arquitectura","direccion":"Cll. 54 # 46-52"},"geometry":{"type":"Point","coordinates":[-75.563922,6.251773]}}]}