{"type":"FeatureCollection","features":[{"type":"Feature","properties":{"nombre":"VILLA HERMOSA","estado":"OPERACION","clasificacion":"URBANO","direccion":"CL 62 CR 39 -21 MEDELLIN"},"geometry":{"type":"Point","coordinates":[-75.555041,6.253369]}},{"type":"Feature","properties":{"nombre":"SAN DIEGO","estado":"OPERACION","clasificacion":"URBANO","direccion":"CR 44 CR 37 -54 MEDELLIN"},"geometry":{"type":"Point","coordinates":[-75.569051,6.23735]}},{"type":"Feature","properties":{"nombre":"CALDAS","estado":"OPERACION","clasificacion":"URBANO","direccion":"CR 45 CR 12 -55 (INTERIOR 0267 ) CALDAS"},"geometry":{"type":"Point","coordinates":[-75.632207,6.093998]}},{"type":"Feature","properties":{"nombre":"ANCON SUR","estado":"OPERACION","clasificacion":"RURAL","direccion":"CR 50 CL 83 C SUR -140 LA ESTRELLA"},"geometry":{"type":"Point","coordinates":[-75.635115,6.148623]}},{"type":"Feature","properties":{"nombre":"GIRARDOTA","estado":"OPERACION","clasificacion":"RURAL","direccion":"AUTOPISTA NORTE GIRARDOTA GIRARDOTA"},"geometry":{"type":"Point","coordinates":[-75.454789,6.383221]}},{"type":"Feature","properties":{"nombre":"BARBOSA","estado":"OPERACION","clasificacion":"URBANO","direccion":"CR 21 A CL 19 A -20 BARBOSA"},"geometry":{"type":"Point","coordinates":[-75.331142,6.442538]}},{"type":"Feature","properties":{"nombre":"TASAJERA","estado":"OPERACION","clasificacion":"RURAL","direccion":"MUNICIPIO DE GIRARDOTA. GIRARDOTA"},"geometry":{"type":"Point","coordinates":[-75.429258,6.412453]}},{"type":"Feature","properties":{"nombre":"SAN CRISTOBAL","estado":"OPERACION","clasificacion":"RURAL","direccion":"CR 136 C CL 66 -223 MEDELLIN"},"geometry":{"type":"Point","coordinates":[-75.64086,6.283618]}},{"type":"Feature","properties":{"nombre":"GUAYABAL","estado":"OPERACION","clasificacion":"URBANO","direccion":"CL 2 CR 50 -76 MEDELLIN"},"geometry":{"type":"Point","coordinates":[-75.580085,6.208381]}},{"type":"Feature","properties":{"nombre":"POBLADO","estado":"OPERACION","clasificacion":"URBANO","direccion":"CL 5 CR 33 -120 MEDELLIN"},"geometry":{"type":"Point","coordinates":[-75.565645,6.202883]}},{"type":"Feature","properties":{"nombre":"HORIZONTES","estado":"OPERACION","clasificacion":"URBANO","direccion":"CL 80 CR 88 -55 MEDELLIN"},"geometry":{"type":"Point","coordinates":[-75.589666,6.287343]}},{"type":"Feature","properties":{"nombre":"BELEN","estado":"OPERACION","clasificacion":"URBANO","direccion":"CL 31 CR 85 -10 MEDELLIN"},"geometry":{"type":"Point","coordinates":[-75.608987,6.232827]}},{"type":"Feature","properties":{"nombre":"PIEDRAS BLANCAS","estado":"OPERACION","clasificacion":"URBANO","direccion":"CR 36 CL 84 -98 MEDELLIN"},"geometry":{"type":"Point","coordinates":[-75.545985,6.274837]}},{"type":"Feature","properties":{"nombre":"ZAMORA","estado":"OPERACION","clasificacion":"URBANO","direccion":"CR 49 CL 37 -20 BELLO"},"geometry":{"type":"Point","coordinates":[-75.55626,6.323802]}},{"type":"Feature","properties":{"nombre":"CABANAS","estado":"OPERACION","clasificacion":"RURAL","direccion":"CL 20 D CR 80 -15 BELLO"},"geometry":{"type":"Point","coordinates":[-75.585759,6.311943]}},{"type":"Feature","properties":{"nombre":"CASTILLA","estado":"OPERACION","clasificacion":"URBANO","direccion":"CL 99 CR 64 B -10 MEDELLIN"},"geometry":{"type":"Point","coordinates":[-75.566833,6.294528]}},{"type":"Feature","properties":{"nombre":"LAS PALMAS","estado":"OPERACION","clasificacion":"RURAL"},"geometry":{"type":"Point","coordinates":[-75.53192,6.152846]}},{"type":"Feature","properties":{"nombre":"OCCIDENTE","estado":"OPERACION","clasificacion":"RURAL"},"geometry":{"type":"Point","coordinates":[-75.604877,6.354025]}},{"type":"Feature","properties":{"nombre":"ENVIGADO","estado":"OPERACION","clasificacion":"URBANO"},"geometry":{"type":"Point","coordinates":[-75.594036,6.175209]}},{"type":"Feature","properties":{"nombre":"SAN ANTONIO DE PRADO","estado":"OPERACION","clasificacion":"URBANO"},"geometry":{"type":"Point","coordinates":[-75.650975,6.182327]}},{"type":"Feature","properties":{"nombre":"EL RODEO","estado":"OPERACION","clasificacion":"URBANO"},"geometry":{"type":"Point","coordinates":[-75.595785,6.19739]}},{"type":"Feature","properties":{"nombre":"ITAGUI","estado":"OPERACION","clasificacion":"URBANO"},"geometry":{"type":"Point","coordinates":[-75.631083,6.172004]}},{"type":"Feature","properties":{"nombre":"COLOMBIA","estado":"OPERACION","clasificacion":"URBANO"},"geometry":{"type":"Point","coordinates":[-75.604052,6.266623]}},{"type":"Feature","properties":{"nombre":"CENTRAL","estado":"OPERACION","clasificacion":"URBANO","direccion":"CR 63 CL 48 -95"},"geometry":{"type":"Point","coordinates":[-75.579457,6.252111]}},{"type":"Feature","properties":{"nombre":"BELLO","estado":"OPERACION","clasificacion":"URBANO","direccion":"AVDA 32 DIAG 49 A -44"},"geometry":{"type":"Point","coordinates":[-75.538015,6.33814]}},{"type":"Feature","properties":{"nombre":"MIRAFLORES","estado":"OPERACION","clasificacion":"URBANO","direccion":"CL 49 CR 9 B -95"},"geometry":{"type":"Point","coordinates":[-75.538424,6.229622]}}]}