{"type":"FeatureCollection","features":[{"type":"Feature","geometry":{"type":"Point","coordinates":[-75.56634,6.26518],"crs":null},"properties":{"nombre":"Ruta N","direccion":"CARRERA 52 # 67A-13"}},{"type":"Feature","geometry":{"type":"Point","coordinates":[-75.58858,6.24901],"crs":null},"properties":{"nombre":"San Juan","direccion":"CALLE 44 - CARRERA 70"}},{"type":"Feature","geometry":{"type":"Point","coordinates":[-75.58513,6.26],"crs":null},"properties":{"nombre":"Los Colores","direccion":"CARRERA 70 # TRANSVERSAL 51A"}},{"type":"Feature","geometry":{"type":"Point","coordinates":[-75.57465,6.24346],"crs":null},"properties":{"nombre":"Plaza de La Libertad","direccion":"CALLE 42C # 53A-24"}},{"type":"Feature","geometry":{"type":"Point","coordinates":[-75.584,6.24538],"crs":null},"properties":{"nombre":"Parque de Los Mangos","direccion":"CARRERA 66B # 40-51"}},{"type":"Feature","geometry":{"type":"Point","coordinates":[-75.59662,6.2469],"crs":null},"properties":{"nombre":"Pedro Nel Gómez","direccion":"CARRERA 76 # 39B-13"}},{"type":"Feature","geometry":{"type":"Point","coordinates":[-75.59282,6.17264],"crs":null},"properties":{"nombre":"Puente fundadores","direccion":"CARRERA 48 - CALLE 38 SUR"}},{"type":"Feature","geometry":{"type":"Point","coordinates":[-75.59357,6.2461],"crs":null},"properties":{"nombre":"Primer Parque de Laureles","direccion":"CARRERA 39D # 73-95"}},{"type":"Feature","geometry":{"type":"Point","coordinates":[-75.59423,6.25832],"crs":null},"properties":{"nombre":"San Pedro y San Pablo","direccion":"CALLE 48 - CARRERA 77A"}},{"type":"Feature","geometry":{"type":"Point","coordinates":[-75.57701,6.24551],"crs":null},"properties":{"nombre":"Pies Descalzos I","direccion":"CALLE 42A - CARRERA 57A"}},{"type":"Feature","geometry":{"type":"Point","coordinates":[-75.57563,6.24262],"crs":null},"properties":{"nombre":"Plaza Mayor","direccion":"CALLE 41 # 55-80"}},{"type":"Feature","geometry":{"type":"Point","coordinates":[-75.57156,6.24607],"crs":null},"properties":{"nombre":"Parque de Las Luces I","direccion":"CARRERA 52A # 44 - 14"}},{"type":"Feature","geometry":{"type":"Point","coordinates":[-75.57701,6.24551],"crs":null},"properties":{"nombre":"Pies Descalzos II","direccion":"CALLE 42A - CARRERA 57A"}},{"type":"Feature","geometry":{"type":"Point","coordinates":[-75.58609,6.24333],"crs":null},"properties":{"nombre":"San Joaquín","direccion":"CARRERA 66B CON CIRCULAR 2-1"}},{"type":"Feature","geometry":{"type":"Point","coordinates":[-75.58886,6.26256],"crs":null},"properties":{"nombre":"Orquídeas","direccion":"CARRERA 74 # 52 - 100"}},{"type":"Feature","geometry":{"type":"Point","coordinates":[-75.57176,6.24559],"crs":null},"properties":{"nombre":"Parque de Las Luces II","direccion":"CARRERA 52A # 44 - 4"}},{"type":"Feature","geometry":{"type":"Point","coordinates":[-75.59674,6.24202],"crs":null},"properties":{"nombre":"Santa Teresita","direccion":"CARRERA 76 # 34A-32"}},{"type":"Feature","geometry":{"type":"Point","coordinates":[-75.58336,6.24902],"crs":null},"properties":{"nombre":"La 65","direccion":"CARRERA 65 # 44-41"}},{"type":"Feature","geometry":{"type":"Point","coordinates":[-75.58756,6.23252],"crs":null},"properties":{"nombre":"Unidad Deportiva de Belén","direccion":"CALLE 30A # 66B-18"}},{"type":"Feature","geometry":{"type":"Point","coordinates":[-75.59471,6.25054],"crs":null},"properties":{"nombre":"María Mulata","direccion":"CALLE 44A # 75-34"}},{"type":"Feature","geometry":{"type":"Point","coordinates":[-75.59192,6.24185],"crs":null},"properties":{"nombre":"Circular Primera","direccion":"TRANSVERSAL 39B # CIRCULAR 1-2"}},{"type":"Feature","geometry":{"type":"Point","coordinates":[-75.59503,6.26218],"crs":null},"properties":{"nombre":"Batallón","direccion":"CALLE 49B #78A-2"}},{"type":"Feature","geometry":{"type":"Point","coordinates":[-75.59516,6.24392],"crs":null},"properties":{"nombre":"Cacique Candela","direccion":"CIRCULAR 73B # TRANSV. 39 - 4"}},{"type":"Feature","geometry":{"type":"Point","coordinates":[-75.59033,6.2526],"crs":null},"properties":{"nombre":"Florida Nueva","direccion":"CALLE 47 # 72-21"}},{"type":"Feature","geometry":{"type":"Point","coordinates":[-75.56716,6.25993],"crs":null},"properties":{"nombre":"SIU-UdeA","direccion":"CARRERA 52 # 61-21"}},{"type":"Feature","geometry":{"type":"Point","coordinates":[-75.58295,6.23181],"crs":null},"properties":{"nombre":"Nutibara","direccion":"CARRERA 65 # 30-1"}},{"type":"Feature","geometry":{"type":"Point","coordinates":[-75.5868,6.24557],"crs":null},"properties":{"nombre":"Parque San Joaquín","direccion":"CARRERA 67A - CIRCULAR 3"}},{"type":"Feature","geometry":{"type":"Point","coordinates":[-75.57465,6.22851],"crs":null},"properties":{"nombre":"Río Aburrá","direccion":"CARRERA 48 # 27-4"}},{"type":"Feature","geometry":{"type":"Point","coordinates":[-75.57531,6.22021],"crs":null},"properties":{"nombre":"Villa Carlota","direccion":"CARRERA 48 # 18-100"}},{"type":"Feature","geometry":{"type":"Point","coordinates":[-75.57296,6.22234],"crs":null},"properties":{"nombre":"Ciudad del Río","direccion":"CARRERA 43F - CALLE 19A"}},{"type":"Feature","geometry":{"type":"Point","coordinates":[-75.57925,6.25558],"crs":null},"properties":{"nombre":"Carlos E. Restrepo","direccion":"CARRERA 64B - CALLE 50"}},{"type":"Feature","geometry":{"type":"Point","coordinates":[-75.57354,6.23636],"crs":null},"properties":{"nombre":"Palacé","direccion":"CALLE 35 - CARRERA 50 - 77"}},{"type":"Feature","geometry":{"type":"Point","coordinates":[-75.57496,6.22378],"crs":null},"properties":{"nombre":"MAMM","direccion":"CARRERA 48 # 19A-108"}},{"type":"Feature","geometry":{"type":"Point","coordinates":[-75.59188,6.22151],"crs":null},"properties":{"nombre":"Juan Pablo II","direccion":"CARRERA 70 # 16-18"}},{"type":"Feature","geometry":{"type":"Point","coordinates":[-75.5744,6.2303],"crs":null},"properties":{"nombre":"Industriales Metro","direccion":"CARRERA 48 # 27-86"}},{"type":"Feature","geometry":{"type":"Point","coordinates":[-75.56995,6.24655],"crs":null},"properties":{"nombre":"Málaga","direccion":"CARRERA 51 # 45 - 80"}},{"type":"Feature","geometry":{"type":"Point","coordinates":[-75.59509,6.26337],"crs":null},"properties":{"nombre":"Calle 51 Los Colores","direccion":"CALLE 51 - CARRERA 78B"}},{"type":"Feature","geometry":{"type":"Point","coordinates":[-75.57145,6.21989],"crs":null},"properties":{"nombre":"Telemedellín","direccion":"CARRERA 43F - CALLE 18"}},{"type":"Feature","geometry":{"type":"Point","coordinates":[-75.57996,6.2448],"crs":null},"properties":{"nombre":"Parques del río","direccion":"CALLE 42C - CARRERA 63AA"}},{"type":"Feature","geometry":{"type":"Point","coordinates":[-75.57111,6.22208],"crs":null},"properties":{"nombre":"Calle 19A Villa Carlota","direccion":"CALLE 19A - CARRERA 43F"}},{"type":"Feature","geometry":{"type":"Point","coordinates":[-75.56964,6.24763],"crs":null},"properties":{"nombre":"San Antonio","direccion":"CARRERA 51 # 46 - 63"}},{"type":"Feature","geometry":{"type":"Point","coordinates":[-75.56843,6.25019],"crs":null},"properties":{"nombre":"Parque Berrio","direccion":"CARRERA 51 - CALLE 50 - 82"}},{"type":"Feature","geometry":{"type":"Point","coordinates":[-75.5681,6.251],"crs":null},"properties":{"nombre":"Palacio de la Cultura","direccion":"CARRERA 51 - CALLE 51 - 47"}},{"type":"Feature","geometry":{"type":"Point","coordinates":[-75.59645,6.23545],"crs":null},"properties":{"nombre":"Picacha la 76","direccion":"CARRERA  76 - CALLE 32BB - 5"}},{"type":"Feature","geometry":{"type":"Point","coordinates":[-75.58668,6.23992],"crs":null},"properties":{"nombre":"Unicentro","direccion":"CALLE 34 # 66A - 57"}},{"type":"Feature","geometry":{"type":"Point","coordinates":[-75.59041,6.23857],"crs":null},"properties":{"nombre":"Bulerias","direccion":"DIAGONAL 74B - CALLE 32F"}},{"type":"Feature","geometry":{"type":"Point","coordinates":[-75.58681,6.23877],"crs":null},"properties":{"nombre":"Cafetero","direccion":"CALLE 32F # 65F - 100"}},{"type":"Feature","geometry":{"type":"Point","coordinates":[-75.57196,6.23461],"crs":null},"properties":{"nombre":"Distrito Creativo","direccion":"CARRERA  46 # 34 - 46"}},{"type":"Feature","geometry":{"type":"Point","coordinates":[-75.59658,6.17328],"crs":null},"properties":{"nombre":"Auxiliar Metro Envigado","direccion":"CALLE 39 SUR # 48 - 441"}},{"type":"Feature","geometry":{"type":"Point","coordinates":[-75.59414,6.17129],"crs":null},"properties":{"nombre":"La Ultima Estación","direccion":"CARRERA 48 # 39 SUR 92"}},{"type":"Feature","geometry":{"type":"Point","coordinates":[-75.59276,6.16857],"crs":null},"properties":{"nombre":"Villas de Vallejuelos","direccion":"CALLE 40 SUR - CARRERA 45"}},{"type":"Feature","geometry":{"type":"Point","coordinates":[-75.5933,6.16997],"crs":null},"properties":{"nombre":"Iglesia Alcalá","direccion":"CALLE 39A SUR - CARRERA 46A"}},{"type":"Feature","geometry":{"type":"Point","coordinates":[-75.59119,6.17318],"crs":null},"properties":{"nombre":"Los Urapanes","direccion":"CARRERA 46A - CALLE 37 SUR"}},{"type":"Feature","geometry":{"type":"Point","coordinates":[-75.59106,6.17167],"crs":null},"properties":{"nombre":"Parque Débora Arango","direccion":"CALLE 38 SUR - CARRERA 46"}},{"type":"Feature","geometry":{"type":"Point","coordinates":[-75.591,6.16877],"crs":null},"properties":{"nombre":"Porton de Alcalá","direccion":"CALLE 39A SUR - CARRERA 43A"}},{"type":"Feature","geometry":{"type":"Point","coordinates":[-75.58942,6.17049],"crs":null},"properties":{"nombre":"El MUA","direccion":"CARRERA 44 - CALLE 38 SUR"}},{"type":"Feature","geometry":{"type":"Point","coordinates":[-75.59031,6.17728],"crs":null},"properties":{"nombre":"Viva Envigado","direccion":"CALLE 32B SUR - CARRERA 48"}},{"type":"Feature","geometry":{"type":"Point","coordinates":[-75.58842,6.16911],"crs":null},"properties":{"nombre":"Guanteros","direccion":"CARRERA 43 # 38A SUR - 24"}},{"type":"Feature","geometry":{"type":"Point","coordinates":[-75.58681,6.17034],"crs":null},"properties":{"nombre":"Envigado Centro","direccion":"CARRERA 42 - CALLE 37 SUR"}},{"type":"Feature","geometry":{"type":"Point","coordinates":[-75.61695,6.15411],"crs":null},"properties":{"nombre":"Las Vegas 69 Sur","direccion":"CARRERA 48 - CALLE 69 SUR"}},{"type":"Feature","geometry":{"type":"Point","coordinates":[-75.61507,6.15381],"crs":null},"properties":{"nombre":"Santa Ana","direccion":"CALLE 67 SUR - CARRERA 46"}},{"type":"Feature","geometry":{"type":"Point","coordinates":[-75.62073,6.14819],"crs":null},"properties":{"nombre":"Calle Nueva","direccion":"CARRERA 46 - CALLE 77 SUR"}},{"type":"Feature","geometry":{"type":"Point","coordinates":[-75.6134,6.15086],"crs":null},"properties":{"nombre":"La Barquereña","direccion":"CALLE 68 SUR - CARRERA 43A"}},{"type":"Feature","geometry":{"type":"Point","coordinates":[-75.6182,6.15234],"crs":null},"properties":{"nombre":"Entre amigos","direccion":"CARRERA 46B - CALLE 72 SUR"}},{"type":"Feature","geometry":{"type":"Point","coordinates":[-75.6165,6.15063],"crs":null},"properties":{"nombre":"Sabaneta Centro","direccion":"CALLE 72 SUR - CARRERA 45"}},{"type":"Feature","geometry":{"type":"Point","coordinates":[-75.61772,6.14966],"crs":null},"properties":{"nombre":"Aves María","direccion":"CARRERA 45 - CALLE 74A SUR"}},{"type":"Feature","geometry":{"type":"Point","coordinates":[-75.61893,6.14998],"crs":null},"properties":{"nombre":"Biblioteca Sabaneta","direccion":"CALLE 75 SUR - CARRERA 46"}},{"type":"Feature","geometry":{"type":"Point","coordinates":[-75.61273,6.15247],"crs":null},"properties":{"nombre":"Parque 4 Elementos","direccion":"CALLE 66 SUR - CARRERA 43C"}},{"type":"Feature","geometry":{"type":"Point","coordinates":[-75.60613,6.16418],"crs":null},"properties":{"nombre":"Metro Itaguí I","direccion":"CALLE 50 - VIA INTERNA DEL METRO"}},{"type":"Feature","geometry":{"type":"Point","coordinates":[-75.60613,6.16418],"crs":null},"properties":{"nombre":"Metro Itaguí II","direccion":"CALLE 50 - VIA INTERNA DEL METRO"}},{"type":"Feature","geometry":{"type":"Point","coordinates":[-75.60634,6.16803],"crs":null},"properties":{"nombre":"Bahía Ciclovia","direccion":"CARRERA 42 - CALLE 51 (BAHIA)"}},{"type":"Feature","geometry":{"type":"Point","coordinates":[-75.60748,6.16955],"crs":null},"properties":{"nombre":"Ideas","direccion":"CALLE 51 - CARRERA 46"}},{"type":"Feature","geometry":{"type":"Point","coordinates":[-75.60928,6.17271],"crs":null},"properties":{"nombre":"Parque Itaguí","direccion":"CARRERA 51 - CALLE 51"}},{"type":"Feature","geometry":{"type":"Point","coordinates":[-75.60941,6.17485],"crs":null},"properties":{"nombre":"Metróplus Cami","direccion":"CARRERA 53 # 51A - 29"}},{"type":"Feature","geometry":{"type":"Point","coordinates":[-75.60602,6.17577],"crs":null},"properties":{"nombre":"Doña María","direccion":"CARRERA 52B # 56 - 12"}},{"type":"Feature","geometry":{"type":"Point","coordinates":[-75.60699,6.17201],"crs":null},"properties":{"nombre":"Los Naranjos","direccion":"CALLE 53 - CARRERA 49"}},{"type":"Feature","geometry":{"type":"Point","coordinates":[-75.6065,6.17445],"crs":null},"properties":{"nombre":"Villa Paula","direccion":"CALLE 55 - CARRERA 51"}},{"type":"Feature","geometry":{"type":"Point","coordinates":[-75.60217,6.17892],"crs":null},"properties":{"nombre":"Parque el Artista","direccion":"CALLE 63 - CARRERA 52"}},{"type":"Feature","geometry":{"type":"Point","coordinates":[-75.59782,6.17492],"crs":null},"properties":{"nombre":"Puente pan de Queso I","direccion":"CARRERA 42 - CALLE 60 SUR"}},{"type":"Feature","geometry":{"type":"Point","coordinates":[-75.59855,6.1744],"crs":null},"properties":{"nombre":"Puente pan de Queso II","direccion":"CARRERA 42 - CALLE 60 SUR"}},{"type":"Feature","geometry":{"type":"Point","coordinates":[-75.59709,6.17352],"crs":null},"properties":{"nombre":"Metro Envigado Sur","direccion":"CARRERA 49 - CALLE 39 SUR"}},{"type":"Feature","geometry":{"type":"Point","coordinates":[-75.59579,6.17427],"crs":null},"properties":{"nombre":"Metro Envigado Norte","direccion":"CARRERA 49 - CALLE 37 SUR"}},{"type":"Feature","geometry":{"type":"Point","coordinates":[-75.57227,6.243369],"crs":null},"properties":{"nombre":"Dian Alpujarra","direccion":"CARRERA 52 - CALLE 42"}},{"type":"Feature","geometry":{"type":"Point","coordinates":[-75.62463,6.15242],"crs":null},"properties":{"nombre":"Puente de la 77 Sur","direccion":"CALLE 77 SUR CARRERA 48"}},{"type":"Feature","geometry":{"type":"Point","coordinates":[-75.57634,6.20982],"crs":null},"properties":{"nombre":"Politécnico","direccion":"CARRERA 47 - CALLE 7"}},{"type":"Feature","geometry":{"type":"Point","coordinates":[-75.565433,6.249375],"crs":null},"properties":{"nombre":"Coltejer","direccion":"Calle 52 #28A 46"}},{"type":"Feature","geometry":{"type":"Point","coordinates":[-75.587836,6.213033],"crs":null},"properties":{"nombre":"Campo Amor","direccion":"Calle 5 Entre Carreras 65E Y 65B Contigua a la cancha Campo Amor"}},{"type":"Feature","geometry":{"type":"Point","coordinates":[-75.565433,6.249375],"crs":null},"properties":{"nombre":"Coltejer","direccion":"Calle 52 #28A 46 La Playa x Sucre"}},{"type":"Feature","geometry":{"type":"Point","coordinates":[-75.59488,6.16949],"crs":null},"properties":{"nombre":"Pista de Patinaje","direccion":"CALLE 40 SUR - CARRERA 47"}},{"type":"Feature","geometry":{"type":"Point","coordinates":[-75.56016,6.24748],"crs":null},"properties":{"nombre":"Teatro Pablo Tobón Uribe","direccion":"Calle 51 - Carrera 40. Av. La Playa Ubicado al occidente del Teatro Pablo Tobón Uribe"}},{"type":"Feature","geometry":{"type":"Point","coordinates":[-75.58821,6.25357],"crs":null},"properties":{"nombre":"Estadio","direccion":"CALLE 47D # 70-82"}},{"type":"Feature","geometry":{"type":"Point","coordinates":[-75.58269,6.25299],"crs":null},"properties":{"nombre":"Suramericana","direccion":"CALLE 47D # 65-92"}},{"type":"Feature","geometry":{"type":"Point","coordinates":[-75.5648,6.27658],"crs":null},"properties":{"nombre":"Moravia","direccion":"CALLE 82A # 52-29"}},{"type":"Feature","geometry":{"type":"Point","coordinates":[-75.56577,6.26939],"crs":null},"properties":{"nombre":"Universidad","direccion":"CALLE 73 # 52-2"}},{"type":"Feature","geometry":{"type":"Point","coordinates":[-75.58102,6.25652],"crs":null},"properties":{"nombre":"Colombia","direccion":"CARRERA 65 # 50-29"}},{"type":"Feature","geometry":{"type":"Point","coordinates":[-75.58918,6.24506],"crs":null},"properties":{"nombre":"UPB","direccion":"CARRERA 70 # CIRCULAR 1-50"}},{"type":"Feature","geometry":{"type":"Point","coordinates":[-75.592217,6.273147],"crs":null},"properties":{"nombre":"Robledo","direccion":"CALLE 65 - CARRERA 78A"}},{"type":"Feature","geometry":{"type":"Point","coordinates":[-75.59153,6.23132],"crs":null},"properties":{"nombre":"Rosales","direccion":"CARRERA 70 # 29-73"}},{"type":"Feature","geometry":{"type":"Point","coordinates":[-75.59309,6.21553],"crs":null},"properties":{"nombre":"Maria Luisa Calle","direccion":"CARRERA 70 # 3-138"}},{"type":"Feature","geometry":{"type":"Point","coordinates":[-75.58307,6.23915],"crs":null},"properties":{"nombre":"La 33","direccion":"CARRERA 65 # 32F-12"}},{"type":"Feature","geometry":{"type":"Point","coordinates":[-75.61666,6.15682],"crs":null},"properties":{"nombre":"Sabaneta Metro","direccion":"CALLE 67 SUR - CARRERA 49"}},{"type":"Feature","geometry":{"type":"Point","coordinates":[-75.57373,6.24255],"crs":null},"properties":{"nombre":"Area Metropolitana","direccion":"CALLE 41 - CARRERA 53"}},{"type":"Feature","geometry":{"type":"Point","coordinates":[-75.59652,6.24498],"crs":null},"properties":{"nombre":"Segundo Parque de Laureles","direccion":"TRANSVERSAL 39B - CIRCULAR 74A"}},{"type":"Feature","geometry":{"type":"Point","coordinates":[-75.57692,6.23112],"crs":null},"properties":{"nombre":"Industriales Metroplús","direccion":"CARRERA 52 # 29B-138"}},{"type":"Feature","geometry":{"type":"Point","coordinates":[-75.56883,6.25171],"crs":null},"properties":{"nombre":"Museo de Antioquia","direccion":"CARRERA 52 # 52-36"}},{"type":"Feature","geometry":{"type":"Point","coordinates":[-75.579,6.25971],"crs":null},"properties":{"nombre":"Campus Nacional","direccion":"CALLE 59A # 64C - 44"}},{"type":"Feature","geometry":{"type":"Point","coordinates":[-75.55374,6.33216],"crs":null},"properties":{"nombre":"Metro Bello","direccion":"CARRERA 46 # 45B - 55"}},{"type":"Feature","geometry":{"type":"Point","coordinates":[-75.5585,6.33462],"crs":null},"properties":{"nombre":"Parque Bello","direccion":"CALLE 50A # 50 - 32"}},{"type":"Feature","geometry":{"type":"Point","coordinates":[-75.62836,6.16007],"crs":null},"properties":{"nombre":"Paraná","direccion":"CARRERA 52D 75 AB SUR 80"}},{"type":"Feature","geometry":{"type":"Point","coordinates":[-75.62569,6.15335],"crs":null},"properties":{"nombre":"San Cayetano","direccion":"CALLE 77 SUR - RIO MEDELLIN"}},{"type":"Feature","geometry":{"type":"Point","coordinates":[-75.565935,6.269456],"crs":null},"properties":{"nombre":"Universidad","direccion":""}},{"type":"Feature","geometry":{"type":"Point","coordinates":[-75.558853,6.268322],"crs":null},"properties":{"nombre":"Hospital Infantil ","direccion":""}},{"type":"Feature","geometry":{"type":"Point","coordinates":[-75.585883,6.272696],"crs":null},"properties":{"nombre":"Pascual Bravo","direccion":""}},{"type":"Feature","geometry":{"type":"Point","coordinates":[-75.580749,6.278146],"crs":null},"properties":{"nombre":"Hospital Pablo Tobón Uribe ","direccion":""}},{"type":"Feature","geometry":{"type":"Point","coordinates":[-75.597195,6.258617],"crs":null},"properties":{"nombre":"Floresta","direccion":""}},{"type":"Feature","geometry":{"type":"Point","coordinates":[-75.614153,6.253515],"crs":null},"properties":{"nombre":"C4TA","direccion":""}},{"type":"Feature","geometry":{"type":"Point","coordinates":[-75.625747,6.153267],"crs":null},"properties":{"nombre":"Estación Metro la Estrella","direccion":""}},{"type":"Feature","geometry":{"type":"Point","coordinates":[-75.641896,6.157773],"crs":null},"properties":{"nombre":"Parque La Estrella","direccion":""}},{"type":"Feature","geometry":{"type":"Point","coordinates":[-75.574045,6.242263],"crs":null},"properties":{"nombre":"Dispositivo para personas con movilidad reducida","direccion":""}}]}