{"type":"FeatureCollection","features":[{"type":"Feature","geometry":{"type":"Point","coordinates":[-75.57346,6.20431]},"properties":{"nodo":"2","interseccion":"Calle  1 Sur - Carrera 43C","veh_eq_hora_pico":1070,"anios":"2018"}},{"type":"Feature","geometry":{"type":"Point","coordinates":[-75.57427,6.2046]},"properties":{"nodo":"3","interseccion":"Calle  1 Sur - Carrera 43D","veh_eq_hora_pico":2003,"anios":"2018"}},{"type":"Feature","geometry":{"type":"Point","coordinates":[-75.57304,6.20322]},"properties":{"nodo":"4","interseccion":"Calle  1A Sur - Carrera 43B","veh_eq_hora_pico":772,"anios":"2018"}},{"type":"Feature","geometry":{"type":"Point","coordinates":[-75.57362,6.20055]},"properties":{"nodo":"5","interseccion":"Calle  4 Sur - Carrera 43AA","veh_eq_hora_pico":1506,"anios":"2018"}},{"type":"Feature","geometry":{"type":"Point","coordinates":[-75.57524,6.20147]},"properties":{"nodo":"6","interseccion":"Calle  4 Sur - Carrera 43C","veh_eq_hora_pico":1826,"anios":"2018"}},{"type":"Feature","geometry":{"type":"Point","coordinates":[-75.57178,6.20352]},"properties":{"nodo":"7","interseccion":"Carrera 43A - Calle 1 Sur","veh_eq_hora_pico":4292,"anios":"2018"}},{"type":"Feature","geometry":{"type":"Point","coordinates":[-75.57392,6.20338]},"properties":{"nodo":"8","interseccion":"Carrera 43C - Calle 1A Sur","veh_eq_hora_pico":1604,"anios":"2018"}},{"type":"Feature","geometry":{"type":"Point","coordinates":[-75.55464,6.23574]},"properties":{"nodo":"9","interseccion":"Calle 42 - Carrera 29","veh_eq_hora_pico":1067,"anios":"2018"}},{"type":"Feature","geometry":{"type":"Point","coordinates":[-75.55542,6.23613]},"properties":{"nodo":"10","interseccion":"Calle 42 - Carrera 30","veh_eq_hora_pico":2154,"anios":"2018"}},{"type":"Feature","geometry":{"type":"Point","coordinates":[-75.55611,6.23653]},"properties":{"nodo":"11","interseccion":"Calle 42 - Carrera 31","veh_eq_hora_pico":600,"anios":"2018"}},{"type":"Feature","geometry":{"type":"Point","coordinates":[-75.55585,6.23538]},"properties":{"nodo":"12","interseccion":"Calle 41 - Carrera 30","veh_eq_hora_pico":1531,"anios":"2018"}},{"type":"Feature","geometry":{"type":"Point","coordinates":[-75.57133,6.23466]},"properties":{"nodo":"14","interseccion":"Calle 34 - Carrera 45","veh_eq_hora_pico":1505,"anios":"2018"}},{"type":"Feature","geometry":{"type":"Point","coordinates":[-75.57311,6.23245]},"properties":{"nodo":"15","interseccion":"Calle 31 - Carrera 46","veh_eq_hora_pico":975,"anios":"2018"}},{"type":"Feature","geometry":{"type":"Point","coordinates":[-75.5724,6.23214]},"properties":{"nodo":"16","interseccion":"Calle 31 - Carrera 45","veh_eq_hora_pico":1300,"anios":"2018"}},{"type":"Feature","geometry":{"type":"Point","coordinates":[-75.5735,6.23148]},"properties":{"nodo":"17","interseccion":"Calle 30 - Carrera 46","veh_eq_hora_pico":880,"anios":"2018"}},{"type":"Feature","geometry":{"type":"Point","coordinates":[-75.57278,6.23119]},"properties":{"nodo":"18","interseccion":"Calle 30 - Carrera 45","veh_eq_hora_pico":1316,"anios":"2018"}},{"type":"Feature","geometry":{"type":"Point","coordinates":[-75.57058,6.23146]},"properties":{"nodo":"19","interseccion":"Calle 31 - Carrera 44","veh_eq_hora_pico":697,"anios":"2018"}},{"type":"Feature","geometry":{"type":"Point","coordinates":[-75.55685,6.2353]},"properties":{"nodo":"23","interseccion":"Calle 40A - Carrera 31","veh_eq_hora_pico":952,"anios":"2018"}},{"type":"Feature","geometry":{"type":"Point","coordinates":[-75.555,6.235]},"properties":{"nodo":"24","interseccion":"Carrera 29 - Calle 41","veh_eq_hora_pico":712,"anios":"2018"}},{"type":"Feature","geometry":{"type":"Point","coordinates":[-75.5543,6.23638]},"properties":{"nodo":"25","interseccion":"Carrera 29 - Calle 43","veh_eq_hora_pico":1064,"anios":"2018"}},{"type":"Feature","geometry":{"type":"Point","coordinates":[-75.55632,6.23462]},"properties":{"nodo":"22","interseccion":"Carrera 30 - Calle 40A","veh_eq_hora_pico":1865,"anios":"2018"}},{"type":"Feature","geometry":{"type":"Point","coordinates":[-75.57655,6.29123]},"properties":{"nodo":"36","interseccion":"Calle 95 - Carrera 73","veh_eq_hora_pico":1237,"anios":"2018"}},{"type":"Feature","geometry":{"type":"Point","coordinates":[-75.57699,6.29]},"properties":{"nodo":"33","interseccion":"Calle 94 - Carrera 73","veh_eq_hora_pico":1374,"anios":"2018"}},{"type":"Feature","geometry":{"type":"Point","coordinates":[-75.57738,6.28983]},"properties":{"nodo":"35","interseccion":"Calle 95 - Carrera 68","veh_eq_hora_pico":1146,"anios":"2018"}},{"type":"Feature","geometry":{"type":"Point","coordinates":[-75.57291,6.28864]},"properties":{"nodo":"32","interseccion":"Calle 94 - Carrera 68","veh_eq_hora_pico":1505,"anios":"2018"}},{"type":"Feature","geometry":{"type":"Point","coordinates":[-75.57168,6.29235]},"properties":{"nodo":"37","interseccion":"Calle 97 - Carrera 68","veh_eq_hora_pico":1400,"anios":"2018"}},{"type":"Feature","geometry":{"type":"Point","coordinates":[-75.57113,6.28938]},"properties":{"nodo":"34","interseccion":"Calle 95 - Carrera 66","veh_eq_hora_pico":117,"anios":"2018"}},{"type":"Feature","geometry":{"type":"Point","coordinates":[-75.57153,6.28816]},"properties":{"nodo":"31","interseccion":"Calle 94 - Carrera 66","veh_eq_hora_pico":1226,"anios":"2018"}},{"type":"Feature","geometry":{"type":"Point","coordinates":[-75.57618,6.26963]},"properties":{"nodo":"13","interseccion":"Carrera 65 - Calle 71","veh_eq_hora_pico":8728,"anios":"2018"}},{"type":"Feature","geometry":{"type":"Point","coordinates":[-75.58839,6.28769]},"properties":{"nodo":"20","interseccion":"Calle 80 - Carrera 88","veh_eq_hora_pico":1802,"anios":"2018"}},{"type":"Feature","geometry":{"type":"Point","coordinates":[-75.56959,6.3092]},"properties":{"nodo":"21","interseccion":"Carrera 74 - Calle 113","veh_eq_hora_pico":1385,"anios":"2018"}},{"type":"Feature","geometry":{"type":"Point","coordinates":[-75.5738,6.25246]},"properties":{"nodo":"26","interseccion":"Calle 50 - Carrera 56B","veh_eq_hora_pico":5672,"anios":"2018"}},{"type":"Feature","geometry":{"type":"Point","coordinates":[-75.54653,6.27985]},"properties":{"nodo":"30","interseccion":"Calle 86B - Carrera 36","veh_eq_hora_pico":1804,"anios":"2018"}},{"type":"Feature","geometry":{"type":"Point","coordinates":[-75.57762,6.24706]},"properties":{"nodo":"1","interseccion":"Calle 44 - Carrera 59","veh_eq_hora_pico":23467,"anios":"2018"}},{"type":"Feature","geometry":{"type":"Point","coordinates":[-75.57177,6.23566]},"properties":{"nodo":"27","interseccion":"Calle 35 - Carrera 46","veh_eq_hora_pico":211,"anios":"2018"}},{"type":"Feature","geometry":{"type":"Point","coordinates":[-75.57177,6.23566]},"properties":{"nodo":"28","interseccion":"Carrera 46 - Calle 34","veh_eq_hora_pico":1224,"anios":"2018"}},{"type":"Feature","geometry":{"type":"Point","coordinates":[-75.57324,6.2363]},"properties":{"nodo":"29","interseccion":"Carrera 50 - Calle 35","veh_eq_hora_pico":1489,"anios":"2018"}},{"type":"Feature","geometry":{"type":"Point","coordinates":[-75.57493,6.22622]},"properties":{"nodo":"38","interseccion":"Calle 24 - Carrera 48","veh_eq_hora_pico":381,"anios":"2018"}},{"type":"Feature","geometry":{"type":"Point","coordinates":[-75.57501,6.22625]},"properties":{"nodo":"39","interseccion":"Calle 24 - Carrera 48","veh_eq_hora_pico":546,"anios":"2018"}},{"type":"Feature","geometry":{"type":"Point","coordinates":[-75.57508,6.2257]},"properties":{"nodo":"40","interseccion":"Calle 24 - Carrera 48","veh_eq_hora_pico":285,"anios":"2018"}},{"type":"Feature","geometry":{"type":"Point","coordinates":[-75.57581,6.22534]},"properties":{"nodo":"41","interseccion":"Calle 24 - Carrera 49","veh_eq_hora_pico":301,"anios":"2018"}},{"type":"Feature","geometry":{"type":"Point","coordinates":[-75.57531,6.22361]},"properties":{"nodo":"42","interseccion":"Calle 19 - Carrera 48","veh_eq_hora_pico":202,"anios":"2018"}},{"type":"Feature","geometry":{"type":"Point","coordinates":[-75.60301,6.23873]},"properties":{"nodo":"53","interseccion":"Calle 33 - Carrera 80","veh_eq_hora_pico":2525,"anios":"2018"}},{"type":"Feature","geometry":{"type":"Point","coordinates":[-75.59836,6.23891]},"properties":{"nodo":"61","interseccion":"Calle 33 - Carrera 78","veh_eq_hora_pico":1562,"anios":"2018"}},{"type":"Feature","geometry":{"type":"Point","coordinates":[-75.59671,6.23898]},"properties":{"nodo":"60","interseccion":"Calle 33 - Carrera 76","veh_eq_hora_pico":918,"anios":"2018"}},{"type":"Feature","geometry":{"type":"Point","coordinates":[-75.59377,6.24347]},"properties":{"nodo":"59","interseccion":"Transversal 39B - Circular 73","veh_eq_hora_pico":469,"anios":"2018"}},{"type":"Feature","geometry":{"type":"Point","coordinates":[-75.59228,6.24559]},"properties":{"nodo":"43","interseccion":"Carrera 73 - Circular 4","veh_eq_hora_pico":1845,"anios":"2018"}},{"type":"Feature","geometry":{"type":"Point","coordinates":[-75.5894,6.2446]},"properties":{"nodo":"44","interseccion":"Carrera 70 - Circular 1","veh_eq_hora_pico":1752,"anios":"2018"}},{"type":"Feature","geometry":{"type":"Point","coordinates":[-75.59599,6.24599]},"properties":{"nodo":"45","interseccion":"Circular 74B - Transversal 39B","veh_eq_hora_pico":3571,"anios":"2018"}},{"type":"Feature","geometry":{"type":"Point","coordinates":[-75.59718,6.24465]},"properties":{"nodo":"50","interseccion":"Calle 33 - Carrera 76","veh_eq_hora_pico":4609,"anios":"2018"}},{"type":"Feature","geometry":{"type":"Point","coordinates":[-75.59849,6.24378]},"properties":{"nodo":"72","interseccion":"Calle 33 - Carrera 79","veh_eq_hora_pico":1617,"anios":"2018"}},{"type":"Feature","geometry":{"type":"Point","coordinates":[-75.59955,6.24283]},"properties":{"nodo":"68","interseccion":"Calle 33 - Carrera 79","veh_eq_hora_pico":1730,"anios":"2018"}},{"type":"Feature","geometry":{"type":"Point","coordinates":[-75.60014,6.24262]},"properties":{"nodo":"58","interseccion":"Carrera 80 - Calle 35","veh_eq_hora_pico":917,"anios":"2018"}},{"type":"Feature","geometry":{"type":"Point","coordinates":[-75.60232,6.24314]},"properties":{"nodo":"57","interseccion":"Calle 35 - entre Cr 80B y Av. 80","veh_eq_hora_pico":1930,"anios":"2018"}},{"type":"Feature","geometry":{"type":"Point","coordinates":[-75.59784,6.24793]},"properties":{"nodo":"62","interseccion":"Transversal 39B - Calle 41","veh_eq_hora_pico":3014,"anios":"2018"}},{"type":"Feature","geometry":{"type":"Point","coordinates":[-75.59968,6.2501]},"properties":{"nodo":"56","interseccion":"Calle 44 - Transversal 39B","veh_eq_hora_pico":5811,"anios":"2018"}},{"type":"Feature","geometry":{"type":"Point","coordinates":[-75.59688,6.25021]},"properties":{"nodo":"46","interseccion":"Calle 44 - Carrera 78","veh_eq_hora_pico":1815,"anios":"2018"}},{"type":"Feature","geometry":{"type":"Point","coordinates":[-75.59348,6.24974]},"properties":{"nodo":"47","interseccion":"Calle 44 - Carrera 74","veh_eq_hora_pico":559,"anios":"2018"}},{"type":"Feature","geometry":{"type":"Point","coordinates":[-75.59229,6.2496]},"properties":{"nodo":"48","interseccion":"Calle 44 - Carrera 73","veh_eq_hora_pico":1732,"anios":"2018"}},{"type":"Feature","geometry":{"type":"Point","coordinates":[-75.57158,6.20607]},"properties":{"nodo":"71","interseccion":"Carrera 43A - Calle 5A","veh_eq_hora_pico":5669,"anios":"2018"}},{"type":"Feature","geometry":{"type":"Point","coordinates":[-75.60053,6.25907]},"properties":{"nodo":"55","interseccion":"Calle 47D - Carrera 82","veh_eq_hora_pico":2190,"anios":"2018"}},{"type":"Feature","geometry":{"type":"Point","coordinates":[-75.60161,6.2609]},"properties":{"nodo":"49","interseccion":"Carrera 83 - Calle 48BB","veh_eq_hora_pico":1285,"anios":"2018"}},{"type":"Feature","geometry":{"type":"Point","coordinates":[-75.60248,6.26047]},"properties":{"nodo":"51","interseccion":"Calle 48A - Carrera 84","veh_eq_hora_pico":900,"anios":"2018"}},{"type":"Feature","geometry":{"type":"Point","coordinates":[-75.60225,6.26012]},"properties":{"nodo":"52","interseccion":"Calle 47F - Carrera 84","veh_eq_hora_pico":711,"anios":"2018"}},{"type":"Feature","geometry":{"type":"Point","coordinates":[-75.60058,6.25989]},"properties":{"nodo":"67","interseccion":"Carrera 82 - Calle 48A","veh_eq_hora_pico":1806,"anios":"2018"}},{"type":"Feature","geometry":{"type":"Point","coordinates":[-75.60057,6.25948]},"properties":{"nodo":"54","interseccion":"Calle 47DD - Calle 48 Y Carrera 82","veh_eq_hora_pico":802,"anios":"2018"}},{"type":"Feature","geometry":{"type":"Point","coordinates":[-75.56104,6.25248]},"properties":{"nodo":"73","interseccion":"Calle 57 - Carrera 45","veh_eq_hora_pico":2721,"anios":"2018"}},{"type":"Feature","geometry":{"type":"Point","coordinates":[-75.57445,6.20799]},"properties":{"nodo":"74","interseccion":"Carrera 45 - Transversal 6","veh_eq_hora_pico":1842,"anios":"2018"}},{"type":"Feature","geometry":{"type":"Point","coordinates":[-75.56427,6.26148]},"properties":{"nodo":"124","interseccion":"Carrera 51 - Calle 64","veh_eq_hora_pico":2222,"anios":"2018, 2019"}},{"type":"Feature","geometry":{"type":"Point","coordinates":[-75.56222,6.29157]},"properties":{"nodo":"70","interseccion":"Carrera 52 - Calle 98","veh_eq_hora_pico":2432,"anios":"2018"}},{"type":"Feature","geometry":{"type":"Point","coordinates":[-75.56222,6.29157]},"properties":{"nodo":"91","interseccion":"Carrera 52 - Calle 98","veh_eq_hora_pico":2041,"anios":"2018"}},{"type":"Feature","geometry":{"type":"Point","coordinates":[-75.55554,6.30683]},"properties":{"nodo":"92","interseccion":"Carrera 52 - Calle 123","veh_eq_hora_pico":2306,"anios":"2018"}},{"type":"Feature","geometry":{"type":"Point","coordinates":[-75.55561,6.30667]},"properties":{"nodo":"69","interseccion":"Carrera 52 - Calle 123","veh_eq_hora_pico":1917,"anios":"2018"}},{"type":"Feature","geometry":{"type":"Point","coordinates":[-75.57988,6.27354]},"properties":{"nodo":"78","interseccion":"Carrera 69 - Calle 73","veh_eq_hora_pico":4819,"anios":"2018"}},{"type":"Feature","geometry":{"type":"Point","coordinates":[-75.59143,6.229]},"properties":{"nodo":"79","interseccion":"Carrera 70 - Calle 26B","veh_eq_hora_pico":2878,"anios":"2018"}},{"type":"Feature","geometry":{"type":"Point","coordinates":[-75.5969,6.25008]},"properties":{"nodo":"76","interseccion":"Calle 44 - Carrera 78","veh_eq_hora_pico":4385,"anios":"2018"}},{"type":"Feature","geometry":{"type":"Point","coordinates":[-75.60015,6.22556]},"properties":{"nodo":"63","interseccion":"Carrera 80 - Calle 20A","veh_eq_hora_pico":4032,"anios":"2018"}},{"type":"Feature","geometry":{"type":"Point","coordinates":[-75.60015,6.22556]},"properties":{"nodo":"77","interseccion":"Av. 80 - Calle 20A","veh_eq_hora_pico":3500,"anios":"2018"}},{"type":"Feature","geometry":{"type":"Point","coordinates":[-75.61079,6.25424]},"properties":{"nodo":"75","interseccion":"Calle 44 - Carrera 94","veh_eq_hora_pico":2697,"anios":"2018"}},{"type":"Feature","geometry":{"type":"Point","coordinates":[-75.56178,6.2555]},"properties":{"nodo":"64","interseccion":"Carrera 47 - Calle 59","veh_eq_hora_pico":350,"anios":"2018"}},{"type":"Feature","geometry":{"type":"Point","coordinates":[-75.56043,6.2576]},"properties":{"nodo":"65","interseccion":"Carrera 47 - Calle 62","veh_eq_hora_pico":372,"anios":"2018"}},{"type":"Feature","geometry":{"type":"Point","coordinates":[-75.55799,6.26202]},"properties":{"nodo":"66","interseccion":"Carrera 47 - Calle 65G","veh_eq_hora_pico":336,"anios":"2018"}},{"type":"Feature","geometry":{"type":"Point","coordinates":[-75.57294,6.25204]},"properties":{"nodo":"93","interseccion":"Carrera 56 - Calle 50","veh_eq_hora_pico":3486,"anios":"2018"}},{"type":"Feature","geometry":{"type":"Point","coordinates":[-75.57294,6.25204]},"properties":{"nodo":"101","interseccion":"Calle 50 - Carrera 56","veh_eq_hora_pico":3219,"anios":"2018"}},{"type":"Feature","geometry":{"type":"Point","coordinates":[-75.57327,6.25547]},"properties":{"nodo":"94","interseccion":"Carrera 56C - Calle 54","veh_eq_hora_pico":1529,"anios":"2018"}},{"type":"Feature","geometry":{"type":"Point","coordinates":[-75.57327,6.25547]},"properties":{"nodo":"102","interseccion":"Carrera 56C - Calle 54","veh_eq_hora_pico":1184,"anios":"2018"}},{"type":"Feature","geometry":{"type":"Point","coordinates":[-75.57221,6.25581]},"properties":{"nodo":"97","interseccion":"Carrera 56A - Calle 55","veh_eq_hora_pico":351,"anios":"2018"}},{"type":"Feature","geometry":{"type":"Point","coordinates":[-75.57218,6.25378]},"properties":{"nodo":"95","interseccion":"Carrera 56 - Calle 52A","veh_eq_hora_pico":299,"anios":"2018"}},{"type":"Feature","geometry":{"type":"Point","coordinates":[-75.57218,6.25377]},"properties":{"nodo":"100","interseccion":"Carrera 56 - Calle 52A","veh_eq_hora_pico":312,"anios":"2018"}},{"type":"Feature","geometry":{"type":"Point","coordinates":[-75.57318,6.25314]},"properties":{"nodo":"96","interseccion":"Carrera 56A - Calle 50 & Calle 51","veh_eq_hora_pico":403,"anios":"2018"}},{"type":"Feature","geometry":{"type":"Point","coordinates":[-75.55764,6.23299]},"properties":{"nodo":"123","interseccion":"Carrera 30 - Calle 38E","veh_eq_hora_pico":1735,"anios":"2018"}},{"type":"Feature","geometry":{"type":"Point","coordinates":[-75.55553,6.23422]},"properties":{"nodo":"116","interseccion":"Carrera 29 - Calle 40A","veh_eq_hora_pico":525,"anios":"2018"}},{"type":"Feature","geometry":{"type":"Point","coordinates":[-75.55509,6.23678]},"properties":{"nodo":"115","interseccion":"Carrera 30 - Calle 43","veh_eq_hora_pico":1189,"anios":"2018"}},{"type":"Feature","geometry":{"type":"Point","coordinates":[-75.55447,6.23795]},"properties":{"nodo":"114","interseccion":"Carrera 30 - Calle 45","veh_eq_hora_pico":1656,"anios":"2018"}},{"type":"Feature","geometry":{"type":"Point","coordinates":[-75.55368,6.23723]},"properties":{"nodo":"113","interseccion":"Carrera 29 - Calle 45","veh_eq_hora_pico":1819,"anios":"2018"}},{"type":"Feature","geometry":{"type":"Point","coordinates":[-75.5538,6.23915]},"properties":{"nodo":"111","interseccion":"Carrera 30 - Calle 47","veh_eq_hora_pico":887,"anios":"2018"}},{"type":"Feature","geometry":{"type":"Point","coordinates":[-75.55289,6.23869]},"properties":{"nodo":"121","interseccion":"Carrera 29 - Calle 47","veh_eq_hora_pico":1013,"anios":"2018"}},{"type":"Feature","geometry":{"type":"Point","coordinates":[-75.55332,6.24008]},"properties":{"nodo":"109","interseccion":"Carrera 30 - Calle 48","veh_eq_hora_pico":787,"anios":"2018"}},{"type":"Feature","geometry":{"type":"Point","coordinates":[-75.55131,6.24013]},"properties":{"nodo":"98","interseccion":"Carrera 28 - Calle 49","veh_eq_hora_pico":1773,"anios":"2018"}},{"type":"Feature","geometry":{"type":"Point","coordinates":[-75.55499,6.23343]},"properties":{"nodo":"99","interseccion":"Carrera 28 - Calle 40","veh_eq_hora_pico":646,"anios":"2018"}},{"type":"Feature","geometry":{"type":"Point","coordinates":[-75.55216,6.24211]},"properties":{"nodo":"112","interseccion":"Carrera 30 - Calle 51","veh_eq_hora_pico":1172,"anios":"2018"}},{"type":"Feature","geometry":{"type":"Point","coordinates":[-75.54976,6.24277]},"properties":{"nodo":"106","interseccion":"Carrera 28 - Calle 52","veh_eq_hora_pico":1877,"anios":"2018"}},{"type":"Feature","geometry":{"type":"Point","coordinates":[-75.5753,6.27733]},"properties":{"nodo":"122","interseccion":"Carrera 67 - Calle 80","veh_eq_hora_pico":2286,"anios":"2018"}},{"type":"Feature","geometry":{"type":"Point","coordinates":[-75.57724,6.27885]},"properties":{"nodo":"117","interseccion":"Carrera 70 - Calle 80","veh_eq_hora_pico":1685,"anios":"2018"}},{"type":"Feature","geometry":{"type":"Point","coordinates":[-75.57768,6.27923]},"properties":{"nodo":"119","interseccion":"Carrera 71A - Calle 80","veh_eq_hora_pico":1729,"anios":"2018"}},{"type":"Feature","geometry":{"type":"Point","coordinates":[-75.57644,6.27822]},"properties":{"nodo":"118","interseccion":"Carrera 68 - Calle 80","veh_eq_hora_pico":1764,"anios":"2018"}},{"type":"Feature","geometry":{"type":"Point","coordinates":[-75.57968,6.28082]},"properties":{"nodo":"120","interseccion":"Carrera 72C - Calle 80","veh_eq_hora_pico":3653,"anios":"2018"}},{"type":"Feature","geometry":{"type":"Point","coordinates":[-75.58615,6.20671]},"properties":{"nodo":"125","interseccion":"Carrera 52 - Calle 2 Sur","veh_eq_hora_pico":4818,"anios":"2018, 2019"}},{"type":"Feature","geometry":{"type":"Point","coordinates":[-75.5884,6.20771]},"properties":{"nodo":"126","interseccion":"Carrera 52 - Calle 2 Sur","veh_eq_hora_pico":820,"anios":"2018, 2019"}},{"type":"Feature","geometry":{"type":"Point","coordinates":[-75.56164,6.21534]},"properties":{"nodo":"","interseccion":"Carrera 30 - Calle 16","veh_eq_hora_pico":3389,"anios":"2017, 2018"}},{"type":"Feature","geometry":{"type":"Point","coordinates":[-75.59618,6.23085]},"properties":{"nodo":"143","interseccion":"Carrera 76 - Calle 29","veh_eq_hora_pico":2750,"anios":"2019"}},{"type":"Feature","geometry":{"type":"Point","coordinates":[-75.572728,6.200757]},"properties":{"nodo":"144","interseccion":"Carrera 43A - Calle 3 Sur","veh_eq_hora_pico":4050,"anios":"2019"}},{"type":"Feature","geometry":{"type":"Point","coordinates":[-75.58509,6.2605]},"properties":{"nodo":"145","interseccion":"Carrera 70 - Calle 53","veh_eq_hora_pico":3994,"anios":"2019"}},{"type":"Feature","geometry":{"type":"Point","coordinates":[-75.58587,6.25901]},"properties":{"nodo":"146","interseccion":"Carrera 70 - Calle 51","veh_eq_hora_pico":3866,"anios":"2019"}},{"type":"Feature","geometry":{"type":"Point","coordinates":[-75.58517,6.20321]},"properties":{"nodo":"153","interseccion":"Calle 6 Sur - Carrera 51","veh_eq_hora_pico":4042,"anios":"2019"}},{"type":"Feature","geometry":{"type":"Point","coordinates":[-75.58109,6.2561]},"properties":{"nodo":"157","interseccion":"Carrera 65 - Calle 50","veh_eq_hora_pico":7774,"anios":"2019"}},{"type":"Feature","geometry":{"type":"Point","coordinates":[-75.5919,6.28292]},"properties":{"nodo":"158","interseccion":"Carrera 88 - Calle 77A","veh_eq_hora_pico":1725,"anios":"2019"}},{"type":"Feature","geometry":{"type":"Point","coordinates":[-75.56949,6.21999]},"properties":{"nodo":"183","interseccion":"Carrera 43A - Calle 19","veh_eq_hora_pico":5410,"anios":"2019"}},{"type":"Feature","geometry":{"type":"Point","coordinates":[-75.58559,6.21871]},"properties":{"nodo":"185","interseccion":"Carrera 65 - Calle 14","veh_eq_hora_pico":10495,"anios":"2019"}},{"type":"Feature","geometry":{"type":"Point","coordinates":[-75.5967,6.26352]},"properties":{"nodo":"186","interseccion":"Av. 80 - Calle 50","veh_eq_hora_pico":11826,"anios":"2019"}},{"type":"Feature","geometry":{"type":"Point","coordinates":[-75.55786,6.24449]},"properties":{"nodo":"187","interseccion":"Calle 50 - Carrera 37","veh_eq_hora_pico":2272,"anios":"2019"}},{"type":"Feature","geometry":{"type":"Point","coordinates":[-75.59538,6.26947]},"properties":{"nodo":"188","interseccion":"Av. 80 - Calle 55","veh_eq_hora_pico":4730,"anios":"2019"}},{"type":"Feature","geometry":{"type":"Point","coordinates":[-75.55606,6.24341]},"properties":{"nodo":"189","interseccion":"Carrera 35 - Calle 50","veh_eq_hora_pico":2005,"anios":"2019"}},{"type":"Feature","geometry":{"type":"Point","coordinates":[-75.58596,6.21688]},"properties":{"nodo":"205","interseccion":"Carrera 65 - Calle 10","veh_eq_hora_pico":12824,"anios":"2019"}},{"type":"Feature","geometry":{"type":"Point","coordinates":[-75.63388,6.27937]},"properties":{"nodo":"139","interseccion":"Calle 63 - Carrera 128","veh_eq_hora_pico":515,"anios":"2019"}},{"type":"Feature","geometry":{"type":"Point","coordinates":[-75.63352,6.2795]},"properties":{"nodo":"140","interseccion":"Calle 63 - Carrera 128","veh_eq_hora_pico":871,"anios":"2019"}},{"type":"Feature","geometry":{"type":"Point","coordinates":[-75.63443,6.2792]},"properties":{"nodo":"141","interseccion":"Calle 63 - Carrera 129A","veh_eq_hora_pico":144,"anios":"2019"}},{"type":"Feature","geometry":{"type":"Point","coordinates":[-75.63368,6.2787]},"properties":{"nodo":"142","interseccion":"Calle 62 - Carrera 128","veh_eq_hora_pico":294,"anios":"2019"}},{"type":"Feature","geometry":{"type":"Point","coordinates":[-75.58003,6.2595]},"properties":{"nodo":"127","interseccion":"Carrera 65 - Calle 59","veh_eq_hora_pico":95,"anios":"2019"}},{"type":"Feature","geometry":{"type":"Point","coordinates":[-75.58415,6.26216]},"properties":{"nodo":"128","interseccion":"Carrera 70 - Calle 59","veh_eq_hora_pico":45,"anios":"2019"}},{"type":"Feature","geometry":{"type":"Point","coordinates":[-75.60982,6.24368]},"properties":{"nodo":"154","interseccion":"Calle 35 - Carrera 85C","veh_eq_hora_pico":1386,"anios":"2019"}},{"type":"Feature","geometry":{"type":"Point","coordinates":[-75.56027,6.27301]},"properties":{"nodo":"137","interseccion":"Carrera 50B - Calle 79","veh_eq_hora_pico":437,"anios":"2019"}},{"type":"Feature","geometry":{"type":"Point","coordinates":[-75.58754,6.27006]},"properties":{"nodo":"152","interseccion":"Carrera 75 - Calle 65","veh_eq_hora_pico":1978,"anios":"2019"}},{"type":"Feature","geometry":{"type":"Point","coordinates":[-75.58775,6.22362]},"properties":{"nodo":"159","interseccion":"Carrera 66 - Calle 20","veh_eq_hora_pico":596,"anios":"2019"}},{"type":"Feature","geometry":{"type":"Point","coordinates":[-75.58639,6.22097]},"properties":{"nodo":"175","interseccion":"Carrera 65G - Calle 16A","veh_eq_hora_pico":1128,"anios":"2019"}},{"type":"Feature","geometry":{"type":"Point","coordinates":[-75.59075,6.23838]},"properties":{"nodo":"168","interseccion":"Av. Bolivariana - Calle 32F","veh_eq_hora_pico":1763,"anios":"2019"}},{"type":"Feature","geometry":{"type":"Point","coordinates":[-75.58991,6.2393]},"properties":{"nodo":"171","interseccion":"Av. Bolivariana - Calle 33","veh_eq_hora_pico":10642,"anios":"2019"}},{"type":"Feature","geometry":{"type":"Point","coordinates":[-75.58745,6.2393]},"properties":{"nodo":"174","interseccion":"Calle 33 - Carrera 66B","veh_eq_hora_pico":7015,"anios":"2019"}},{"type":"Feature","geometry":{"type":"Point","coordinates":[-75.58694,6.2399]},"properties":{"nodo":"169","interseccion":"Carrera 66A - Calle 34","veh_eq_hora_pico":583,"anios":"2019"}},{"type":"Feature","geometry":{"type":"Point","coordinates":[-75.58814,6.23985]},"properties":{"nodo":"170","interseccion":"Carrera 66AA - Calle 34","veh_eq_hora_pico":146,"anios":"2019"}},{"type":"Feature","geometry":{"type":"Point","coordinates":[-75.5874,6.23853]},"properties":{"nodo":"176","interseccion":"Carrera 66B - Calle 32F","veh_eq_hora_pico":1205,"anios":"2019"}},{"type":"Feature","geometry":{"type":"Point","coordinates":[-75.58748,6.23986]},"properties":{"nodo":"167","interseccion":"Carrera 66B - Calle 34","veh_eq_hora_pico":833,"anios":"2019"}},{"type":"Feature","geometry":{"type":"Point","coordinates":[-75.57436,6.20799]},"properties":{"nodo":"165","interseccion":"Carrera 45 - Calle 6","veh_eq_hora_pico":146,"anios":"2019"}},{"type":"Feature","geometry":{"type":"Point","coordinates":[-75.5748,6.20932]},"properties":{"nodo":"166","interseccion":"Carrera 45 - Calle 7","veh_eq_hora_pico":151,"anios":"2019"}},{"type":"Feature","geometry":{"type":"Point","coordinates":[-75.63638,6.27858]},"properties":{"nodo":"161","interseccion":"Carrera 131 - Calle 63","veh_eq_hora_pico":722,"anios":"2019"}},{"type":"Feature","geometry":{"type":"Point","coordinates":[-75.63946,6.28176]},"properties":{"nodo":"162","interseccion":"Carrera 136C - Calle 66","veh_eq_hora_pico":286,"anios":"2019"}},{"type":"Feature","geometry":{"type":"Point","coordinates":[-75.64105,6.27976]},"properties":{"nodo":"163","interseccion":"Carrera 140 - Calle 63","veh_eq_hora_pico":369,"anios":"2019"}},{"type":"Feature","geometry":{"type":"Point","coordinates":[-75.63626,6.28021]},"properties":{"nodo":"164","interseccion":"Carrera 131 - Calle 64","veh_eq_hora_pico":362,"anios":"2019"}},{"type":"Feature","geometry":{"type":"Point","coordinates":[-75.60846,6.23844]},"properties":{"nodo":"184","interseccion":"Carrera 84 - Calle 33","veh_eq_hora_pico":5912,"anios":"2019"}},{"type":"Feature","geometry":{"type":"Point","coordinates":[-75.56901,6.30027]},"properties":{"nodo":"206","interseccion":"Calle 104 - carrera 68A","veh_eq_hora_pico":1842,"anios":"2018"}},{"type":"Feature","geometry":{"type":"Point","coordinates":[-75.57012,6.30035]},"properties":{"nodo":"207","interseccion":"Calle 104 - carrera 70","veh_eq_hora_pico":3051,"anios":"2018"}},{"type":"Feature","geometry":{"type":"Point","coordinates":[-75.56722,6.30107]},"properties":{"nodo":"208","interseccion":"Calle 104 - Carrera 67","veh_eq_hora_pico":3376,"anios":"2018"}}]}