{"type":"FeatureCollection","features":[{"type":"Feature","geometry":{"type":"Point","coordinates":[-75.558556,6.299943],"crs":null},"properties":{"nombre":"Estación Acevedo (Línea A)","linea":"A","sistema":"Metro"}},{"type":"Feature","geometry":{"type":"Point","coordinates":[-75.564717,6.290315],"crs":null},"properties":{"nombre":"Estación Tricentenario (Línea A)","linea":"A","sistema":"Metro"}},{"type":"Feature","geometry":{"type":"Point","coordinates":[-75.569405,6.278327],"crs":null},"properties":{"nombre":"Estación Caribe (Línea A)","linea":"A","sistema":"Metro"}},{"type":"Feature","geometry":{"type":"Point","coordinates":[-75.565828,6.269433],"crs":null},"properties":{"nombre":"Estación Universidad (Línea A)","linea":"A","sistema":"Metro"}},{"type":"Feature","geometry":{"type":"Point","coordinates":[-75.563335,6.26392],"crs":null},"properties":{"nombre":"Estación Hospital (Línea A)","linea":"A","sistema":"Metro"}},{"type":"Feature","geometry":{"type":"Point","coordinates":[-75.566172,6.25685],"crs":null},"properties":{"nombre":"Estación Prado (Línea A)","linea":"A","sistema":"Metro"}},{"type":"Feature","geometry":{"type":"Point","coordinates":[-75.568236,6.250502],"crs":null},"properties":{"nombre":"Estación Parque Berrío (Línea A)","linea":"A","sistema":"Metro"}},{"type":"Feature","geometry":{"type":"Point","coordinates":[-75.569703,6.247195],"crs":null},"properties":{"nombre":"Estación San Antonio (Línea A)","linea":"A","sistema":"Metro"}},{"type":"Feature","geometry":{"type":"Point","coordinates":[-75.575152,6.249054],"crs":null},"properties":{"nombre":"Estación Cisneros (Línea B)","linea":"B","sistema":"Metro"}},{"type":"Feature","geometry":{"type":"Point","coordinates":[-75.571425,6.242917],"crs":null},"properties":{"nombre":"Estación Alpujarra (Línea A)","linea":"A","sistema":"Metro"}},{"type":"Feature","geometry":{"type":"Point","coordinates":[-75.573164,6.23842],"crs":null},"properties":{"nombre":"Estación Exposiciones (Línea A)","linea":"A","sistema":"Metro"}},{"type":"Feature","geometry":{"type":"Point","coordinates":[-75.575619,6.230091],"crs":null},"properties":{"nombre":"Estación Industriales (Línea A)","linea":"A","sistema":"Metro"}},{"type":"Feature","geometry":{"type":"Point","coordinates":[-75.578096,6.212178],"crs":null},"properties":{"nombre":"Estación Poblado (Línea A)","linea":"A","sistema":"Metro"}},{"type":"Feature","geometry":{"type":"Point","coordinates":[-75.58181,6.19392],"crs":null},"properties":{"nombre":"Estación Aguacatala (Línea A)","linea":"A","sistema":"Metro"}},{"type":"Feature","geometry":{"type":"Point","coordinates":[-75.582942,6.252984],"crs":null},"properties":{"nombre":"Estación Suramericana (Línea B)","linea":"B","sistema":"Metro"}},{"type":"Feature","geometry":{"type":"Point","coordinates":[-75.588256,6.253336],"crs":null},"properties":{"nombre":"Estación Estadio (Línea B)","linea":"B","sistema":"Metro"}},{"type":"Feature","geometry":{"type":"Point","coordinates":[-75.597744,6.258709],"crs":null},"properties":{"nombre":"Estación Floresta (Línea B)","linea":"B","sistema":"Metro"}},{"type":"Feature","geometry":{"type":"Point","coordinates":[-75.603746,6.258088],"crs":null},"properties":{"nombre":"Estación Santa Lucia (Línea B)","linea":"B","sistema":"Metro"}},{"type":"Feature","geometry":{"type":"Point","coordinates":[-75.613664,6.256781],"crs":null},"properties":{"nombre":"Estación San Javier (Línea B)","linea":"B","sistema":"Metro"}},{"type":"Feature","geometry":{"type":"Point","coordinates":[-75.555324,6.315877],"crs":null},"properties":{"nombre":"Estación Madera (Línea A)","linea":"A","sistema":"Metro"}},{"type":"Feature","geometry":{"type":"Point","coordinates":[-75.553635,6.330098],"crs":null},"properties":{"nombre":"Estación Bello (Línea A)","linea":"A","sistema":"Metro"}},{"type":"Feature","geometry":{"type":"Point","coordinates":[-75.544287,6.337827],"crs":null},"properties":{"nombre":"Estación Niquía (Línea A)","linea":"A","sistema":"Metro"}},{"type":"Feature","geometry":{"type":"Point","coordinates":[-75.586064,6.186162],"crs":null},"properties":{"nombre":"Estación Ayurá (Línea A)","linea":"A","sistema":"Metro"}},{"type":"Feature","geometry":{"type":"Point","coordinates":[-75.597065,6.174686],"crs":null},"properties":{"nombre":"Estación Envigado (Línea A)","linea":"A","sistema":"Metro"}},{"type":"Feature","geometry":{"type":"Point","coordinates":[-75.606863,6.162894],"crs":null},"properties":{"nombre":"Estación Itaguí (Línea A)","linea":"A","sistema":"Metro"}},{"type":"Feature","geometry":{"type":"Point","coordinates":[-75.616242,6.157689],"crs":null},"properties":{"nombre":"Estación Sabaneta (Línea A)","linea":"A","sistema":"Metro"}},{"type":"Feature","geometry":{"type":"Point","coordinates":[-75.626363,6.152784],"crs":null},"properties":{"nombre":"Estación La Estrella (Línea A)","linea":"A","sistema":"Metro"}},{"type":"Feature","geometry":{"type":"Point","coordinates":[-75.569728,6.247202],"crs":null},"properties":{"nombre":"Estación San Antonio (Línea B)","linea":"B","sistema":"Metro"}},{"type":"Feature","geometry":{"type":"Point","coordinates":[-75.502972,6.281546],"crs":null},"properties":{"nombre":"Estación Arví (Línea L)","linea":"L","sistema":"Cable"}},{"type":"Feature","geometry":{"type":"Point","coordinates":[-75.541727,6.293159],"crs":null},"properties":{"nombre":"Estación Santo Domingo (Línea K)","linea":"K","sistema":"Cable"}},{"type":"Feature","geometry":{"type":"Point","coordinates":[-75.548141,6.295123],"crs":null},"properties":{"nombre":"Estación Popular (Línea K)","linea":"K","sistema":"Cable"}},{"type":"Feature","geometry":{"type":"Point","coordinates":[-75.551897,6.296272],"crs":null},"properties":{"nombre":"Estación Andalucía (Línea K)","linea":"K","sistema":"Cable"}},{"type":"Feature","geometry":{"type":"Point","coordinates":[-75.613703,6.265677],"crs":null},"properties":{"nombre":"Estación Juan XXIII (Línea J)","linea":"J","sistema":"Cable"}},{"type":"Feature","geometry":{"type":"Point","coordinates":[-75.614017,6.275361],"crs":null},"properties":{"nombre":"Estación Vallejuelos (Línea J)","linea":"J","sistema":"Cable"}},{"type":"Feature","geometry":{"type":"Point","coordinates":[-75.614203,6.281093],"crs":null},"properties":{"nombre":"Estación La Aurora (Línea J)","linea":"J","sistema":"Cable"}},{"type":"Feature","geometry":{"type":"Point","coordinates":[-75.541395,6.247615],"crs":null},"properties":{"nombre":"Estación 13 de Noviembre (Línea M)","linea":"M","sistema":"Cable"}},{"type":"Feature","geometry":{"type":"Point","coordinates":[-75.528679,6.234875],"crs":null},"properties":{"nombre":"Estación Villa Sierra (Línea H)","linea":"H","sistema":"Cable"}},{"type":"Feature","geometry":{"type":"Point","coordinates":[-75.544476,6.245263],"crs":null},"properties":{"nombre":"Estación El Pinal (Línea M)","linea":"M","sistema":"Cable"}},{"type":"Feature","geometry":{"type":"Point","coordinates":[-75.536372,6.236645],"crs":null},"properties":{"nombre":"Estación Las Torres (Línea H)","linea":"H","sistema":"Cable"}},{"type":"Feature","geometry":{"type":"Point","coordinates":[-75.541848,6.292723],"crs":null},"properties":{"nombre":"Estación Santo Domingo (Línea L)","linea":"L","sistema":"Cable"}},{"type":"Feature","geometry":{"type":"Point","coordinates":[-75.558308,6.300272],"crs":null},"properties":{"nombre":"Estación Acevedo (Línea K)","linea":"K","sistema":"Cable"}},{"type":"Feature","geometry":{"type":"Point","coordinates":[-75.549111,6.241725],"crs":null},"properties":{"nombre":"Estación Miraflores (Línea M)","linea":"M","sistema":"Cable"}},{"type":"Feature","geometry":{"type":"Point","coordinates":[-75.539937,6.233362],"crs":null},"properties":{"nombre":"Estación Oriente (Línea H)","linea":"H","sistema":"Cable"}},{"type":"Feature","geometry":{"type":"Point","coordinates":[-75.613412,6.25672],"crs":null},"properties":{"nombre":"Estación San Javier (Línea J)","linea":"J","sistema":"Cable"}},{"type":"Feature","geometry":{"type":"Point","coordinates":[-75.541739,6.235509],"crs":null},"properties":{"nombre":"Estación Alejandro Echavarría (Línea T)","linea":"T","sistema":"T"}},{"type":"Feature","geometry":{"type":"Point","coordinates":[-75.558763,6.243951],"crs":null},"properties":{"nombre":"Estación Bicentenario (Línea T)","linea":"T","sistema":"T"}},{"type":"Feature","geometry":{"type":"Point","coordinates":[-75.545176,6.239028],"crs":null},"properties":{"nombre":"Estación Loyola (Línea T)","linea":"T","sistema":"T"}},{"type":"Feature","geometry":{"type":"Point","coordinates":[-75.54014,6.23315],"crs":null},"properties":{"nombre":"Estación Oriente (Línea T)","linea":"T","sistema":"T"}},{"type":"Feature","geometry":{"type":"Point","coordinates":[-75.561993,6.245589],"crs":null},"properties":{"nombre":"Estación Pabellón del Agua (Línea T)","linea":"T","sistema":"T"}},{"type":"Feature","geometry":{"type":"Point","coordinates":[-75.565386,6.247329],"crs":null},"properties":{"nombre":"Estación San José (Línea T)","linea":"T","sistema":"T"}},{"type":"Feature","geometry":{"type":"Point","coordinates":[-75.5539,6.241399],"crs":null},"properties":{"nombre":"Estación Buenos Aires (Línea T)","linea":"T","sistema":"T"}},{"type":"Feature","geometry":{"type":"Point","coordinates":[-75.549003,6.241388],"crs":null},"properties":{"nombre":"Estación Miraflores (Línea T)","linea":"T","sistema":"T"}},{"type":"Feature","geometry":{"type":"Point","coordinates":[-75.569157,6.246998],"crs":null},"properties":{"nombre":"Estación San Antonio (Línea T)","linea":"T","sistema":"T"}},{"type":"Feature","geometry":{"type":"Point","coordinates":[-75.609225,6.230667],"crs":null},"properties":{"nombre":"Estación Universidad de Medellín (Línea 1)","linea":"1","sistema":"MPLUS"}},{"type":"Feature","geometry":{"type":"Point","coordinates":[-75.605169,6.231093],"crs":null},"properties":{"nombre":"Parada Los Alpes (Línea 1)","linea":"1","sistema":"MPLUS"}},{"type":"Feature","geometry":{"type":"Point","coordinates":[-75.601028,6.231178],"crs":null},"properties":{"nombre":"Parada La Palma (Línea 1)","linea":"1","sistema":"MPLUS"}},{"type":"Feature","geometry":{"type":"Point","coordinates":[-75.575947,6.304248],"crs":null},"properties":{"nombre":"Estación Doce de Octubre (Línea P)","linea":"P","sistema":"C"}},{"type":"Feature","geometry":{"type":"Point","coordinates":[-75.582334,6.305999],"crs":null},"properties":{"nombre":"Estación El Progreso (Línea P)","linea":"P","sistema":"C"}},{"type":"Feature","geometry":{"type":"Point","coordinates":[-75.558808,6.299549],"crs":null},"properties":{"nombre":"Estación Acevedo (Línea P)","linea":"P","sistema":"C"}},{"type":"Feature","geometry":{"type":"Point","coordinates":[-75.59675,6.231396],"crs":null},"properties":{"nombre":"Parada Parque Belén (Línea 1)","linea":"1","sistema":"MPLUS"}},{"type":"Feature","geometry":{"type":"Point","coordinates":[-75.59097,6.231596],"crs":null},"properties":{"nombre":"Parada Rosales (Línea 1)","linea":"1","sistema":"MPLUS"}},{"type":"Feature","geometry":{"type":"Point","coordinates":[-75.586564,6.231743],"crs":null},"properties":{"nombre":"Parada Fátima (Línea 1)","linea":"1","sistema":"MPLUS"}},{"type":"Feature","geometry":{"type":"Point","coordinates":[-75.582058,6.231865],"crs":null},"properties":{"nombre":"Parada Nutibara (Línea 1)","linea":"1","sistema":"MPLUS"}},{"type":"Feature","geometry":{"type":"Point","coordinates":[-75.575401,6.243662],"crs":null},"properties":{"nombre":"Parada Plaza Mayor (Línea 1)","linea":"1","sistema":"MPLUS"}},{"type":"Feature","geometry":{"type":"Point","coordinates":[-75.575036,6.250853],"crs":null},"properties":{"nombre":"Parada Cisneros (Línea 1)","linea":"1","sistema":"MPLUS"}},{"type":"Feature","geometry":{"type":"Point","coordinates":[-75.573145,6.256091],"crs":null},"properties":{"nombre":"Parada Minorista (Línea 1)","linea":"1","sistema":"MPLUS"}},{"type":"Feature","geometry":{"type":"Point","coordinates":[-75.569143,6.260711],"crs":null},"properties":{"nombre":"Parada Chagualo (Línea 1)","linea":"1","sistema":"MPLUS"}},{"type":"Feature","geometry":{"type":"Point","coordinates":[-75.56758,6.263931],"crs":null},"properties":{"nombre":"Parada Ruta N (Línea 1)","linea":"1","sistema":"MPLUS"}},{"type":"Feature","geometry":{"type":"Point","coordinates":[-75.56017,6.263486],"crs":null},"properties":{"nombre":"Parada San Pedro (Línea 1)","linea":"1","sistema":"MPLUS"}},{"type":"Feature","geometry":{"type":"Point","coordinates":[-75.555923,6.262113],"crs":null},"properties":{"nombre":"Parada Palos Verdes (Línea 1)","linea":"1","sistema":"MPLUS"}},{"type":"Feature","geometry":{"type":"Point","coordinates":[-75.555044,6.267668],"crs":null},"properties":{"nombre":"Parada Gardel (Línea 1)","linea":"1","sistema":"MPLUS"}},{"type":"Feature","geometry":{"type":"Point","coordinates":[-75.554079,6.273257],"crs":null},"properties":{"nombre":"Parada Manrique (Línea 1)","linea":"1","sistema":"MPLUS"}},{"type":"Feature","geometry":{"type":"Point","coordinates":[-75.553168,6.278393],"crs":null},"properties":{"nombre":"Parada Las Esmeraldas (Línea 1)","linea":"1","sistema":"MPLUS"}},{"type":"Feature","geometry":{"type":"Point","coordinates":[-75.552938,6.282932],"crs":null},"properties":{"nombre":"Parada Berlin (Línea 1)","linea":"1","sistema":"MPLUS"}},{"type":"Feature","geometry":{"type":"Point","coordinates":[-75.556659,6.2852],"crs":null},"properties":{"nombre":"Parada Parque Aranjuez (Línea 1)","linea":"1","sistema":"MPLUS"}},{"type":"Feature","geometry":{"type":"Point","coordinates":[-75.570986,6.228624],"crs":null},"properties":{"nombre":"Paradero Barrio Colombia (Línea 2)","linea":"2","sistema":"MPLUS"}},{"type":"Feature","geometry":{"type":"Point","coordinates":[-75.569829,6.229058],"crs":null},"properties":{"nombre":"Paradero Barrio Colombia (Línea 2)","linea":"2","sistema":"MPLUS"}},{"type":"Feature","geometry":{"type":"Point","coordinates":[-75.570042,6.234089],"crs":null},"properties":{"nombre":"Parada Perpetuo Socorro (Línea 2)","linea":"2","sistema":"MPLUS"}},{"type":"Feature","geometry":{"type":"Point","coordinates":[-75.569782,6.24061],"crs":null},"properties":{"nombre":"Parada Barrio Colón (Línea 2)","linea":"2","sistema":"MPLUS"}},{"type":"Feature","geometry":{"type":"Point","coordinates":[-75.566092,6.24708],"crs":null},"properties":{"nombre":"Parada San José (Línea 2)","linea":"2","sistema":"MPLUS"}},{"type":"Feature","geometry":{"type":"Point","coordinates":[-75.564394,6.249591],"crs":null},"properties":{"nombre":"Parada La Playa (Línea 2)","linea":"2","sistema":"MPLUS"}},{"type":"Feature","geometry":{"type":"Point","coordinates":[-75.562474,6.252965],"crs":null},"properties":{"nombre":"Parada Catedral Metropolitana (Línea 2)","linea":"2","sistema":"MPLUS"}},{"type":"Feature","geometry":{"type":"Point","coordinates":[-75.559588,6.258797],"crs":null},"properties":{"nombre":"Paradero Prado (Línea 2)","linea":"2","sistema":"MPLUS"}},{"type":"Feature","geometry":{"type":"Point","coordinates":[-75.560373,6.25897],"crs":null},"properties":{"nombre":"Paradero Prado (Línea 2)","linea":"2","sistema":"MPLUS"}},{"type":"Feature","geometry":{"type":"Point","coordinates":[-75.556403,6.263256],"crs":null},"properties":{"nombre":"Paradero Palos Verdes (Línea 2)","linea":"2","sistema":"MPLUS"}},{"type":"Feature","geometry":{"type":"Point","coordinates":[-75.55287,6.282926],"crs":null},"properties":{"nombre":"Parada Berlin (Línea 1)","linea":"1","sistema":"MPLUS"}},{"type":"Feature","geometry":{"type":"Point","coordinates":[-75.553126,6.278387],"crs":null},"properties":{"nombre":"Parada Las Esmeraldas (Línea 1)","linea":"1","sistema":"MPLUS"}},{"type":"Feature","geometry":{"type":"Point","coordinates":[-75.554024,6.273248],"crs":null},"properties":{"nombre":"Parada Manrique (Línea 1)","linea":"1","sistema":"MPLUS"}},{"type":"Feature","geometry":{"type":"Point","coordinates":[-75.554991,6.267663],"crs":null},"properties":{"nombre":"Parada Gardel (Línea 1)","linea":"1","sistema":"MPLUS"}},{"type":"Feature","geometry":{"type":"Point","coordinates":[-75.555817,6.262073],"crs":null},"properties":{"nombre":"Parada Palos Verdes (Línea 1)","linea":"1","sistema":"MPLUS"}},{"type":"Feature","geometry":{"type":"Point","coordinates":[-75.560186,6.263389],"crs":null},"properties":{"nombre":"Parada San Pedro (Línea 1)","linea":"1","sistema":"MPLUS"}},{"type":"Feature","geometry":{"type":"Point","coordinates":[-75.563245,6.263996],"crs":null},"properties":{"nombre":"Estación Hospital (Línea 1)","linea":"1","sistema":"MPLUS"}},{"type":"Feature","geometry":{"type":"Point","coordinates":[-75.563303,6.263851],"crs":null},"properties":{"nombre":"Estación Hospital (Línea 1)","linea":"1","sistema":"MPLUS"}},{"type":"Feature","geometry":{"type":"Point","coordinates":[-75.567678,6.263947],"crs":null},"properties":{"nombre":"Parada Ruta N (Línea 1)","linea":"1","sistema":"MPLUS"}},{"type":"Feature","geometry":{"type":"Point","coordinates":[-75.569202,6.260741],"crs":null},"properties":{"nombre":"Parada Chagualo (Línea 1)","linea":"1","sistema":"MPLUS"}},{"type":"Feature","geometry":{"type":"Point","coordinates":[-75.573223,6.25616],"crs":null},"properties":{"nombre":"Parada Minorista (Línea 1)","linea":"1","sistema":"MPLUS"}},{"type":"Feature","geometry":{"type":"Point","coordinates":[-75.575131,6.250858],"crs":null},"properties":{"nombre":"Parada Cisneros (Línea 1)","linea":"1","sistema":"MPLUS"}},{"type":"Feature","geometry":{"type":"Point","coordinates":[-75.575304,6.243659],"crs":null},"properties":{"nombre":"Parada Plaza Mayor (Línea 1)","linea":"1","sistema":"MPLUS"}},{"type":"Feature","geometry":{"type":"Point","coordinates":[-75.576758,6.230481],"crs":null},"properties":{"nombre":"Estación Industriales (Línea 1)","linea":"1","sistema":"MPLUS"}},{"type":"Feature","geometry":{"type":"Point","coordinates":[-75.582055,6.231737],"crs":null},"properties":{"nombre":"Parada Nutibara (Línea 1)","linea":"1","sistema":"MPLUS"}},{"type":"Feature","geometry":{"type":"Point","coordinates":[-75.586562,6.231614],"crs":null},"properties":{"nombre":"Parada Fátima (Línea 1)","linea":"1","sistema":"MPLUS"}},{"type":"Feature","geometry":{"type":"Point","coordinates":[-75.590968,6.23154],"crs":null},"properties":{"nombre":"Parada Rosales (Línea 1)","linea":"1","sistema":"MPLUS"}},{"type":"Feature","geometry":{"type":"Point","coordinates":[-75.596747,6.23133],"crs":null},"properties":{"nombre":"Parada Parque Belén (Línea 1)","linea":"1","sistema":"MPLUS"}},{"type":"Feature","geometry":{"type":"Point","coordinates":[-75.601024,6.23111],"crs":null},"properties":{"nombre":"Parada La Palma (Línea 1)","linea":"1","sistema":"MPLUS"}},{"type":"Feature","geometry":{"type":"Point","coordinates":[-75.605166,6.231023],"crs":null},"properties":{"nombre":"Parada Los Alpes (Línea 1)","linea":"1","sistema":"MPLUS"}},{"type":"Feature","geometry":{"type":"Point","coordinates":[-75.570186,6.234083],"crs":null},"properties":{"nombre":"Parada Perpetuo Socorro (Línea 2)","linea":"2","sistema":"MPLUS"}},{"type":"Feature","geometry":{"type":"Point","coordinates":[-75.569902,6.240648],"crs":null},"properties":{"nombre":"Parada Barrio Colón (Línea 2)","linea":"2","sistema":"MPLUS"}},{"type":"Feature","geometry":{"type":"Point","coordinates":[-75.566216,6.24716],"crs":null},"properties":{"nombre":"Parada San José (Línea 2)","linea":"2","sistema":"MPLUS"}},{"type":"Feature","geometry":{"type":"Point","coordinates":[-75.56455,6.249663],"crs":null},"properties":{"nombre":"Parada La Playa (Línea 2)","linea":"2","sistema":"MPLUS"}},{"type":"Feature","geometry":{"type":"Point","coordinates":[-75.562598,6.253038],"crs":null},"properties":{"nombre":"Parada Catedral Metropolitana (Línea 2)","linea":"2","sistema":"MPLUS"}},{"type":"Feature","geometry":{"type":"Point","coordinates":[-75.556659,6.2852],"crs":null},"properties":{"nombre":"Parada Parque Aranjuez (Línea 2)","linea":"2","sistema":"MPLUS"}},{"type":"Feature","geometry":{"type":"Point","coordinates":[-75.552938,6.282932],"crs":null},"properties":{"nombre":"Parada Berlin (Línea 2)","linea":"2","sistema":"MPLUS"}},{"type":"Feature","geometry":{"type":"Point","coordinates":[-75.55287,6.282926],"crs":null},"properties":{"nombre":"Parada Berlin (Línea 2)","linea":"2","sistema":"MPLUS"}},{"type":"Feature","geometry":{"type":"Point","coordinates":[-75.553168,6.278393],"crs":null},"properties":{"nombre":"Parada Las Esmeraldas (Línea 2)","linea":"2","sistema":"MPLUS"}},{"type":"Feature","geometry":{"type":"Point","coordinates":[-75.553126,6.278387],"crs":null},"properties":{"nombre":"Parada Las Esmeraldas (Línea 2)","linea":"2","sistema":"MPLUS"}},{"type":"Feature","geometry":{"type":"Point","coordinates":[-75.554079,6.273257],"crs":null},"properties":{"nombre":"Parada Manrique (Línea 2)","linea":"2","sistema":"MPLUS"}},{"type":"Feature","geometry":{"type":"Point","coordinates":[-75.554024,6.273248],"crs":null},"properties":{"nombre":"Parada Manrique (Línea 2)","linea":"2","sistema":"MPLUS"}},{"type":"Feature","geometry":{"type":"Point","coordinates":[-75.555044,6.267668],"crs":null},"properties":{"nombre":"Parada Gardel (Línea 2)","linea":"2","sistema":"MPLUS"}},{"type":"Feature","geometry":{"type":"Point","coordinates":[-75.554991,6.267663],"crs":null},"properties":{"nombre":"Parada Gardel (Línea 2)","linea":"2","sistema":"MPLUS"}},{"type":"Feature","geometry":{"type":"Point","coordinates":[-75.576501,6.230493],"crs":null},"properties":{"nombre":"Parada Industriales (Línea 2)","linea":"2","sistema":"MPLUS"}},{"type":"Feature","geometry":{"type":"Point","coordinates":[-75.582055,6.231737],"crs":null},"properties":{"nombre":"Parada Nutibara (Línea 2)","linea":"2","sistema":"MPLUS"}},{"type":"Feature","geometry":{"type":"Point","coordinates":[-75.582058,6.231865],"crs":null},"properties":{"nombre":"Parada Nutibara (Línea 2)","linea":"2","sistema":"MPLUS"}},{"type":"Feature","geometry":{"type":"Point","coordinates":[-75.586562,6.231614],"crs":null},"properties":{"nombre":"Parada Fátima (Línea 2)","linea":"2","sistema":"MPLUS"}},{"type":"Feature","geometry":{"type":"Point","coordinates":[-75.586564,6.231743],"crs":null},"properties":{"nombre":"Parada Fátima (Línea 2)","linea":"2","sistema":"MPLUS"}},{"type":"Feature","geometry":{"type":"Point","coordinates":[-75.590968,6.23154],"crs":null},"properties":{"nombre":"Parada Rosales (Línea 2)","linea":"2","sistema":"MPLUS"}},{"type":"Feature","geometry":{"type":"Point","coordinates":[-75.59097,6.231596],"crs":null},"properties":{"nombre":"Parada Rosales (Línea 2)","linea":"2","sistema":"MPLUS"}},{"type":"Feature","geometry":{"type":"Point","coordinates":[-75.596747,6.23133],"crs":null},"properties":{"nombre":"Parada Parque Belén (Línea 2)","linea":"2","sistema":"MPLUS"}},{"type":"Feature","geometry":{"type":"Point","coordinates":[-75.59675,6.231396],"crs":null},"properties":{"nombre":"Parada Parque Belén (Línea 2)","linea":"2","sistema":"MPLUS"}},{"type":"Feature","geometry":{"type":"Point","coordinates":[-75.601024,6.23111],"crs":null},"properties":{"nombre":"Parada La Palma (Línea 2)","linea":"2","sistema":"MPLUS"}},{"type":"Feature","geometry":{"type":"Point","coordinates":[-75.601028,6.231178],"crs":null},"properties":{"nombre":"Parada La Palma (Línea 2)","linea":"2","sistema":"MPLUS"}},{"type":"Feature","geometry":{"type":"Point","coordinates":[-75.605166,6.231023],"crs":null},"properties":{"nombre":"Parada Los Alpes (Línea 2)","linea":"2","sistema":"MPLUS"}},{"type":"Feature","geometry":{"type":"Point","coordinates":[-75.605169,6.231093],"crs":null},"properties":{"nombre":"Parada Los Alpes (Línea 2)","linea":"2","sistema":"MPLUS"}},{"type":"Feature","geometry":{"type":"Point","coordinates":[-75.609225,6.230667],"crs":null},"properties":{"nombre":"Estación Universidad de Medellín (Línea 2)","linea":"2","sistema":"MPLUS"}},{"type":"Feature","geometry":{"type":"Point","coordinates":[-75.555817,6.262073],"crs":null},"properties":{"nombre":"Parada Palos Verdes (Línea 2)","linea":"2","sistema":"MPLUS"}},{"type":"Feature","geometry":{"type":"Point","coordinates":[-75.556659,6.2852],"crs":null},"properties":{"nombre":"Parada Parque Aranjuez (Línea 1)","linea":"1","sistema":"MPLUS"}},{"type":"Feature","geometry":{"type":"Point","coordinates":[-75.556659,6.2852],"crs":null},"properties":{"nombre":"Parada Parque Aranjuez (Línea 2)","linea":"2","sistema":"MPLUS"}},{"type":"Feature","geometry":{"type":"Point","coordinates":[-75.609225,6.230667],"crs":null},"properties":{"nombre":"Estación Universidad de Medellín (Línea 1)","linea":"1","sistema":"MPLUS"}},{"type":"Feature","geometry":{"type":"Point","coordinates":[-75.609225,6.230667],"crs":null},"properties":{"nombre":"Estación Universidad de Medellín (Línea 2)","linea":"2","sistema":"MPLUS"}},{"type":"Feature","geometry":{"type":"Point","coordinates":[-75.570362,6.277513],"crs":null},"properties":{"nombre":"Parada Caribe Buses CR 64","linea":"O","sistema":"MPLUS"}},{"type":"Feature","geometry":{"type":"Point","coordinates":[-75.57403,6.275357],"crs":null},"properties":{"nombre":"Parada Cementerio Universal","linea":"O","sistema":"MPLUS"}},{"type":"Feature","geometry":{"type":"Point","coordinates":[-75.578337,6.273774],"crs":null},"properties":{"nombre":"Parada Barrio Cordoba Tranversal 78","linea":"O","sistema":"MPLUS"}},{"type":"Feature","geometry":{"type":"Point","coordinates":[-75.582597,6.273625],"crs":null},"properties":{"nombre":"Parada Barrio Pilarica CL 73 x CR 72A","linea":"O","sistema":"MPLUS"}},{"type":"Feature","geometry":{"type":"Point","coordinates":[-75.587526,6.27313],"crs":null},"properties":{"nombre":"Parada Ciudadela Universitaria","linea":"O","sistema":"MPLUS"}},{"type":"Feature","geometry":{"type":"Point","coordinates":[-75.593788,6.27215],"crs":null},"properties":{"nombre":"Parada Facultad de Minas","linea":"O","sistema":"MPLUS"}},{"type":"Feature","geometry":{"type":"Point","coordinates":[-75.595247,6.270109],"crs":null},"properties":{"nombre":"Parada Barrio los Colores AV 80 x CL 54","linea":"O","sistema":"MPLUS"}},{"type":"Feature","geometry":{"type":"Point","coordinates":[-75.596347,6.265198],"crs":null},"properties":{"nombre":"Parada Barrio Calazans","linea":"O","sistema":"MPLUS"}},{"type":"Feature","geometry":{"type":"Point","coordinates":[-75.597937,6.258128],"crs":null},"properties":{"nombre":"Parada Integracion Estación Floresta","linea":"O","sistema":"MPLUS"}},{"type":"Feature","geometry":{"type":"Point","coordinates":[-75.598813,6.254695],"crs":null},"properties":{"nombre":"Parada Barrio Los Pinos","linea":"O","sistema":"MPLUS"}},{"type":"Feature","geometry":{"type":"Point","coordinates":[-75.602625,6.246321],"crs":null},"properties":{"nombre":"Parada Barrio Laureles","linea":"O","sistema":"MPLUS"}},{"type":"Feature","geometry":{"type":"Point","coordinates":[-75.602984,6.240033],"crs":null},"properties":{"nombre":"Parada  Santa Gema","linea":"O","sistema":"MPLUS"}},{"type":"Feature","geometry":{"type":"Point","coordinates":[-75.602285,6.234919],"crs":null},"properties":{"nombre":"Parada Nueva Villa de Aburrá","linea":"O","sistema":"MPLUS"}},{"type":"Feature","geometry":{"type":"Point","coordinates":[-75.602218,6.232829],"crs":null},"properties":{"nombre":"Parada Integracion La Palma","linea":"O","sistema":"MPLUS"}},{"type":"Feature","geometry":{"type":"Point","coordinates":[-75.602101,6.232431],"crs":null},"properties":{"nombre":"Parada Integracion La Palma","linea":"O","sistema":"MPLUS"}},{"type":"Feature","geometry":{"type":"Point","coordinates":[-75.570362,6.277513],"crs":null},"properties":{"nombre":"Parada Caribe Buses CR 64","linea":"O","sistema":"MPLUS"}},{"type":"Feature","geometry":{"type":"Point","coordinates":[-75.60218,6.23537],"crs":null},"properties":{"nombre":"Parada  Nueva Villa de Aburrá","linea":"O","sistema":"MPLUS"}},{"type":"Feature","geometry":{"type":"Point","coordinates":[-75.602893,6.23973],"crs":null},"properties":{"nombre":"Parada Barrio Santa Gema","linea":"O","sistema":"MPLUS"}},{"type":"Feature","geometry":{"type":"Point","coordinates":[-75.602517,6.24631],"crs":null},"properties":{"nombre":"Parada Barrio Laureles","linea":"O","sistema":"MPLUS"}},{"type":"Feature","geometry":{"type":"Point","coordinates":[-75.598532,6.255032],"crs":null},"properties":{"nombre":"Parada Barrio Los Pinos","linea":"O","sistema":"MPLUS"}},{"type":"Feature","geometry":{"type":"Point","coordinates":[-75.59757,6.259211],"crs":null},"properties":{"nombre":"Parada Integracion Barrio Floresta","linea":"O","sistema":"MPLUS"}},{"type":"Feature","geometry":{"type":"Point","coordinates":[-75.596409,6.264466],"crs":null},"properties":{"nombre":"Parada Barrio Calazans","linea":"O","sistema":"MPLUS"}},{"type":"Feature","geometry":{"type":"Point","coordinates":[-75.595187,6.269905],"crs":null},"properties":{"nombre":"Parada Barrio los colores AV 80 x CL 54","linea":"O","sistema":"MPLUS"}},{"type":"Feature","geometry":{"type":"Point","coordinates":[-75.59215,6.273785],"crs":null},"properties":{"nombre":"Parada Facultad de Minas","linea":"O","sistema":"MPLUS"}},{"type":"Feature","geometry":{"type":"Point","coordinates":[-75.588582,6.273025],"crs":null},"properties":{"nombre":"Parada Ciudadela Universitaria","linea":"O","sistema":"MPLUS"}},{"type":"Feature","geometry":{"type":"Point","coordinates":[-75.582761,6.273552],"crs":null},"properties":{"nombre":"Parada Barrio Pilarica CL 73 x CR 72A","linea":"O","sistema":"MPLUS"}},{"type":"Feature","geometry":{"type":"Point","coordinates":[-75.57825,6.274111],"crs":null},"properties":{"nombre":"Parada Barrio Cordoba CR 67 x CL 78A","linea":"O","sistema":"MPLUS"}},{"type":"Feature","geometry":{"type":"Point","coordinates":[-75.573168,6.27685],"crs":null},"properties":{"nombre":"Parada Cementerio Universal CR 65","linea":"O","sistema":"MPLUS"}},{"type":"Feature","geometry":{"type":"Point","coordinates":[-75.567319,6.301883],"crs":null},"properties":{"nombre":"Estación Sena-Pedregal (Línea P)","linea":"P","sistema":"C"}}]}