{"type":"FeatureCollection","features":[{"type":"Feature","geometry":{"type":"LineString","coordinates":[[-75.569405,6.278327],[-75.569949,6.275905],[-75.570083,6.275594],[-75.570306,6.274641],[-75.571443,6.26944],[-75.572294,6.265877],[-75.572843,6.263758],[-75.573287,6.262423],[-75.57354,6.261836],[-75.574826,6.259179],[-75.57582,6.257267],[-75.577529,6.254169],[-75.577742,6.253861],[-75.578902,6.251835],[-75.579016,6.251682],[-75.579209,6.251531],[-75.579385,6.251457],[-75.579574,6.251427],[-75.579912,6.251484],[-75.580337,6.251727],[-75.581192,6.25235],[-75.581563,6.252555],[-75.582079,6.252758],[-75.582942,6.252984]],"crs":null},"properties":{"linea":"C","itinerario":"San Antonio - San Javier - San Antonio","sistema":"M"}},{"type":"Feature","geometry":{"type":"LineString","coordinates":[[-75.54097,6.338711],[-75.546034,6.33735],[-75.546723,6.337063],[-75.547386,6.336633],[-75.547667,6.336387],[-75.547963,6.336068],[-75.548679,6.335141],[-75.549229,6.334531],[-75.552502,6.331656],[-75.552881,6.331281],[-75.553163,6.330907],[-75.554582,6.32845],[-75.554821,6.327852],[-75.554971,6.327241],[-75.555586,6.323372],[-75.555696,6.322388],[-75.555687,6.32135],[-75.555366,6.31669],[-75.555262,6.3147],[-75.555303,6.313884],[-75.555452,6.313271],[-75.555657,6.312773],[-75.555954,6.312277],[-75.557008,6.31088],[-75.557402,6.310286],[-75.557623,6.309783],[-75.55774,6.309221],[-75.557758,6.308818],[-75.55773,6.308415],[-75.55726,6.304685],[-75.557244,6.304209],[-75.557274,6.303732],[-75.557356,6.303187],[-75.557477,6.302745],[-75.558196,6.300837],[-75.559078,6.298651],[-75.559252,6.298295],[-75.559668,6.297645],[-75.559939,6.297323],[-75.562331,6.294755],[-75.562688,6.294356],[-75.562913,6.294053],[-75.563111,6.293709],[-75.563272,6.293325],[-75.563643,6.291961],[-75.563883,6.291423],[-75.565336,6.289512],[-75.565657,6.288965],[-75.565778,6.288644],[-75.565856,6.288331],[-75.566145,6.286703],[-75.566379,6.286077],[-75.56661,6.285697],[-75.56688,6.285386],[-75.567835,6.284537],[-75.568135,6.284216],[-75.56839,6.28382],[-75.568608,6.283266],[-75.56871,6.282673],[-75.568772,6.281409],[-75.568852,6.280751],[-75.570464,6.273648],[-75.570511,6.273338],[-75.570532,6.272867],[-75.570495,6.272523],[-75.570358,6.272025],[-75.570141,6.271582],[-75.56985,6.271183],[-75.569451,6.270812],[-75.568983,6.27053],[-75.568346,6.270272],[-75.564482,6.268976],[-75.564017,6.268766],[-75.563729,6.268574],[-75.563495,6.268375],[-75.563216,6.268075],[-75.562966,6.267698],[-75.562856,6.267463],[-75.562726,6.267103],[-75.562654,6.266733],[-75.562629,6.266326],[-75.562663,6.265944],[-75.562869,6.265193],[-75.564595,6.260524],[-75.56507,6.259396],[-75.565695,6.258043],[-75.567503,6.253517],[-75.567643,6.253021],[-75.567758,6.251897],[-75.567913,6.251305],[-75.568704,6.249358],[-75.569345,6.248083],[-75.57058,6.2451],[-75.574955,6.233785],[-75.575124,6.233274],[-75.575292,6.232436],[-75.578209,6.21136],[-75.579854,6.199964],[-75.580092,6.19889],[-75.580343,6.198047],[-75.582201,6.192813],[-75.582936,6.189625],[-75.583225,6.188797],[-75.583395,6.18848],[-75.583675,6.188079],[-75.584211,6.187532],[-75.587896,6.184826],[-75.58845,6.184365],[-75.58894,6.183873],[-75.58927,6.183486],[-75.58961,6.183022],[-75.59235,6.178769],[-75.59306,6.177876],[-75.593748,6.177157],[-75.594704,6.176353],[-75.601174,6.17173],[-75.60157,6.171394],[-75.601914,6.171028],[-75.602311,6.17043],[-75.602584,6.169745],[-75.603483,6.165758],[-75.603641,6.16518],[-75.603777,6.16486],[-75.604,6.164482],[-75.604215,6.164212],[-75.604512,6.163927],[-75.604901,6.163656],[-75.605406,6.163417],[-75.608666,6.162256],[-75.609574,6.161877],[-75.610413,6.16134],[-75.611574,6.160359],[-75.61219,6.159922],[-75.61751,6.156978],[-75.618074,6.156713],[-75.618538,6.15654],[-75.62055,6.156023],[-75.621227,6.155758],[-75.621707,6.155499],[-75.623098,6.154622],[-75.624791,6.153624],[-75.627071,6.152406]],"crs":null},"properties":{"linea":"A","itinerario":"Niquia-La Estrella-Niquia","sistema":"M"}},{"type":"Feature","geometry":{"type":"LineString","coordinates":[[-75.569728,6.247202],[-75.577472,6.249866],[-75.577981,6.25012],[-75.578798,6.250629],[-75.581192,6.25235],[-75.581681,6.252609],[-75.582079,6.252758],[-75.583349,6.253073],[-75.584277,6.253214],[-75.589323,6.253361],[-75.58995,6.253424],[-75.59056,6.253616],[-75.590912,6.253803],[-75.591179,6.253993],[-75.59148,6.254275],[-75.59173,6.254586],[-75.591926,6.254916],[-75.592101,6.255308],[-75.592539,6.256465],[-75.592763,6.256851],[-75.593052,6.257214],[-75.593417,6.257536],[-75.593784,6.257763],[-75.594168,6.257925],[-75.594644,6.258059],[-75.600542,6.259307],[-75.60084,6.259353],[-75.601226,6.259366],[-75.601848,6.259275],[-75.602121,6.259189],[-75.602499,6.259017],[-75.603056,6.258634],[-75.604987,6.257102],[-75.605542,6.256701],[-75.606084,6.256417],[-75.60667,6.256258],[-75.607453,6.256187],[-75.611784,6.255982],[-75.612115,6.255997],[-75.612462,6.256073],[-75.612799,6.256216],[-75.614347,6.257236]],"crs":null},"properties":{"linea":"B","itinerario":"San Antonio - San Javier - San Antonio","sistema":"M"}},{"type":"Feature","geometry":{"type":"LineString","coordinates":[[-75.558308,6.300272],[-75.551897,6.296272],[-75.541727,6.293159]],"crs":null},"properties":{"linea":"K","itinerario":"Acevedo - Santo Domingo","sistema":"C"}},{"type":"Feature","geometry":{"type":"LineString","coordinates":[[-75.613412,6.25672],[-75.614203,6.281093]],"crs":null},"properties":{"linea":"J","itinerario":"San Javier - La Aurora","sistema":"C"}},{"type":"Feature","geometry":{"type":"LineString","coordinates":[[-75.541848,6.292723],[-75.502972,6.281546]],"crs":null},"properties":{"linea":"L","itinerario":"Santo Domingo - Arví","sistema":"C"}},{"type":"Feature","geometry":{"type":"LineString","coordinates":[[-75.549111,6.241725],[-75.541395,6.247615]],"crs":null},"properties":{"linea":"M","itinerario":"Miraflores -13 de Noviembre","sistema":"C"}},{"type":"Feature","geometry":{"type":"LineString","coordinates":[[-75.539937,6.233362],[-75.536372,6.236645],[-75.528679,6.234875]],"crs":null},"properties":{"linea":"H","itinerario":"Oriente - Villa Sierra","sistema":"C"}},{"type":"Feature","geometry":{"type":"LineString","coordinates":[[-75.558808,6.299549],[-75.582334,6.305999]],"crs":null},"properties":{"linea":"P","itinerario":"Acevedo - Picacho","sistema":"C"}},{"type":"Feature","geometry":{"type":"LineString","coordinates":[[-75.556659,6.2852],[-75.556676,6.284706],[-75.55663,6.284594],[-75.556544,6.284523],[-75.553757,6.284394],[-75.553129,6.28422],[-75.552955,6.284109],[-75.552878,6.283999],[-75.552837,6.283819],[-75.552905,6.283335],[-75.552967,6.282489],[-75.552898,6.282204],[-75.552663,6.281669],[-75.552617,6.281487],[-75.552678,6.281018],[-75.553227,6.278076],[-75.554983,6.268138],[-75.555529,6.263257],[-75.555636,6.262836],[-75.556055,6.261764],[-75.556157,6.261659],[-75.556301,6.261636],[-75.556403,6.261678],[-75.556712,6.261977],[-75.556893,6.262538],[-75.557022,6.262733],[-75.557196,6.26289],[-75.557404,6.262997],[-75.561617,6.263741],[-75.563186,6.26399],[-75.563763,6.264045],[-75.564283,6.263999],[-75.567358,6.264479],[-75.567475,6.264467],[-75.56757,6.264399],[-75.567609,6.264331],[-75.567749,6.263565],[-75.568074,6.26285],[-75.570074,6.259079],[-75.570268,6.258847],[-75.570716,6.25841],[-75.570835,6.258378],[-75.5712,6.258472],[-75.571388,6.258471],[-75.571465,6.258431],[-75.571952,6.257983],[-75.572064,6.257799],[-75.572224,6.257277],[-75.572363,6.257052],[-75.573853,6.255529],[-75.574716,6.254585],[-75.574846,6.254336],[-75.57492,6.254065],[-75.575109,6.251284],[-75.575428,6.242912],[-75.575385,6.241819],[-75.575471,6.24003],[-75.575626,6.239121],[-75.576033,6.237718],[-75.576238,6.237281],[-75.576934,6.236174],[-75.577295,6.23487],[-75.577246,6.234697],[-75.577147,6.234603],[-75.576683,6.234496],[-75.576535,6.23442],[-75.576393,6.234252],[-75.576344,6.234094],[-75.576351,6.233928],[-75.576739,6.232323],[-75.576654,6.23177],[-75.576643,6.231418],[-75.576657,6.231103],[-75.576753,6.230772],[-75.576774,6.229696],[-75.576751,6.229634],[-75.576681,6.229584],[-75.576558,6.229614],[-75.576519,6.229692],[-75.576495,6.230776],[-75.576568,6.231062],[-75.576588,6.231615],[-75.576646,6.231674],[-75.577038,6.231825],[-75.577549,6.231938],[-75.578062,6.231936],[-75.578867,6.231853],[-75.579798,6.23183],[-75.580667,6.231944],[-75.581609,6.231916],[-75.581819,6.231868],[-75.582326,6.231857],[-75.582574,6.231896],[-75.586037,6.231789],[-75.586265,6.231744],[-75.586895,6.231735],[-75.587137,6.231773],[-75.588874,6.231723],[-75.590018,6.231618],[-75.597365,6.231373],[-75.601953,6.231138],[-75.602889,6.231154],[-75.605766,6.231071],[-75.60674,6.231287],[-75.609433,6.231079],[-75.609554,6.231026],[-75.609592,6.230939],[-75.609552,6.230672],[-75.609494,6.230646],[-75.609225,6.230667]],"crs":null},"properties":{"linea":"1","itinerario":"Parque de Aranjuez - Universidad de Medellín","sistema":"MPLUS"}},{"type":"Feature","geometry":{"type":"LineString","coordinates":[[-75.609225,6.230667],[-75.608562,6.230725],[-75.608515,6.230774],[-75.60841,6.231057],[-75.608307,6.231129],[-75.606751,6.231253],[-75.605738,6.231022],[-75.605484,6.231011],[-75.602764,6.231108],[-75.601316,6.231091],[-75.598209,6.231283],[-75.593746,6.231454],[-75.590202,6.231559],[-75.589388,6.231505],[-75.587152,6.231563],[-75.586761,6.231613],[-75.582624,6.231682],[-75.582345,6.231732],[-75.580986,6.231731],[-75.578709,6.231813],[-75.578258,6.23188],[-75.577608,6.231887],[-75.577096,6.231793],[-75.576721,6.231648],[-75.576644,6.231577],[-75.576657,6.231103],[-75.576753,6.230772],[-75.576774,6.229696],[-75.576751,6.229634],[-75.576681,6.229584],[-75.576558,6.229614],[-75.576519,6.229692],[-75.576495,6.230776],[-75.576568,6.231062],[-75.576581,6.231657],[-75.576685,6.232113],[-75.576692,6.232365],[-75.576313,6.233965],[-75.576309,6.234079],[-75.576351,6.234245],[-75.576485,6.234427],[-75.576684,6.234535],[-75.577134,6.234643],[-75.577219,6.234735],[-75.577249,6.234856],[-75.576969,6.235942],[-75.57682,6.236253],[-75.576125,6.237343],[-75.575977,6.23767],[-75.575572,6.239017],[-75.575414,6.23988],[-75.57535,6.240842],[-75.575323,6.242107],[-75.575347,6.24249],[-75.575118,6.248951],[-75.574903,6.253146],[-75.574911,6.253852],[-75.574846,6.254229],[-75.574688,6.254578],[-75.573727,6.255567],[-75.57344,6.255796],[-75.573145,6.256091],[-75.572356,6.256913],[-75.572051,6.257088],[-75.571534,6.257242],[-75.570881,6.257866],[-75.570827,6.25799],[-75.570787,6.258229],[-75.570719,6.258354],[-75.570218,6.258849],[-75.569926,6.259234],[-75.567976,6.262944],[-75.567801,6.263223],[-75.567658,6.26353],[-75.567507,6.264292],[-75.567393,6.264415],[-75.567293,6.264434],[-75.56427,6.263954],[-75.562669,6.263778],[-75.56196,6.263757],[-75.560801,6.26356],[-75.560263,6.263401],[-75.559863,6.263336],[-75.559355,6.263312],[-75.557442,6.262977],[-75.557178,6.26284],[-75.557018,6.262684],[-75.556875,6.262424],[-75.556764,6.262002],[-75.556361,6.261589],[-75.556248,6.261537],[-75.556086,6.261561],[-75.555973,6.261674],[-75.555682,6.262426],[-75.555508,6.263025],[-75.554939,6.268129],[-75.554843,6.268736],[-75.554012,6.273307],[-75.552582,6.281516],[-75.552906,6.282378],[-75.552805,6.28384],[-75.552878,6.284058],[-75.55297,6.284163],[-75.553189,6.284268],[-75.553887,6.284442],[-75.555883,6.284537],[-75.555999,6.284568],[-75.556099,6.284684],[-75.556169,6.285101],[-75.556064,6.285612],[-75.556112,6.285709],[-75.556202,6.285763],[-75.556476,6.285782],[-75.556598,6.285716],[-75.556639,6.28562],[-75.556659,6.2852]],"crs":null},"properties":{"linea":"1","itinerario":"Universidad de Medellín - Parque de Aranjuez","sistema":"MPLUS"}},{"type":"Feature","geometry":{"type":"LineString","coordinates":[[-75.570362,6.277513],[-75.570764,6.275863],[-75.570884,6.275766],[-75.571453,6.27567],[-75.571646,6.275551],[-75.57185,6.275252],[-75.571994,6.274756],[-75.572032,6.274699],[-75.57214,6.274643],[-75.572275,6.274638],[-75.572474,6.274695],[-75.572575,6.274743],[-75.572644,6.274865],[-75.572473,6.275663],[-75.572392,6.275789],[-75.572071,6.276128],[-75.571944,6.276447],[-75.571961,6.276689],[-75.572066,6.276957],[-75.572208,6.277086],[-75.572394,6.277113],[-75.572567,6.277043],[-75.572701,6.276895],[-75.573008,6.275876],[-75.573109,6.275722],[-75.573216,6.275637],[-75.578994,6.27354],[-75.57925,6.273511],[-75.581353,6.273667],[-75.5819,6.273664],[-75.583191,6.27358],[-75.5836,6.273479],[-75.585123,6.272813],[-75.585578,6.272686],[-75.586076,6.272594],[-75.586424,6.272637],[-75.58765,6.273172],[-75.587905,6.27321],[-75.588242,6.27319],[-75.588605,6.27313],[-75.590345,6.272543],[-75.590944,6.272387],[-75.591103,6.272303],[-75.591238,6.272175],[-75.592421,6.270516],[-75.59255,6.270432],[-75.592758,6.270556],[-75.593928,6.271985],[-75.594423,6.272773],[-75.59445,6.272936],[-75.59441,6.273072],[-75.594284,6.273222],[-75.594083,6.273388],[-75.593797,6.273527],[-75.593621,6.273529],[-75.593451,6.273468],[-75.593293,6.273383],[-75.593234,6.273267],[-75.593242,6.273178],[-75.593419,6.272773],[-75.593716,6.272242],[-75.593891,6.272024],[-75.594875,6.271095],[-75.595063,6.270823],[-75.595143,6.270586],[-75.59661,6.264006],[-75.596695,6.263872],[-75.5969,6.263742],[-75.596981,6.263587],[-75.596958,6.263441],[-75.59685,6.263217],[-75.596836,6.263063],[-75.598546,6.255366],[-75.598629,6.255097],[-75.598769,6.254774],[-75.599093,6.254206],[-75.599475,6.253792],[-75.600048,6.253392],[-75.600957,6.252912],[-75.601298,6.25266],[-75.601493,6.252469],[-75.60179,6.25209],[-75.601989,6.251757],[-75.602191,6.251273],[-75.602282,6.250923],[-75.60242,6.249433],[-75.602803,6.243699],[-75.602824,6.243547],[-75.602966,6.243378],[-75.603014,6.24325],[-75.602976,6.243093],[-75.602841,6.242908],[-75.602812,6.242796],[-75.603021,6.239338],[-75.603075,6.23913],[-75.603279,6.238882],[-75.60332,6.238707],[-75.603297,6.238602],[-75.603163,6.238403],[-75.603111,6.238238],[-75.60314,6.237378],[-75.603087,6.237031],[-75.602928,6.23672],[-75.602448,6.236019],[-75.602327,6.235626],[-75.602292,6.235258],[-75.602184,6.231656],[-75.60223,6.23144],[-75.602403,6.231244],[-75.602446,6.231073],[-75.602415,6.230949],[-75.602358,6.230866],[-75.602283,6.230808],[-75.602138,6.230779],[-75.602003,6.230802],[-75.601883,6.230869],[-75.601811,6.23107],[-75.601854,6.231264],[-75.602006,6.231414],[-75.602068,6.231548],[-75.602101,6.232431]],"crs":null},"properties":{"linea":"O","itinerario":"Caribe - La Palma","sistema":"MPLUS"}},{"type":"Feature","geometry":{"type":"LineString","coordinates":[[-75.602101,6.232431],[-75.602196,6.235719],[-75.60226,6.235951],[-75.602353,6.236142],[-75.602768,6.236673],[-75.602918,6.236934],[-75.602999,6.237142],[-75.603033,6.237465],[-75.602958,6.238291],[-75.602745,6.238561],[-75.602693,6.238747],[-75.60273,6.238899],[-75.602893,6.239129],[-75.602923,6.239306],[-75.602758,6.242041],[-75.60268,6.242855],[-75.602639,6.242967],[-75.602523,6.243094],[-75.60249,6.24321],[-75.602518,6.24335],[-75.602666,6.243588],[-75.602642,6.244621],[-75.602202,6.250761],[-75.602081,6.251247],[-75.601898,6.251697],[-75.601477,6.252281],[-75.60098,6.252768],[-75.599945,6.253351],[-75.599296,6.253818],[-75.598815,6.254413],[-75.598532,6.255032],[-75.59757,6.259211],[-75.596753,6.262952],[-75.596677,6.263131],[-75.596451,6.263336],[-75.596381,6.263475],[-75.59638,6.263612],[-75.596484,6.263896],[-75.59648,6.264162],[-75.595067,6.270501],[-75.594879,6.270922],[-75.594665,6.271161],[-75.593651,6.272118],[-75.592836,6.273558],[-75.592677,6.273709],[-75.592482,6.273786],[-75.592296,6.273803],[-75.592008,6.273762],[-75.591918,6.273687],[-75.592085,6.27316],[-75.592099,6.272988],[-75.592053,6.272853],[-75.590664,6.272222],[-75.590554,6.272262],[-75.590458,6.272406],[-75.590368,6.272459],[-75.58878,6.27297],[-75.588068,6.273118],[-75.587768,6.273116],[-75.587605,6.273083],[-75.586411,6.272571],[-75.58609,6.272523],[-75.585165,6.27273],[-75.583741,6.273356],[-75.583487,6.273449],[-75.583153,6.273522],[-75.581363,6.2736],[-75.580966,6.27359],[-75.579576,6.273464],[-75.579061,6.273465],[-75.578732,6.273584],[-75.578528,6.273742],[-75.577841,6.274719],[-75.577409,6.275222],[-75.577058,6.275595],[-75.576497,6.276098],[-75.575355,6.277207],[-75.575246,6.277253],[-75.575107,6.277239],[-75.573598,6.276432],[-75.573432,6.276415],[-75.573337,6.276458],[-75.573252,6.27656],[-75.573024,6.277377],[-75.57286,6.277822],[-75.572805,6.277883],[-75.572709,6.27792],[-75.572568,6.277844],[-75.572513,6.277712],[-75.572855,6.276349],[-75.572857,6.276158],[-75.572801,6.275975],[-75.572731,6.275864],[-75.572558,6.275795],[-75.572368,6.275814],[-75.572109,6.276076],[-75.571952,6.276389],[-75.57195,6.276631],[-75.572028,6.276891],[-75.572055,6.277173],[-75.572011,6.278636],[-75.571748,6.280791],[-75.571715,6.280903],[-75.571632,6.280969],[-75.570579,6.280805],[-75.569757,6.280563],[-75.569645,6.280495],[-75.569558,6.280391],[-75.569567,6.280167],[-75.569919,6.279353],[-75.570362,6.277513]],"crs":null},"properties":{"linea":"O","itinerario":"La Palma - Caribe","sistema":"MPLUS"}},{"type":"Feature","geometry":{"type":"LineString","coordinates":[[-75.556659,6.2852],[-75.556676,6.284706],[-75.55663,6.284594],[-75.556544,6.284523],[-75.553757,6.284394],[-75.553129,6.28422],[-75.552955,6.284109],[-75.552878,6.283999],[-75.552837,6.283819],[-75.552905,6.283335],[-75.552967,6.282489],[-75.552898,6.282204],[-75.552663,6.281669],[-75.552617,6.281487],[-75.552678,6.281018],[-75.553227,6.278076],[-75.554983,6.268138],[-75.555529,6.263257],[-75.555575,6.263183],[-75.555642,6.263162],[-75.556525,6.263259],[-75.556572,6.263218],[-75.556625,6.263064],[-75.556768,6.262831],[-75.55689,6.262695],[-75.557108,6.26253],[-75.557271,6.262448],[-75.55749,6.26239],[-75.558097,6.26233],[-75.558321,6.262195],[-75.562734,6.255276],[-75.562802,6.255135],[-75.562792,6.254963],[-75.562459,6.254539],[-75.562347,6.254286],[-75.562304,6.254107],[-75.562297,6.253739],[-75.562396,6.253385],[-75.563531,6.251476],[-75.565001,6.248868],[-75.565794,6.247729],[-75.568003,6.244748],[-75.568284,6.244321],[-75.568767,6.243382],[-75.570184,6.239977],[-75.570366,6.239384],[-75.570411,6.239142],[-75.570466,6.238438],[-75.570325,6.235763],[-75.570197,6.234306],[-75.569946,6.23032],[-75.569778,6.228479],[-75.56978,6.22833],[-75.56987,6.228182],[-75.569948,6.228148],[-75.57006,6.228153],[-75.573329,6.230468],[-75.573872,6.230818],[-75.576116,6.231508],[-75.577142,6.231894],[-75.577364,6.231942],[-75.578062,6.231936],[-75.578867,6.231853],[-75.579798,6.23183],[-75.580667,6.231944],[-75.580909,6.231932],[-75.580975,6.231841],[-75.580945,6.231764],[-75.580886,6.231734],[-75.578709,6.231813],[-75.578258,6.23188],[-75.577608,6.231887],[-75.577196,6.231823],[-75.576721,6.231648],[-75.576644,6.231577],[-75.576643,6.231418],[-75.576657,6.231103],[-75.576753,6.230772],[-75.576774,6.229696],[-75.57672,6.229603],[-75.576615,6.229583],[-75.576558,6.229614],[-75.576519,6.229692],[-75.576495,6.230776],[-75.576568,6.231062],[-75.576588,6.231615],[-75.576645,6.231673],[-75.577038,6.231825],[-75.577549,6.231938],[-75.578062,6.231936],[-75.578867,6.231853],[-75.579798,6.23183],[-75.580667,6.231944],[-75.581609,6.231916],[-75.581819,6.231868],[-75.582326,6.231857],[-75.582574,6.231896],[-75.586037,6.231789],[-75.586265,6.231744],[-75.586895,6.231735],[-75.587137,6.231773],[-75.588874,6.231723],[-75.590018,6.231618],[-75.597365,6.231373],[-75.601953,6.231138],[-75.602889,6.231154],[-75.605766,6.231071],[-75.60674,6.231287],[-75.609433,6.231079],[-75.609554,6.231026],[-75.609592,6.230939],[-75.609552,6.230672],[-75.609494,6.230646],[-75.609225,6.230667]],"crs":null},"properties":{"linea":"2","itinerario":"Parque de Aranjuez - Universidad de Medellín","sistema":"MPLUS"}},{"type":"Feature","geometry":{"type":"LineString","coordinates":[[-75.609225,6.230667],[-75.608562,6.230725],[-75.608515,6.230774],[-75.60841,6.231057],[-75.608307,6.231129],[-75.606751,6.231253],[-75.605738,6.231022],[-75.605484,6.231011],[-75.602764,6.231108],[-75.601316,6.231091],[-75.598209,6.231283],[-75.593746,6.231454],[-75.590202,6.231559],[-75.589494,6.231504],[-75.587152,6.231563],[-75.586761,6.231613],[-75.582624,6.231682],[-75.582345,6.231732],[-75.580986,6.231731],[-75.578709,6.231813],[-75.578258,6.23188],[-75.577504,6.231879],[-75.577096,6.231793],[-75.576721,6.231648],[-75.576644,6.231577],[-75.576657,6.231103],[-75.576753,6.230772],[-75.576774,6.229696],[-75.576701,6.229592],[-75.576595,6.22959],[-75.576519,6.229692],[-75.576495,6.230776],[-75.576514,6.230846],[-75.576565,6.230888],[-75.576633,6.230899],[-75.576709,6.230864],[-75.576753,6.230772],[-75.57676,6.230409],[-75.576792,6.23034],[-75.57689,6.230258],[-75.576968,6.230258],[-75.577027,6.230295],[-75.577316,6.231376],[-75.577266,6.231567],[-75.57713,6.231657],[-75.577005,6.231659],[-75.576249,6.231477],[-75.574661,6.231017],[-75.573904,6.230765],[-75.573649,6.230606],[-75.571328,6.228864],[-75.569276,6.227399],[-75.569114,6.227368],[-75.569004,6.22738],[-75.568815,6.227485],[-75.568754,6.227574],[-75.568708,6.227728],[-75.568745,6.227966],[-75.568812,6.228113],[-75.568956,6.228308],[-75.569282,6.228468],[-75.569441,6.228649],[-75.569484,6.228762],[-75.569521,6.229063],[-75.569654,6.229335],[-75.569723,6.229748],[-75.570369,6.238285],[-75.57034,6.238948],[-75.570168,6.239709],[-75.568698,6.243214],[-75.568354,6.243922],[-75.567949,6.244583],[-75.56547,6.247896],[-75.564824,6.248822],[-75.562233,6.253425],[-75.562156,6.253725],[-75.562139,6.253932],[-75.562192,6.254366],[-75.562187,6.254621],[-75.562055,6.255023],[-75.558231,6.260886],[-75.558139,6.261138],[-75.557954,6.26195],[-75.557891,6.262011],[-75.557808,6.262037],[-75.557474,6.261995],[-75.5573,6.261907],[-75.557015,6.261605],[-75.556857,6.261503],[-75.556453,6.261433],[-75.556215,6.261478],[-75.55606,6.261574],[-75.555957,6.261706],[-75.555547,6.262831],[-75.554939,6.268129],[-75.554843,6.268736],[-75.554012,6.273307],[-75.552582,6.281516],[-75.552906,6.282378],[-75.552805,6.28384],[-75.552878,6.284058],[-75.55297,6.284163],[-75.553189,6.284268],[-75.553887,6.284442],[-75.555883,6.284537],[-75.555999,6.284568],[-75.556099,6.284684],[-75.556169,6.285101],[-75.556064,6.285612],[-75.556112,6.285709],[-75.556202,6.285763],[-75.556476,6.285782],[-75.556598,6.285716],[-75.556639,6.28562],[-75.556659,6.2852]],"crs":null},"properties":{"linea":"2","itinerario":"Universidad de Medellín - Parque de Aranjuez","sistema":"MPLUS"}},{"type":"Feature","geometry":{"type":"LineString","coordinates":[[-75.569157,6.246998],[-75.568428,6.246724],[-75.568284,6.246741],[-75.567344,6.248127],[-75.567255,6.248185],[-75.56713,6.248182],[-75.565004,6.247137],[-75.564652,6.246917],[-75.558488,6.243813],[-75.558122,6.243597],[-75.552223,6.240526],[-75.552035,6.240518],[-75.551882,6.240639],[-75.551064,6.242217],[-75.550987,6.24229],[-75.550913,6.242313],[-75.550783,6.242283],[-75.548538,6.241159],[-75.547909,6.241048],[-75.547081,6.240253],[-75.546917,6.240133],[-75.546684,6.240039],[-75.54559,6.239771],[-75.545389,6.239645],[-75.54525,6.239422],[-75.545121,6.23872],[-75.545045,6.238487],[-75.544043,6.23693],[-75.543743,6.236641],[-75.543103,6.236243],[-75.542427,6.235895],[-75.54209,6.235838],[-75.541938,6.235747],[-75.541568,6.235304],[-75.541513,6.235173],[-75.541543,6.235022],[-75.541808,6.234588],[-75.54182,6.234494],[-75.541786,6.234402],[-75.54014,6.23315]],"crs":null},"properties":{"linea":"T","itinerario":"San Antonio - Oriente","sistema":"T"}}]}