{"type":"FeatureCollection","features":[{"type":"Feature","properties":{"imperdible":"NO","cod_comuna":"15","cod":"AT001","nombre_sitio":"Aeroparque Parque Juan Pablo II","tipo_atractivo":"Parque temático y recreativo","direccion":"CR 70 No. 16 - 04","sitio_web":"https://aeroparquejuanpablo.gov.co/","nombre_comuna":"Guayabal","cod_barrio":"Inst_19","barrio":"Parque Juan Pablo II"},"geometry":{"type":"Point","coordinates":[-75.591675,6.22229]}},{"type":"Feature","properties":{"imperdible":"NO","cod_comuna":"15","cod":"AT002","nombre_sitio":"Aeropuerto Enrique Olaya Herrera","tipo_atractivo":"Aeropuerto de pasajeros","direccion":"CR 65 A No. 13 - 157","sitio_web":"https://www.aeropuertomedellin.co/","nombre_comuna":"Guayabal","cod_barrio":"Inst_19","barrio":"Parque Juan Pablo II"},"geometry":{"type":"Point","coordinates":[-75.589478,6.218872]}},{"type":"Feature","properties":{"imperdible":"NO","cod_comuna":"10","cod":"AT003","nombre_sitio":"Barrio Prado","tipo_atractivo":"Sector urbano o rural de interés","direccion":"CR 50 No. 62-99","nombre_comuna":"La Candelaria","cod_barrio":"1001","barrio":"Prado"},"geometry":{"type":"Point","coordinates":[-75.561829,6.259521]}},{"type":"Feature","properties":{"imperdible":"NO","cod_comuna":"10","cod":"AT004","nombre_sitio":"Basílica Menor Nuestra Señora de la Candelaria","tipo_atractivo":"Basílica","direccion":"CR 49 a No. 50 - 85","sitio_web":"https://arqmedellin.co/parroquias/nuestra-senora-de-la-candelaria/","nombre_comuna":"La Candelaria","cod_barrio":"1019","barrio":"La Candelaria"},"geometry":{"type":"Point","coordinates":[-75.567505,6.250122]}},{"type":"Feature","properties":{"imperdible":"NO","cod_comuna":"11","cod":"AT005","nombre_sitio":"Bulevar Libertadores de América","tipo_atractivo":"Sector urbano o rural de interés","direccion":"CR 70 entre la CL 47D y circular 1A","nombre_comuna":"Laureles Estadio","cod_barrio":"1117","barrio":"Florida Nueva"},"geometry":{"type":"Point","coordinates":[-75.588318,6.251282]}},{"type":"Feature","properties":{"imperdible":"NO","cod_comuna":"14","cod":"AT006","nombre_sitio":"Calle de la Buena Mesa","tipo_atractivo":"Sector urbano o rural de interés","direccion":"CR 43 b con CL 10 a","nombre_comuna":"El Poblado","cod_barrio":"1419","barrio":"Manila"},"geometry":{"type":"Point","coordinates":[-75.570679,6.21228]}},{"type":"Feature","properties":{"imperdible":"NO","cod_comuna":"10","cod":"AT007","nombre_sitio":"Casa de la Lectura Infantil","tipo_atractivo":"Sala múltiple","direccion":"CL 51 No. 45 - 57","sitio_web":"https://bibliotecasmedellin.gov.co/casa-de-la-lectura-infantil/","nombre_comuna":"La Candelaria","cod_barrio":"1019","barrio":"La Candelaria"},"geometry":{"type":"Point","coordinates":[-75.564209,6.248718]}},{"type":"Feature","properties":{"imperdible":"NO","cod_comuna":"07","cod":"AT008","nombre_sitio":"Casa de Música El Jordán","tipo_atractivo":"Otro","direccion":"CL 65 No. 84 - 17","sitio_web":"https://bibliotecasmedellin.gov.co/centro-de-documentacion-musical-el-jordan/","nombre_comuna":"Robledo","cod_barrio":"0717","barrio":"Robledo"},"geometry":{"type":"Point","coordinates":[-75.595276,6.275085]}},{"type":"Feature","properties":{"imperdible":"NO","cod_comuna":"04","cod":"AT009","nombre_sitio":"Casa Museo Maestro Pedro Nel Gómez","tipo_atractivo":"Museo","direccion":"CR 51 B No. 85-24","sitio_web":"https://museopedronelgomez.org/","nombre_comuna":"Aranjuez","cod_barrio":"0413","barrio":"Aranjuez"},"geometry":{"type":"Point","coordinates":[-75.5625,6.278503]}},{"type":"Feature","properties":{"imperdible":"SI","cod_comuna":"10","cod":"AT010","nombre_sitio":"Catedral Basílica Metropolitana de la Inmaculada Concepción de María","tipo_atractivo":"Catedral","direccion":"CR 48 No. 56 - 81","sitio_web":"https://arqmedellin.co/catedral-de-medellin/","nombre_comuna":"La Candelaria","cod_barrio":"1018","barrio":"Villa Nueva"},"geometry":{"type":"Point","coordinates":[-75.563782,6.254089]}},{"type":"Feature","properties":{"imperdible":"NO","cod_comuna":"10","cod":"AT011","nombre_sitio":"Cementerio San Lorenzo","tipo_atractivo":"Cementerio","direccion":"CL 43 No. 43-77","nombre_comuna":"La Candelaria","cod_barrio":"9001","barrio":"Las Palmas"},"geometry":{"type":"Point","coordinates":[-75.566101,6.241699]}},{"type":"Feature","properties":{"imperdible":"NO","cod_comuna":"10","cod":"AT012","nombre_sitio":"Centro Administrativo´José María Córdoba´","tipo_atractivo":"Centro administrativo","direccion":"CL 42 B No. 52 -106","nombre_comuna":"La Candelaria","cod_barrio":"Inst_17","barrio":"Centro Administrativo"},"geometry":{"type":"Point","coordinates":[-75.573486,6.244507]}},{"type":"Feature","properties":{"imperdible":"NO","cod_comuna":"10","cod":"AT013","nombre_sitio":"Centro Comercial Palacio Nacional","tipo_atractivo":"Edificación comercial","direccion":"CR 52 No. 48-45","nombre_comuna":"La Candelaria","cod_barrio":"1019","barrio":"La Candelaria"},"geometry":{"type":"Point","coordinates":[-75.570313,6.248901]}},{"type":"Feature","properties":{"imperdible":"NO","cod_comuna":"04","cod":"AT014","nombre_sitio":"Centro de Desarrollo Cultural de Moravia","tipo_atractivo":"Centro de formación cultural","direccion":"CL 82 A No. 52 - 25","sitio_web":"https://centroculturalmoravia.org/","nombre_comuna":"Aranjuez","cod_barrio":"0405","barrio":"Moravia"},"geometry":{"type":"Point","coordinates":[-75.564697,6.276489]}},{"type":"Feature","properties":{"imperdible":"NO","cod_comuna":"11","cod":"AT015","nombre_sitio":"Centro de Espectáculos La Macarena","tipo_atractivo":"Plaza de toros","direccion":"CR 63 No.44 a - 65","sitio_web":"https://www.medellin.travel/local/centro-de-espectaculos-la-macarena/","nombre_comuna":"Laureles Estadio","cod_barrio":"1103","barrio":"Naranjal"},"geometry":{"type":"Point","coordinates":[-75.580505,6.249695]}},{"type":"Feature","properties":{"imperdible":"NO","cod_comuna":"90","cod":"AT016","nombre_sitio":"Cerro Pan de Azúcar","tipo_atractivo":"Cerro","sitio_web":"https://www.medellin.gov.co/es/secretaria-medio-ambiente/medellin-biodiversa/cerro-pan-de-azucar/","nombre_comuna":"Corregimiento de Santa Elena","cod_barrio":"9003","barrio":"Piedras Blancas - Matasano"},"geometry":{"type":"Point","coordinates":[-75.535278,6.24707]}},{"type":"Feature","properties":{"imperdible":"NO","cod_comuna":"10","cod":"AT017","nombre_sitio":"Complejo Arquitectónico Claustro San Ignacio","tipo_atractivo":"Claustro","direccion":"CR 44 No. 48-18","nombre_comuna":"La Candelaria","cod_barrio":"1019","barrio":"La Candelaria"},"geometry":{"type":"Point","coordinates":[-75.564209,6.246277]}},{"type":"Feature","properties":{"imperdible":"NO","cod_comuna":"10","cod":"AT018","nombre_sitio":"Conjunto de Esculturas de Botero","tipo_atractivo":"Escultura","direccion":"CR 52 con CL 52","nombre_comuna":"La Candelaria","cod_barrio":"1019","barrio":"La Candelaria"},"geometry":{"type":"Point","coordinates":[-75.568176,6.252319]}},{"type":"Feature","properties":{"imperdible":"NO","cod_comuna":"60","cod":"AT019","nombre_sitio":"Ecoparque Cerro Picacho","tipo_atractivo":"Cerro","sitio_web":"https://www.medellin.gov.co/es/secretaria-medio-ambiente/medellin-biodiversa/cerro-el-picacho/","nombre_comuna":"Corregimiento de San Cristóbal","cod_barrio":"6011","barrio":"El Picacho"},"geometry":{"type":"Point","coordinates":[-75.588501,6.304077]}},{"type":"Feature","properties":{"imperdible":"NO","cod_comuna":"10","cod":"AT020","nombre_sitio":"Edificio Antigua Estación Medellín","tipo_atractivo":"Estación de ferrocarril","direccion":"CR 52 No. 43 – 31","sitio_web":"https://www.medellin.travel/antigua-estacion-del-ferrocarril-de-antioquia/","nombre_comuna":"La Candelaria","cod_barrio":"Inst_17","barrio":"Centro Administrativo"},"geometry":{"type":"Point","coordinates":[-75.571899,6.24469]}},{"type":"Feature","properties":{"imperdible":"NO","cod_comuna":"10","cod":"AT021","nombre_sitio":"Edificio Carré","tipo_atractivo":"Centro administrativo","direccion":"CR 52 No. 44 – 31","sitio_web":"https://www.medellin.travel/edificio-carre/","nombre_comuna":"La Candelaria","cod_barrio":"1007","barrio":"Guayaquil"},"geometry":{"type":"Point","coordinates":[-75.571228,6.245911]}},{"type":"Feature","properties":{"imperdible":"NO","cod_comuna":"10","cod":"AT022","nombre_sitio":"Edificio Coltejer","tipo_atractivo":"Edificación comercial","direccion":"CL 52 No. 47 - 42","sitio_web":"https://www.edificiocoltejerph.com.co/","nombre_comuna":"La Candelaria","cod_barrio":"1019","barrio":"La Candelaria"},"geometry":{"type":"Point","coordinates":[-75.565979,6.250122]}},{"type":"Feature","properties":{"imperdible":"NO","cod_comuna":"10","cod":"AT023","nombre_sitio":"Edificio Inteligente Empresas Públicas de Medellín","tipo_atractivo":"Otro","direccion":"CR 58 No. 42 - 125","nombre_comuna":"La Candelaria","cod_barrio":"Inst_16","barrio":"La Alpujarra"},"geometry":{"type":"Point","coordinates":[-75.577698,6.245483]}},{"type":"Feature","properties":{"imperdible":"NO","cod_comuna":"10","cod":"AT024","nombre_sitio":"Edificio Vásquez","tipo_atractivo":"Otro","direccion":"CR 52 No. 44 - 31","sitio_web":"https://www.medellin.travel/edificio-vasquez/","nombre_comuna":"La Candelaria","cod_barrio":"1007","barrio":"Guayaquil"},"geometry":{"type":"Point","coordinates":[-75.571411,6.245728]}},{"type":"Feature","properties":{"imperdible":"SI","cod_comuna":"13","cod":"AT025","nombre_sitio":"Escaleras Eléctricas Comuna 13","tipo_atractivo":"Sector urbano o rural de interés","direccion":"CR 110 No. 34 CC - 115","sitio_web":"https://www.medellin.travel/comuna-13/","nombre_comuna":"San Javier","cod_barrio":"1314","barrio":"Las Independencias"},"geometry":{"type":"Point","coordinates":[-75.621887,6.247925]}},{"type":"Feature","properties":{"imperdible":"NO","cod_comuna":"16","cod":"AT026","nombre_sitio":"Escultura Cacique Nutibara","tipo_atractivo":"Escultura","direccion":"CL 30 A No. 55 - 64","nombre_comuna":"Belén","cod_barrio":"Inst_18","barrio":"Cerro Nutibara"},"geometry":{"type":"Point","coordinates":[-75.579895,6.236511]}},{"type":"Feature","properties":{"imperdible":"NO","cod_comuna":"10","cod":"AT027","nombre_sitio":"Escultura La Gorda de Botero","tipo_atractivo":"Escultura","direccion":"CL 50 con CR 50","nombre_comuna":"La Candelaria","cod_barrio":"1019","barrio":"La Candelaria"},"geometry":{"type":"Point","coordinates":[-75.56781,6.249878]}},{"type":"Feature","properties":{"imperdible":"NO","cod_comuna":"10","cod":"AT028","nombre_sitio":"Estatua a Simón Bolívar","tipo_atractivo":"Estatua","direccion":"CL 54 con la CR 48","nombre_comuna":"La Candelaria","cod_barrio":"1018","barrio":"Villa Nueva"},"geometry":{"type":"Point","coordinates":[-75.564575,6.253113]}},{"type":"Feature","properties":{"imperdible":"NO","cod_comuna":"10","cod":"AT029","nombre_sitio":"Fuente Cacique de Nutibara","tipo_atractivo":"Fuente","direccion":"CR 51 CL 52 Plazuela Nutibara","nombre_comuna":"La Candelaria","cod_barrio":"1019","barrio":"La Candelaria"},"geometry":{"type":"Point","coordinates":[-75.567625,6.251766]}},{"type":"Feature","properties":{"imperdible":"NO","cod_comuna":"10","cod":"AT030","nombre_sitio":"Iglesia de San Antonio","tipo_atractivo":"Iglesia","direccion":"CR 48 No. 44 - 55","sitio_web":"https://arqmedellin.co/parroquias/san-antonio-de-padua/","nombre_comuna":"La Candelaria","cod_barrio":"1013","barrio":"Barrio Colón"},"geometry":{"type":"Point","coordinates":[-75.568909,6.244507]}},{"type":"Feature","properties":{"imperdible":"NO","cod_comuna":"10","cod":"AT031","nombre_sitio":"Iglesia Jesús de Nazareno","tipo_atractivo":"Iglesia","direccion":"CR 52 No. 61 - 30","sitio_web":"https://arqmedellin.co/parroquias/jesus-nazareno-2/","nombre_comuna":"La Candelaria","cod_barrio":"1003","barrio":"Jesús Nazareno"},"geometry":{"type":"Point","coordinates":[-75.566711,6.259888]}},{"type":"Feature","properties":{"imperdible":"NO","cod_comuna":"10","cod":"AT032","nombre_sitio":"Iglesia La Veracruz","tipo_atractivo":"Iglesia","direccion":"CL 52 No. 52 -18","sitio_web":"https://arqmedellin.co/parroquias/la-veracruz/","nombre_comuna":"La Candelaria","cod_barrio":"1019","barrio":"La Candelaria"},"geometry":{"type":"Point","coordinates":[-75.569519,6.251282]}},{"type":"Feature","properties":{"imperdible":"NO","cod_comuna":"14","cod":"AT033","nombre_sitio":"Iglesia San José de El Poblado","tipo_atractivo":"Iglesia","direccion":"CR 43A No. 9 - 30","sitio_web":"https://arqmedellin.co/parroquias/san-jose-centro/","nombre_comuna":"El Poblado","cod_barrio":"1418","barrio":"El Poblado"},"geometry":{"type":"Point","coordinates":[-75.570496,6.210083]}},{"type":"Feature","properties":{"imperdible":"SI","cod_comuna":"04","cod":"AT034","nombre_sitio":"Jardín Botánico Joaquín Antonio Uribe","tipo_atractivo":"Jardín botánico","direccion":"CL 73 No. 51 D 14","sitio_web":"https://www.medellin.travel/jardin-botanico/","nombre_comuna":"Aranjuez","cod_barrio":"Inst_10","barrio":"Jardín Botánico"},"geometry":{"type":"Point","coordinates":[-75.563721,6.270691]}},{"type":"Feature","properties":{"imperdible":"NO","cod_comuna":"04","cod":"AT035","nombre_sitio":"Jardín Morro de Moravia","tipo_atractivo":"Sector urbano o rural de interés","direccion":"CR 62 con CL 58b","sitio_web":"https://www.medellin.travel/moravia/","nombre_comuna":"Aranjuez","cod_barrio":"0405","barrio":"Moravia"},"geometry":{"type":"Point","coordinates":[-75.56781,6.277283]}},{"type":"Feature","properties":{"imperdible":"NO","cod_comuna":"14","cod":"AT036","nombre_sitio":"Milla de Oro","tipo_atractivo":"Avenida y calle","direccion":"CR 43A","sitio_web":"https://milladeoromedellin.com/","nombre_comuna":"El Poblado","cod_barrio":"1416","barrio":"Alejandría"},"geometry":{"type":"Point","coordinates":[-75.572205,6.200073]}},{"type":"Feature","properties":{"imperdible":"NO","cod_comuna":"15","cod":"AT037","nombre_sitio":"Monumento a Carlos Gardel","tipo_atractivo":"Monumento","direccion":" CR 65 A No. 13-157","nombre_comuna":"Guayabal","cod_barrio":"Inst_19","barrio":"Parque Juan Pablo II"},"geometry":{"type":"Point","coordinates":[-75.586792,6.218079]}},{"type":"Feature","properties":{"imperdible":"NO","cod_comuna":"10","cod":"AT038","nombre_sitio":"Monumento a la Raza","tipo_atractivo":"Monumento","direccion":"CL 44 No. 52 - 165","sitio_web":"https://www.medellin.travel/alpujarra-y-monumento-a-la-raza/","nombre_comuna":"La Candelaria","cod_barrio":"Inst_17","barrio":"Centro Administrativo"},"geometry":{"type":"Point","coordinates":[-75.573486,6.244324]}},{"type":"Feature","properties":{"imperdible":"NO","cod_comuna":"11","cod":"AT039","nombre_sitio":"Monumento a La Vida","tipo_atractivo":"Monumento","direccion":"CL 49 No 49-30","nombre_comuna":"Laureles Estadio","cod_barrio":"1102","barrio":"Suramericana"},"geometry":{"type":"Point","coordinates":[-75.578979,6.254517]}},{"type":"Feature","properties":{"imperdible":"NO","cod_comuna":"11","cod":"AT040","nombre_sitio":"Monumento a la Vida","tipo_atractivo":"Escultura","direccion":"CL 50 con CR 64B","nombre_comuna":"Laureles Estadio","cod_barrio":"1102","barrio":"Suramericana"},"geometry":{"type":"Point","coordinates":[-75.578979,6.254272]}},{"type":"Feature","properties":{"imperdible":"NO","cod_comuna":"15","cod":"AT041","nombre_sitio":"Monumento al Tango","tipo_atractivo":"Monumento","direccion":" CR 65 A No. 13-157","nombre_comuna":"Guayabal","cod_barrio":"Inst_19","barrio":"Parque Juan Pablo II"},"geometry":{"type":"Point","coordinates":[-75.586792,6.218079]}},{"type":"Feature","properties":{"imperdible":"NO","cod_comuna":"13","cod":"AT042","nombre_sitio":"Monumento El Pájaro","tipo_atractivo":"Monumento","direccion":"CL 44 No 50","nombre_comuna":"San Javier","cod_barrio":"1311","barrio":"Belencito"},"geometry":{"type":"Point","coordinates":[-75.617188,6.245483]}},{"type":"Feature","properties":{"imperdible":"NO","cod_comuna":"13","cod":"AT043","nombre_sitio":"Monumento Paloma de la Paz","tipo_atractivo":"Monumento","direccion":"CL 44 No 50","nombre_comuna":"San Javier","cod_barrio":"1311","barrio":"Belencito"},"geometry":{"type":"Point","coordinates":[-75.617188,6.245483]}},{"type":"Feature","properties":{"imperdible":"NO","cod_comuna":"10","cod":"AT044","nombre_sitio":"Museo al Aire Libre Acueducto del Siglo XIX","tipo_atractivo":"Sector urbano o rural de interés","direccion":"CL 51 con CR 52 y 55","nombre_comuna":"La Candelaria","cod_barrio":"1019","barrio":"La Candelaria"},"geometry":{"type":"Point","coordinates":[-75.569214,6.250916]}},{"type":"Feature","properties":{"imperdible":"SI","cod_comuna":"10","cod":"AT045","nombre_sitio":"Museo Casa de la Memoria","tipo_atractivo":"Museo","direccion":"CL 51 No. 36-66","sitio_web":"https://www.medellin.travel/casa-museo-pedro-nel-gomez/","nombre_comuna":"La Candelaria","cod_barrio":"1016","barrio":"Boston"},"geometry":{"type":"Point","coordinates":[-75.55658,6.245911]}},{"type":"Feature","properties":{"imperdible":"NO","cod_comuna":"03","cod":"AT046","nombre_sitio":"Museo Casa Gardeliana","tipo_atractivo":"Museo","direccion":"CR 45 No. 76 -50","sitio_web":"https://www.medellin.travel/casa-museo-gardeliana/","nombre_comuna":"Manrique","cod_barrio":"0303","barrio":"Campo Valdés No.2"},"geometry":{"type":"Point","coordinates":[-75.554687,6.26947]}},{"type":"Feature","properties":{"imperdible":"SI","cod_comuna":"04","cod":"AT047","nombre_sitio":"Museo Cementerio San Pedro","tipo_atractivo":"Museo","direccion":"CR 51 No. 68 - 68","sitio_web":"https://cementeriosanpedro.org.co/","nombre_comuna":"Aranjuez","cod_barrio":"0408","barrio":"San Pedro"},"geometry":{"type":"Point","coordinates":[-75.561401,6.265686]}},{"type":"Feature","properties":{"imperdible":"SI","cod_comuna":"10","cod":"AT048","nombre_sitio":"Museo de Antioquia","tipo_atractivo":"Museo","direccion":"CR 52 No. 52 - 43","sitio_web":"https://www.medellin.travel/museo-de-antioquia/","nombre_comuna":"La Candelaria","cod_barrio":"1019","barrio":"La Candelaria"},"geometry":{"type":"Point","coordinates":[-75.568909,6.252319]}},{"type":"Feature","properties":{"imperdible":"SI","cod_comuna":"14","cod":"AT049","nombre_sitio":"Museo de Arte Moderno de Medellín","tipo_atractivo":"Museo","direccion":" CR 44 No.19 A - 100","sitio_web":"https://www.elmamm.org/","nombre_comuna":"El Poblado","cod_barrio":"1403","barrio":"Villa Carlota"},"geometry":{"type":"Point","coordinates":[-75.574097,6.223511]}},{"type":"Feature","properties":{"imperdible":"NO","cod_comuna":"10","cod":"AT050","nombre_sitio":"Museo del Agua","tipo_atractivo":"Museo","direccion":"CR 57 No. 42-139","sitio_web":"https://www.grupo-epm.com/site/museodelagua/","nombre_comuna":"La Candelaria","cod_barrio":"Inst_16","barrio":"La Alpujarra"},"geometry":{"type":"Point","coordinates":[-75.576111,6.245117]}},{"type":"Feature","properties":{"imperdible":"SI","cod_comuna":"14","cod":"AT051","nombre_sitio":"Museo El Castillo","tipo_atractivo":"Museo","direccion":"CL 9 Sur No. 32 - 269","sitio_web":"https://www.museoelcastillo.org/","nombre_comuna":"El Poblado","cod_barrio":"1414","barrio":"El Castillo"},"geometry":{"type":"Point","coordinates":[-75.569397,6.190125]}},{"type":"Feature","properties":{"imperdible":"NO","cod_comuna":"13","cod":"AT052","nombre_sitio":"Museo Etnográfico Madre Laura","tipo_atractivo":"Museo","direccion":"CR 92 No. 34D - 21","sitio_web":"https://patrimoniomedellin.gov.co/proyectos/mdm/museos-de-medellin/museo-madre-laura/","nombre_comuna":"San Javier","cod_barrio":"1311","barrio":"Belencito"},"geometry":{"type":"Point","coordinates":[-75.617004,6.245728]}},{"type":"Feature","properties":{"imperdible":"NO","cod_comuna":"10","cod":"AT053","nombre_sitio":"Palacio de Bellas Artes","tipo_atractivo":"Centro de formación cultural","direccion":"CR 42 No. 52-08","nombre_comuna":"La Candelaria","cod_barrio":"1019","barrio":"La Candelaria"},"geometry":{"type":"Point","coordinates":[-75.56311,6.246887]}},{"type":"Feature","properties":{"imperdible":"NO","cod_comuna":"10","cod":"AT054","nombre_sitio":"Palacio de la Cultura Rafael Uribe Uribe","tipo_atractivo":"Otro","direccion":"CR 51 No. 52-03","sitio_web":"https://patrimoniomedellin.gov.co/proyectos/mdm/museos-de-medellin/palacio-de-la-cultura/","nombre_comuna":"La Candelaria","cod_barrio":"1019","barrio":"La Candelaria"},"geometry":{"type":"Point","coordinates":[-75.568298,6.251526]}},{"type":"Feature","properties":{"imperdible":"NO","cod_comuna":"14","cod":"AT055","nombre_sitio":"Parque Ambiental Bosques de La Frontera","tipo_atractivo":"Parque urbano","direccion":"CR 43 A con CL 18 sur","nombre_comuna":"El Poblado","cod_barrio":"1413","barrio":"El Diamante No.2"},"geometry":{"type":"Point","coordinates":[-75.576294,6.18512]}},{"type":"Feature","properties":{"imperdible":"NO","cod_comuna":"01","cod":"AT056","nombre_sitio":"Parque Biblioteca España","tipo_atractivo":"Biblioteca","direccion":"CR 33B No. 107A - 101","nombre_comuna":"Popular","cod_barrio":"0101","barrio":"Santo Domingo Savio No.1"},"geometry":{"type":"Point","coordinates":[-75.544128,6.294678]}},{"type":"Feature","properties":{"imperdible":"NO","cod_comuna":"10","cod":"AT057","nombre_sitio":"Parque de Berrío","tipo_atractivo":"Parque urbano","direccion":"CL 50 con CR 50","nombre_comuna":"La Candelaria","cod_barrio":"1019","barrio":"La Candelaria"},"geometry":{"type":"Point","coordinates":[-75.56781,6.249878]}},{"type":"Feature","properties":{"imperdible":"NO","cod_comuna":"10","cod":"AT058","nombre_sitio":"Parque de Bolívar","tipo_atractivo":"Parque urbano","direccion":"CL 54 con la CR 48","nombre_comuna":"La Candelaria","cod_barrio":"1018","barrio":"Villa Nueva"},"geometry":{"type":"Point","coordinates":[-75.564575,6.253113]}},{"type":"Feature","properties":{"imperdible":"NO","cod_comuna":"14","cod":"AT059","nombre_sitio":"Parque de El Poblado","tipo_atractivo":"Parque urbano","direccion":"CL 10 con CR 43A","nombre_comuna":"El Poblado","cod_barrio":"1420","barrio":"Astorga"},"geometry":{"type":"Point","coordinates":[-75.571106,6.210327]}},{"type":"Feature","properties":{"imperdible":"NO","cod_comuna":"04","cod":"AT060","nombre_sitio":"Parque de los Deseos","tipo_atractivo":"Parque urbano","direccion":"CL 73 con CR 52","sitio_web":"https://www.medellin.travel/parque-de-los-deseos-y-casa-de-la-musica/","nombre_comuna":"Aranjuez","cod_barrio":"0407","barrio":"Sevilla"},"geometry":{"type":"Point","coordinates":[-75.565979,6.268494]}},{"type":"Feature","properties":{"imperdible":"NO","cod_comuna":"10","cod":"AT061","nombre_sitio":"Parque de los Pies Descalzos","tipo_atractivo":"Parque urbano","direccion":"CR 58 No. 42-125","sitio_web":"https://www.medellin.travel/parque-de-los-pies-descalzos/","nombre_comuna":"La Candelaria","cod_barrio":"Inst_16","barrio":"La Alpujarra"},"geometry":{"type":"Point","coordinates":[-75.577087,6.24469]}},{"type":"Feature","properties":{"imperdible":"SI","cod_comuna":"04","cod":"AT062","nombre_sitio":"Parque Explora","tipo_atractivo":"Parque temático y recreativo","direccion":"CR 52 No. 73-75","sitio_web":"https://www.medellin.travel/parque-explora/?lang=en","nombre_comuna":"Aranjuez","cod_barrio":"Inst_9","barrio":"Parque Norte"},"geometry":{"type":"Point","coordinates":[-75.565613,6.270081]}},{"type":"Feature","properties":{"imperdible":"NO","cod_comuna":"14","cod":"AT063","nombre_sitio":"Parque Lineal La Presidenta","tipo_atractivo":"Parque urbano","direccion":"CR 43 A con CL 7 D","nombre_comuna":"El Poblado","cod_barrio":"1417","barrio":"La Florida"},"geometry":{"type":"Point","coordinates":[-75.570312,6.207886]}},{"type":"Feature","properties":{"imperdible":"NO","cod_comuna":"14","cod":"AT064","nombre_sitio":"Parque Lleras","tipo_atractivo":"Parque urbano","direccion":"CL 10 con carrerra 40","sitio_web":"https://www.medellin.travel/parque-lleras/","nombre_comuna":"El Poblado","cod_barrio":"1418","barrio":"El Poblado"},"geometry":{"type":"Point","coordinates":[-75.56781,6.209106]}},{"type":"Feature","properties":{"imperdible":"NO","cod_comuna":"07","cod":"AT065","nombre_sitio":"Parque Natural Metropolitano Cerro El Volador","tipo_atractivo":"Cerro","direccion":"CR 65 No. 67 - 51","sitio_web":"https://www.medellin.travel/parque-natural-cerro-el-volador/","nombre_comuna":"Robledo","cod_barrio":"Inst_7","barrio":"Ecoparque Cerro El Volador"},"geometry":{"type":"Point","coordinates":[-75.582825,6.269287]}},{"type":"Feature","properties":{"imperdible":"NO","cod_comuna":"16","cod":"AT066","nombre_sitio":"Parque Natural Metropolitano Cerro Nutibara","tipo_atractivo":"Cerro","direccion":"CL 30 A No. 55 - 64","sitio_web":"https://www.medellin.gov.co/es/secretaria-medio-ambiente/medellin-biodiversa/cerro-nutibara/","nombre_comuna":"Belén","cod_barrio":"Inst_18","barrio":"Cerro Nutibara"},"geometry":{"type":"Point","coordinates":[-75.579895,6.236511]}},{"type":"Feature","properties":{"imperdible":"NO","cod_comuna":"04","cod":"AT067","nombre_sitio":"Parque Norte J. Emilio Valderrama","tipo_atractivo":"Parque temático y recreativo","direccion":"CR 53 No. 76-115","sitio_web":"https://parquenorte.gov.co/","nombre_comuna":"Aranjuez","cod_barrio":"Inst_9","barrio":"Parque Norte"},"geometry":{"type":"Point","coordinates":[-75.568176,6.272705]}},{"type":"Feature","properties":{"imperdible":"SI","cod_comuna":"90","cod":"AT068","nombre_sitio":"Parque Regional Ecoturístico Arví","tipo_atractivo":"Áreas con declaratorias departamentales","sitio_web":"https://www.medellin.travel/medellin-arvi-park/?lang=en","nombre_comuna":"Corregimiento de Santa Elena","cod_barrio":"9003","barrio":"Piedras Blancas - Matasano"},"geometry":{"type":"Point","coordinates":[-75.510803,6.28949]}},{"type":"Feature","properties":{"imperdible":"SI","cod_comuna":"15","cod":"AT069","nombre_sitio":"Parque de la Conservación","tipo_atractivo":"Otro","direccion":"CR 52 No. 20 - 63","sitio_web":"https://www.parquedelaconservacion.com/","nombre_comuna":"Guayabal","cod_barrio":"1504","barrio":"Santa Fé"},"geometry":{"type":"Point","coordinates":[-75.57959,6.223328]}},{"type":"Feature","properties":{"imperdible":"NO","cod_comuna":"10","cod":"AT070","nombre_sitio":"Paseo Bolívar","tipo_atractivo":"Sector urbano o rural de interés","direccion":"CR 51 entre CL 44 y CL 53","nombre_comuna":"La Candelaria","cod_barrio":"1007","barrio":"Guayaquil"},"geometry":{"type":"Point","coordinates":[-75.570129,6.246277]}},{"type":"Feature","properties":{"imperdible":"NO","cod_comuna":"09","cod":"AT071","nombre_sitio":"Paseo Peatonal Ayacucho","tipo_atractivo":"Sector urbano o rural de interés","direccion":"CL 49 desde la Avenida Oriental y CR 29","nombre_comuna":"Buenos Aires","cod_barrio":"0907","barrio":"Buenos Aires"},"geometry":{"type":"Point","coordinates":[-75.556091,6.242493]}},{"type":"Feature","properties":{"imperdible":"NO","cod_comuna":"10","cod":"AT072","nombre_sitio":"Paseo Peatonal Carabobo","tipo_atractivo":"Sector urbano o rural de interés","direccion":"CR 52 entre las CLs 44 y 53","nombre_comuna":"La Candelaria","cod_barrio":"1019","barrio":"La Candelaria"},"geometry":{"type":"Point","coordinates":[-75.569275,6.251282]}},{"type":"Feature","properties":{"imperdible":"NO","cod_comuna":"10","cod":"AT073","nombre_sitio":"Paseo Peatonal de Junín","tipo_atractivo":"Sector urbano o rural de interés","direccion":"CR 49 con CLs 51 y 54","nombre_comuna":"La Candelaria","cod_barrio":"1019","barrio":"La Candelaria"},"geometry":{"type":"Point","coordinates":[-75.565491,6.251526]}},{"type":"Feature","properties":{"imperdible":"NO","cod_comuna":"14","cod":"AT074","nombre_sitio":"Paseo Provenza","tipo_atractivo":"Avenida y calle","direccion":"CR 35 entre las CLs 10 y 7","nombre_comuna":"El Poblado","cod_barrio":"1417","barrio":"La Florida"},"geometry":{"type":"Point","coordinates":[-75.565308,6.206909]}},{"type":"Feature","properties":{"imperdible":"NO","cod_comuna":"10","cod":"AT075","nombre_sitio":"Pequeño Teatro","tipo_atractivo":"Teatro","direccion":"CR 42 No. 50 A - 12","sitio_web":"https://www.pequenoteatro.com/","nombre_comuna":"La Candelaria","cod_barrio":"1016","barrio":"Boston"},"geometry":{"type":"Point","coordinates":[-75.561584,6.247498]}},{"type":"Feature","properties":{"imperdible":"NO","cod_comuna":"10","cod":"AT076","nombre_sitio":"Placita de Flórez","tipo_atractivo":"Plaza de mercado","direccion":"CR 39 No. 50 - 25","sitio_web":"https://www.medellin.gov.co/es/sala-de-prensa/noticias/cual-es-la-historia-de-la-placita-de-florez-en-medellin-y-su-relacion-con-los-silleteros/","nombre_comuna":"La Candelaria","cod_barrio":"1016","barrio":"Boston"},"geometry":{"type":"Point","coordinates":[-75.559692,6.246277]}},{"type":"Feature","properties":{"imperdible":"SI","cod_comuna":"04","cod":"AT077","nombre_sitio":"Planetario Municipal de Medellín Jesús Emilio Ramírez González","tipo_atractivo":"Planetario","direccion":"CR 52 No. 71 - 117","sitio_web":"https://www.planetariomedellin.org/quienes-somos","nombre_comuna":"Aranjuez","cod_barrio":"0407","barrio":"Sevilla"},"geometry":{"type":"Point","coordinates":[-75.565979,6.269104]}},{"type":"Feature","properties":{"imperdible":"SI","cod_comuna":"10","cod":"AT078","nombre_sitio":"Plaza Botero","tipo_atractivo":"Plaza","direccion":"CR 52 con CL 52","sitio_web":"https://www.medellin.travel/botero-square-of-medellin/?lang=en","nombre_comuna":"La Candelaria","cod_barrio":"1019","barrio":"La Candelaria"},"geometry":{"type":"Point","coordinates":[-75.568176,6.252319]}},{"type":"Feature","properties":{"imperdible":"NO","cod_comuna":"10","cod":"AT079","nombre_sitio":"Plaza Cisneros","tipo_atractivo":"Plaza","direccion":"CL 44 con CR 52","sitio_web":"https://www.centrodemedellin.co/ArticulosView.aspx?id=120","nombre_comuna":"La Candelaria","cod_barrio":"1007","barrio":"Guayaquil"},"geometry":{"type":"Point","coordinates":[-75.572327,6.246094]}},{"type":"Feature","properties":{"imperdible":"NO","cod_comuna":"15","cod":"AT080","nombre_sitio":"Plaza Gardel","tipo_atractivo":"Plaza","direccion":"CR 65 A No. 13-157","sitio_web":"https://gardelplaza.com/","nombre_comuna":"Guayabal","cod_barrio":"Inst_19","barrio":"Parque Juan Pablo II"},"geometry":{"type":"Point","coordinates":[-75.586792,6.218079]}},{"type":"Feature","properties":{"imperdible":"NO","cod_comuna":"10","cod":"AT081","nombre_sitio":"Plaza Mayor Medellín Convenciones y Exposiciones","tipo_atractivo":"Otro","direccion":"CL 41 No. 55-80","sitio_web":"https://www.medellin.travel/plaza-mayor-convenciones-y-exposiciones/","nombre_comuna":"La Candelaria","cod_barrio":"Inst_16","barrio":"La Alpujarra"},"geometry":{"type":"Point","coordinates":[-75.576416,6.243103]}},{"type":"Feature","properties":{"imperdible":"NO","cod_comuna":"10","cod":"AT082","nombre_sitio":"Plaza Minorista José María Villa","tipo_atractivo":"Plaza de mercado","direccion":"CL 55 A No. 57-80","sitio_web":"https://www.plazaminorista.com/sitio/inicio","nombre_comuna":"La Candelaria","cod_barrio":"1006","barrio":"San Benito"},"geometry":{"type":"Point","coordinates":[-75.572693,6.257324]}},{"type":"Feature","properties":{"imperdible":"NO","cod_comuna":"16","cod":"AT083","nombre_sitio":"Pueblito Paisa","tipo_atractivo":"Plaza","direccion":"CL 30 No. 55 - 64","sitio_web":"https://www.medellin.travel/pueblito-paisa-cerro-nutibara/","nombre_comuna":"Belén","cod_barrio":"Inst_18","barrio":"Cerro Nutibara"},"geometry":{"type":"Point","coordinates":[-75.5802,6.236084]}},{"type":"Feature","properties":{"imperdible":"NO","cod_comuna":"16","cod":"AT084","nombre_sitio":"Puente de Guayaquil","tipo_atractivo":"Otro","direccion":"Avenida Regional con la CR 51","nombre_comuna":"Belén","cod_barrio":"Inst_18","barrio":"Cerro Nutibara"},"geometry":{"type":"Point","coordinates":[-75.575684,6.233887]}},{"type":"Feature","properties":{"imperdible":"NO","cod_comuna":"13","cod":"AT085","nombre_sitio":"Santuario Santa Laura Montoya","tipo_atractivo":"Convento","direccion":"CR 92 No. 34D - 21","nombre_comuna":"San Javier","cod_barrio":"1311","barrio":"Belencito"},"geometry":{"type":"Point","coordinates":[-75.617004,6.245728]}},{"type":"Feature","properties":{"imperdible":"NO","cod_comuna":"10","cod":"AT086","nombre_sitio":"Teatro Lido","tipo_atractivo":"Teatro","direccion":"CR 48 No. 54 - 20","sitio_web":"https://www.medellin.travel/teatro-lido/","nombre_comuna":"La Candelaria","cod_barrio":"1018","barrio":"Villa Nueva"},"geometry":{"type":"Point","coordinates":[-75.564575,6.252319]}},{"type":"Feature","properties":{"imperdible":"NO","cod_comuna":"10","cod":"AT087","nombre_sitio":"Teatro Metropolitano de Medellín José Gutiérrez Gómez","tipo_atractivo":"Teatro","direccion":"CL 41 No. 57 - 30","sitio_web":"https://www.teatrometropolitano.com/","nombre_comuna":"La Candelaria","cod_barrio":"Inst_16","barrio":"La Alpujarra"},"geometry":{"type":"Point","coordinates":[-75.577576,6.243103]}},{"type":"Feature","properties":{"imperdible":"NO","cod_comuna":"10","cod":"AT088","nombre_sitio":"Teatro Pablo Tobón Uribe","tipo_atractivo":"Teatro","direccion":"CR 40 No. 51 - 24","sitio_web":"https://www.teatropablotobon.com/","nombre_comuna":"La Candelaria","cod_barrio":"1016","barrio":"Boston"},"geometry":{"type":"Point","coordinates":[-75.559204,6.247498]}},{"type":"Feature","properties":{"imperdible":"NO","cod_comuna":"10","cod":"AT089","nombre_sitio":"Teatro Prado el Águila Descalza","tipo_atractivo":"Teatro","direccion":"CR 45d No. 59 - 01","sitio_web":"https://www.aguiladescalza.com.co/","nombre_comuna":"La Candelaria","cod_barrio":"1017","barrio":"Los Ángeles"},"geometry":{"type":"Point","coordinates":[-75.560608,6.2547]}},{"type":"Feature","properties":{"imperdible":"NO","cod_comuna":"11","cod":"AT090","nombre_sitio":"Unidad Deportiva Atanasio Girardot","tipo_atractivo":"Otro","direccion":"Entre CRs 70 y 74 y CLs 48 y 50","sitio_web":"https://www.medellin.travel/unidad-deportiva-atanasio-girardot/","nombre_comuna":"Laureles Estadio","cod_barrio":"Inst_14","barrio":"U.D. Atanasio Girardot"},"geometry":{"type":"Point","coordinates":[-75.590027,6.256714]}},{"type":"Feature","properties":{"imperdible":"NO","cod_comuna":"16","cod":"AT091","nombre_sitio":"Unidad Deportiva de Belén Andrés Escobar Saldarriaga","tipo_atractivo":"Estadio","direccion":"CR 66 B No. 31 A - 15","sitio_web":"https://filmedellin.com/locaciones/unidad-deportiva-de-belen/","nombre_comuna":"Belén","cod_barrio":"1602","barrio":"Rosales"},"geometry":{"type":"Point","coordinates":[-75.587524,6.236084]}},{"type":"Feature","properties":{"imperdible":"NO","cod_comuna":"14","cod":"AT092","nombre_sitio":"Vía Primavera","tipo_atractivo":"Avenida y calle","direccion":"CR 37 No. 9 A","nombre_comuna":"El Poblado","cod_barrio":"1418","barrio":"El Poblado"},"geometry":{"type":"Point","coordinates":[-75.567078,6.20813]}}]}