{"type":"FeatureCollection","features":[{"type":"Feature","properties":{"nombre":"Casa Kiwi","tipo":"Hostal","web":"https://www.casakiwi.net/"},"geometry":{"type":"Point","coordinates":[-75.566154,6.206573]}},{"type":"Feature","properties":{"nombre":"Hotel Nutibara","tipo":"Hotel"},"geometry":{"type":"Point","coordinates":[-75.567272,6.252395]}},{"type":"Feature","properties":{"nombre":"Hotel Best Western Sky Medellín","tipo":"Hotel","estrellas":"4","web":"https://www.skymedellin.com/"},"geometry":{"type":"Point","coordinates":[-75.559449,6.208739]}},{"type":"Feature","properties":{"nombre":"Casa Hotel Laureles","tipo":"Hotel"},"geometry":{"type":"Point","coordinates":[-75.593243,6.244706]}},{"type":"Feature","properties":{"nombre":"ArtHotel","tipo":"Hotel"},"geometry":{"type":"Point","coordinates":[-75.56906,6.209435]}},{"type":"Feature","properties":{"nombre":"Casa Kleper","tipo":"Casa de huéspedes","estrellas":"1"},"geometry":{"type":"Point","coordinates":[-75.610275,6.262457]}},{"type":"Feature","properties":{"tipo":"Apartamento turístico"},"geometry":{"type":"Point","coordinates":[-75.595346,6.210963]}},{"type":"Feature","properties":{"nombre":"Hostal Lleras","tipo":"Casa de huéspedes"},"geometry":{"type":"Point","coordinates":[-75.567968,6.209388]}},{"type":"Feature","properties":{"nombre":"Hotel Sauces del Estadio","tipo":"Hotel","web":"https://www.hotelsaucesdelestadio.com/home.html"},"geometry":{"type":"Point","coordinates":[-75.585371,6.257398]}},{"type":"Feature","properties":{"nombre":"Sunshine","tipo":"Hostal"},"geometry":{"type":"Point","coordinates":[-75.572516,6.210631]}},{"type":"Feature","properties":{"nombre":"Calle 10","tipo":"Hostal"},"geometry":{"type":"Point","coordinates":[-75.572874,6.211403]}},{"type":"Feature","properties":{"nombre":"Hotel Leblón","tipo":"Hotel"},"geometry":{"type":"Point","coordinates":[-75.571404,6.201937]}},{"type":"Feature","properties":{"nombre":"Hotel San Fernando Plaza","tipo":"Hotel"},"geometry":{"type":"Point","coordinates":[-75.570902,6.20403]}},{"type":"Feature","properties":{"nombre":"Holiday Inn","tipo":"Hotel"},"geometry":{"type":"Point","coordinates":[-75.571678,6.201766]}},{"type":"Feature","properties":{"nombre":"Florencia Plaza","tipo":"Hotel","web":"https://www.hotelflorenciaplaza.com/"},"geometry":{"type":"Point","coordinates":[-75.569146,6.210496]}},{"type":"Feature","properties":{"nombre":"Tryp","tipo":"Hotel"},"geometry":{"type":"Point","coordinates":[-75.587953,6.260855]}},{"type":"Feature","properties":{"nombre":"574 Hotel","tipo":"Hostal","web":"http://www.grandhostelmedellin.com"},"geometry":{"type":"Point","coordinates":[-75.57494,6.208512]}},{"type":"Feature","properties":{"nombre":"Pitstop Guest House","tipo":"Hostal","web":"https://pitstophostel.com/"},"geometry":{"type":"Point","coordinates":[-75.573717,6.207546]}},{"type":"Feature","properties":{"nombre":"Hotel Boutique La Casa Medellin","tipo":"Hotel","web":"http://www.lacasamedellin.com/"},"geometry":{"type":"Point","coordinates":[-75.5664,6.20767]}},{"type":"Feature","properties":{"nombre":"Habitaestudios Tamaiti","tipo":"Hotel","web":"http://www.tamaiti.com"},"geometry":{"type":"Point","coordinates":[-75.609972,6.242555]}},{"type":"Feature","properties":{"nombre":"Samán Hostel","tipo":"Hostal"},"geometry":{"type":"Point","coordinates":[-75.566292,6.209062]}},{"type":"Feature","properties":{"nombre":"The Black Sheep Hostel","tipo":"Hostal","web":"https://www.blacksheepmedellin.com/"},"geometry":{"type":"Point","coordinates":[-75.575614,6.207546]}},{"type":"Feature","properties":{"nombre":"Loyds","tipo":"Hotel"},"geometry":{"type":"Point","coordinates":[-75.572575,6.208875]}},{"type":"Feature","properties":{"nombre":"GeoHostel","tipo":"Hostal"},"geometry":{"type":"Point","coordinates":[-75.565659,6.208254]}},{"type":"Feature","properties":{"nombre":"La Playa Hostel and Rooftop","tipo":"Hostal"},"geometry":{"type":"Point","coordinates":[-75.565724,6.206688]}},{"type":"Feature","properties":{"nombre":"Movie Hostel","tipo":"Hostal"},"geometry":{"type":"Point","coordinates":[-75.566552,6.208027]}},{"type":"Feature","properties":{"nombre":"Maloka","tipo":"Hostal"},"geometry":{"type":"Point","coordinates":[-75.565684,6.207086]}},{"type":"Feature","properties":{"nombre":"The wandering Paisa","tipo":"Hostal"},"geometry":{"type":"Point","coordinates":[-75.58707,6.24977]}},{"type":"Feature","properties":{"nombre":"Hotel Poblado Boutique Express","tipo":"Hotel"},"geometry":{"type":"Point","coordinates":[-75.565261,6.207467]}},{"type":"Feature","properties":{"nombre":"Yellow House Hostel","tipo":"Hostal"},"geometry":{"type":"Point","coordinates":[-75.599394,6.258322]}},{"type":"Feature","properties":{"nombre":"BlackPine","tipo":"Hostal"},"geometry":{"type":"Point","coordinates":[-75.576174,6.207875]}},{"type":"Feature","properties":{"nombre":"Purple Monkey Hostel","tipo":"Hostal","web":"https://www.purplemonkeyhostel.com/"},"geometry":{"type":"Point","coordinates":[-75.572406,6.213895]}},{"type":"Feature","properties":{"nombre":"Poblado Park Hostel","tipo":"Hostal"},"geometry":{"type":"Point","coordinates":[-75.571795,6.20935]}},{"type":"Feature","properties":{"nombre":"Mila Hostel","tipo":"Hostal"},"geometry":{"type":"Point","coordinates":[-75.571849,6.211589]}},{"type":"Feature","properties":{"nombre":"Almaviva Casa Hotel","tipo":"Hotel"},"geometry":{"type":"Point","coordinates":[-75.586671,6.252202]}},{"type":"Feature","properties":{"nombre":"Galeria Estacion","tipo":"Hostal"},"geometry":{"type":"Point","coordinates":[-75.572024,6.21361]}},{"type":"Feature","properties":{"nombre":"Bambú Glamping City House","tipo":"Hostal"},"geometry":{"type":"Point","coordinates":[-75.56395,6.205314]}},{"type":"Feature","properties":{"nombre":"The Garden of Blues","tipo":"Hostal"},"geometry":{"type":"Point","coordinates":[-75.564731,6.206556]}},{"type":"Feature","properties":{"nombre":"Hotel Portón de San Joaquín","tipo":"Hotel","web":"http://www.hotelportonsj.com"},"geometry":{"type":"Point","coordinates":[-75.587332,6.247203]}},{"type":"Feature","properties":{"nombre":"Waypoint Hostel","tipo":"Hostal"},"geometry":{"type":"Point","coordinates":[-75.579565,6.197101]}},{"type":"Feature","properties":{"nombre":"Oasis de los Bernal","tipo":"Hotel"},"geometry":{"type":"Point","coordinates":[-75.608776,6.219315]}},{"type":"Feature","properties":{"nombre":"casa blanca de los Laureles","tipo":"Hotel"},"geometry":{"type":"Point","coordinates":[-75.591442,6.247452]}},{"type":"Feature","properties":{"nombre":"Galería Hostel","tipo":"Hostal"},"geometry":{"type":"Point","coordinates":[-75.566179,6.206661]}},{"type":"Feature","properties":{"nombre":"Patio Bonito","tipo":"Hostal"},"geometry":{"type":"Point","coordinates":[-75.575756,6.208414]}},{"type":"Feature","properties":{"nombre":"Hotel Platino","tipo":"Hotel"},"geometry":{"type":"Point","coordinates":[-75.562588,6.250381]}},{"type":"Feature","properties":{"nombre":"Bambu Hostel","tipo":"Hostal"},"geometry":{"type":"Point","coordinates":[-75.563849,6.205704]}},{"type":"Feature","properties":{"nombre":"Hostal Lleras Calle 8","tipo":"Hostal"},"geometry":{"type":"Point","coordinates":[-75.5683,6.207664]}},{"type":"Feature","properties":{"nombre":"Hostal Lleras Calle 8 no2","tipo":"Hostal"},"geometry":{"type":"Point","coordinates":[-75.568201,6.207579]}},{"type":"Feature","properties":{"nombre":"Lleras Park Hostel","tipo":"Hostal"},"geometry":{"type":"Point","coordinates":[-75.56812,6.208577]}},{"type":"Feature","properties":{"nombre":"Hotel Casa Lleras","tipo":"Hotel"},"geometry":{"type":"Point","coordinates":[-75.568238,6.208489]}},{"type":"Feature","properties":{"nombre":"Hotel la Habana Vieja","tipo":"Hotel","estrellas":"3","web":"www.hotellahabanaviejamedellin.com"},"geometry":{"type":"Point","coordinates":[-75.576198,6.195169]}},{"type":"Feature","properties":{"nombre":"Hotel Conquistadores","tipo":"Hotel"},"geometry":{"type":"Point","coordinates":[-75.571775,6.250427]}},{"type":"Feature","properties":{"nombre":"Park 10 Hotel","tipo":"Hotel","web":"https://www.hotelpark10.com.co/"},"geometry":{"type":"Point","coordinates":[-75.565239,6.211904]}},{"type":"Feature","properties":{"nombre":"Hostel Casa Blanca","tipo":"Hostal","web":"http://casablancamedellin.com"},"geometry":{"type":"Point","coordinates":[-75.575834,6.208651]}},{"type":"Feature","properties":{"nombre":"H piedras blancas comfenalco","tipo":"Hotel"},"geometry":{"type":"Point","coordinates":[-75.501805,6.29669]}},{"type":"Feature","properties":{"nombre":"Hotel Lobby Park","tipo":"Hotel"},"geometry":{"type":"Point","coordinates":[-75.590425,6.245593]}},{"type":"Feature","properties":{"nombre":"Alameda de la 10","tipo":"Hotel","estrellas":"3"},"geometry":{"type":"Point","coordinates":[-75.574553,6.212575]}},{"type":"Feature","properties":{"nombre":"Hostal","tipo":"Hostal"},"geometry":{"type":"Point","coordinates":[-75.588083,6.236275]}},{"type":"Feature","properties":{"nombre":"Arcadia Hostel","tipo":"Hostal"},"geometry":{"type":"Point","coordinates":[-75.563634,6.211747]}},{"type":"Feature","properties":{"tipo":"Hotel"},"geometry":{"type":"Point","coordinates":[-75.565112,6.207189]}},{"type":"Feature","properties":{"nombre":"Calla'o el Loro Guest House","tipo":"Hostal"},"geometry":{"type":"Point","coordinates":[-75.601805,6.246916]}},{"type":"Feature","properties":{"nombre":"Vip 70","tipo":"Hotel"},"geometry":{"type":"Point","coordinates":[-75.589016,6.24768]}},{"type":"Feature","properties":{"nombre":"Puente Piedra","tipo":"Casa de huéspedes"},"geometry":{"type":"Point","coordinates":[-75.568318,6.204099]}},{"type":"Feature","properties":{"nombre":"Robledo Civiton","tipo":"Casa de huéspedes"},"geometry":{"type":"Point","coordinates":[-75.592308,6.284365]}},{"type":"Feature","properties":{"nombre":"Conjunto Residencial santillana","tipo":"Casa de huéspedes"},"geometry":{"type":"Point","coordinates":[-75.573551,6.201975]}},{"type":"Feature","properties":{"nombre":"Hostel Montañita","tipo":"Hostal"},"geometry":{"type":"Point","coordinates":[-75.571799,6.211173]}},{"type":"Feature","properties":{"nombre":"Chillin District Hostel","tipo":"Hostal"},"geometry":{"type":"Point","coordinates":[-75.563539,6.211728]}},{"type":"Feature","properties":{"tipo":"Hostal"},"geometry":{"type":"Point","coordinates":[-75.572957,6.213941]}},{"type":"Feature","properties":{"nombre":"montañita","tipo":"Hotel"},"geometry":{"type":"Point","coordinates":[-75.572126,6.211153]}},{"type":"Feature","properties":{"nombre":"Hotel Casona La 70","tipo":"Hotel"},"geometry":{"type":"Point","coordinates":[-75.587788,6.251365]}},{"type":"Feature","properties":{"nombre":"Hostal Los Patios","tipo":"Hotel"},"geometry":{"type":"Point","coordinates":[-75.572919,6.213022]}},{"type":"Feature","properties":{"nombre":"Hostal Casa Prado","tipo":"Hostal","web":"https://www.booking.com/hotel/co/hostal-casa-prado-medellin.es.html"},"geometry":{"type":"Point","coordinates":[-75.564298,6.25833]}},{"type":"Feature","properties":{"nombre":"Hostal Medellin","tipo":"Hostal"},"geometry":{"type":"Point","coordinates":[-75.58759,6.250303]}},{"type":"Feature","properties":{"nombre":"Casa Mary","tipo":"Hostal"},"geometry":{"type":"Point","coordinates":[-75.559983,6.271144]}},{"type":"Feature","properties":{"nombre":"Font Living","tipo":"Casa de huéspedes"},"geometry":{"type":"Point","coordinates":[-75.565472,6.216492]}},{"type":"Feature","properties":{"nombre":"URBANIZACIÓN VILLA LOMA","tipo":"Casa de huéspedes"},"geometry":{"type":"Point","coordinates":[-75.648365,6.183145]}},{"type":"Feature","properties":{"nombre":"San Esteban center","tipo":"Hotel","web":"https://hotelsanestebancenter.com/"},"geometry":{"type":"Point","coordinates":[-75.568108,6.251243]}},{"type":"Feature","properties":{"nombre":"Marthica","tipo":"Casa de huéspedes"},"geometry":{"type":"Point","coordinates":[-75.599045,6.206243]}},{"type":"Feature","properties":{"nombre":"35th Station Hostal & Bar","tipo":"Hostal"},"geometry":{"type":"Point","coordinates":[-75.565654,6.20717]}},{"type":"Feature","properties":{"nombre":"Airbnb","tipo":"Casa de huéspedes"},"geometry":{"type":"Point","coordinates":[-75.559077,6.258249]}},{"type":"Feature","properties":{"nombre":"Rango Boutique Hostel","tipo":"Hostal"},"geometry":{"type":"Point","coordinates":[-75.57033,6.208629]}},{"type":"Feature","properties":{"nombre":"Andres gil","tipo":"Hotel"},"geometry":{"type":"Point","coordinates":[-75.613762,6.259672]}},{"type":"Feature","properties":{"nombre":"Casa Paraíso Hostel","tipo":"Hostal"},"geometry":{"type":"Point","coordinates":[-75.587019,6.250334]}},{"type":"Feature","properties":{"nombre":"Hostal Cattleya","tipo":"Hostal","web":"https://hostal-cattleya.medellin-hotels.com"},"geometry":{"type":"Point","coordinates":[-75.587087,6.251076]}},{"type":"Feature","properties":{"nombre":"Terra Biohotel","tipo":"Hotel","web":"https://terrabiohotel.com/"},"geometry":{"type":"Point","coordinates":[-75.582531,6.240754]}},{"type":"Feature","properties":{"nombre":"Spa Hotel","tipo":"Hotel"},"geometry":{"type":"Point","coordinates":[-75.60033,6.250102]}},{"type":"Feature","properties":{"nombre":"Hostel Ondas","tipo":"Hostal"},"geometry":{"type":"Point","coordinates":[-75.599182,6.256354]}},{"type":"Feature","properties":{"nombre":"Hostels Colombia","tipo":"Hostal"},"geometry":{"type":"Point","coordinates":[-75.565283,6.207327]}},{"type":"Feature","properties":{"nombre":"U de antioquia Bed & Breakfast","tipo":"Casa de huéspedes"},"geometry":{"type":"Point","coordinates":[-75.568582,6.261554]}},{"type":"Feature","properties":{"nombre":"Selina Medellin Hostel","tipo":"Hostal","web":"https://www.hostelworld.com/"},"geometry":{"type":"Point","coordinates":[-75.564226,6.207691]}},{"type":"Feature","properties":{"nombre":"Be Okay Hostel","tipo":"Hostal"},"geometry":{"type":"Point","coordinates":[-75.572763,6.214083]}},{"type":"Feature","properties":{"tipo":"Hotel"},"geometry":{"type":"Point","coordinates":[-75.563776,6.20565]}},{"type":"Feature","properties":{"tipo":"Hostal"},"geometry":{"type":"Point","coordinates":[-75.565153,6.207368]}},{"type":"Feature","properties":{"nombre":"Alexandra","tipo":"Casa de huéspedes"},"geometry":{"type":"Point","coordinates":[-75.595573,6.252767]}},{"type":"Feature","properties":{"tipo":"Hostal"},"geometry":{"type":"Point","coordinates":[-75.564258,6.204523]}},{"type":"Feature","properties":{"tipo":"Casa de huéspedes"},"geometry":{"type":"Point","coordinates":[-75.598197,6.245665]}},{"type":"Feature","properties":{"nombre":"Hôtel Milan","tipo":"Hotel"},"geometry":{"type":"Point","coordinates":[-75.565147,6.253166]}},{"type":"Feature","properties":{"nombre":"Hotel kong","tipo":"Hotel"},"geometry":{"type":"Point","coordinates":[-75.560945,6.251254]}},{"type":"Feature","properties":{"nombre":"Rosaines","tipo":"Hotel"},"geometry":{"type":"Point","coordinates":[-75.585919,6.21537]}},{"type":"Feature","properties":{"nombre":"El Atelier Urban Gallery","tipo":"Hostal"},"geometry":{"type":"Point","coordinates":[-75.562723,6.247642]}},{"type":"Feature","properties":{"nombre":"Ananda Hostel","tipo":"Hostal"},"geometry":{"type":"Point","coordinates":[-75.594986,6.254617]}},{"type":"Feature","properties":{"nombre":"Tamarindo","tipo":"Hostal"},"geometry":{"type":"Point","coordinates":[-75.56581,6.206412]}},{"type":"Feature","properties":{"nombre":"Lleras","tipo":"Apartamento turístico"},"geometry":{"type":"Point","coordinates":[-75.579397,6.214102]}},{"type":"Feature","properties":{"nombre":"Alex Huicho","tipo":"Apartamento turístico"},"geometry":{"type":"Point","coordinates":[-75.568072,6.209241]}},{"type":"Feature","properties":{"nombre":"Hogar","tipo":"Apartamento turístico"},"geometry":{"type":"Point","coordinates":[-75.560056,6.25181]}},{"type":"Feature","properties":{"nombre":"Blink Hostel","tipo":"Hostal"},"geometry":{"type":"Point","coordinates":[-75.572483,6.213939]}},{"type":"Feature","properties":{"nombre":"Pixelhouse Hostel","tipo":"Hostal","web":"www.pixelhouse.com.co"},"geometry":{"type":"Point","coordinates":[-75.579931,6.196486]}},{"type":"Feature","properties":{"nombre":"urb. edificios del futuro","tipo":"Casa de huéspedes"},"geometry":{"type":"Point","coordinates":[-75.575407,6.205648]}},{"type":"Feature","properties":{"tipo":"Apartamento turístico"},"geometry":{"type":"Point","coordinates":[-75.568462,6.212508]}},{"type":"Feature","properties":{"nombre":"El Alternativo Hostel y Café Cultural","tipo":"Hostal"},"geometry":{"type":"Point","coordinates":[-75.572911,6.213587]}},{"type":"Feature","properties":{"nombre":"Aqua Hostel","tipo":"Hostal"},"geometry":{"type":"Point","coordinates":[-75.572362,6.211386]}},{"type":"Feature","properties":{"nombre":"Hotel El Colombiano","tipo":"Hotel"},"geometry":{"type":"Point","coordinates":[-75.566815,6.254692]}},{"type":"Feature","properties":{"nombre":"Hotel Luxury 33","tipo":"Hotel"},"geometry":{"type":"Point","coordinates":[-75.589027,6.239055]}},{"type":"Feature","properties":{"tipo":"Hostal"},"geometry":{"type":"Point","coordinates":[-75.578269,6.226623]}},{"type":"Feature","properties":{"tipo":"Apartamento turístico"},"geometry":{"type":"Point","coordinates":[-75.585255,6.210382]}},{"type":"Feature","properties":{"nombre":"Urbanizacion Altos del Castillo 1","tipo":"Casa de huéspedes"},"geometry":{"type":"Point","coordinates":[-75.612609,6.234761]}},{"type":"Feature","properties":{"nombre":"Urbanizacion Quintas de Los Alpes","tipo":"Casa de huéspedes"},"geometry":{"type":"Point","coordinates":[-75.608753,6.234672]}},{"type":"Feature","properties":{"nombre":"Colegio Francisco Javier","tipo":"Hostal"},"geometry":{"type":"Point","coordinates":[-75.595917,6.221241]}},{"type":"Feature","properties":{"nombre":"Urbanizacion Tierralta 2","tipo":"Casa de huéspedes"},"geometry":{"type":"Point","coordinates":[-75.604212,6.229234]}},{"type":"Feature","properties":{"nombre":"Urbanizacion Altos del Castillo 2","tipo":"Casa de huéspedes"},"geometry":{"type":"Point","coordinates":[-75.615996,6.234645]}},{"type":"Feature","properties":{"nombre":"Urbanizacion Plaza Vicuña","tipo":"Casa de huéspedes"},"geometry":{"type":"Point","coordinates":[-75.605284,6.232787]}},{"type":"Feature","properties":{"nombre":"Residencial Atavanza","tipo":"Apartamento turístico"},"geometry":{"type":"Point","coordinates":[-75.604281,6.20317]}},{"type":"Feature","properties":{"nombre":"Villa Jardín 3","tipo":"Apartamento turístico"},"geometry":{"type":"Point","coordinates":[-75.581859,6.189358]}},{"type":"Feature","properties":{"nombre":"Casa con grietas","tipo":"Casa de huéspedes"},"geometry":{"type":"Point","coordinates":[-75.541837,6.262595]}},{"type":"Feature","properties":{"nombre":"Casa (riesdo de inundacion)","tipo":"Casa de huéspedes"},"geometry":{"type":"Point","coordinates":[-75.541824,6.262427]}},{"type":"Feature","properties":{"nombre":"Casa (acumulacion de basura)","tipo":"Casa de huéspedes"},"geometry":{"type":"Point","coordinates":[-75.541833,6.262537]}},{"type":"Feature","properties":{"tipo":"Casa de huéspedes"},"geometry":{"type":"Point","coordinates":[-75.541698,6.262896]}},{"type":"Feature","properties":{"nombre":"Casa","tipo":"Casa de huéspedes"},"geometry":{"type":"Point","coordinates":[-75.54159,6.262819]}},{"type":"Feature","properties":{"nombre":"Casa (alcantarilla destapada)","tipo":"Casa de huéspedes"},"geometry":{"type":"Point","coordinates":[-75.541526,6.262836]}},{"type":"Feature","properties":{"nombre":"Urbanización Almendros de la 80","tipo":"Apartamento turístico"},"geometry":{"type":"Point","coordinates":[-75.592436,6.270827]}},{"type":"Feature","properties":{"nombre":"Casa de Ciclistas","tipo":"Casa de huéspedes","web":"https//www.ciclocampeon.com"},"geometry":{"type":"Point","coordinates":[-75.666292,6.203614]}},{"type":"Feature","properties":{"nombre":"Casa medellin","tipo":"Apartamento turístico"},"geometry":{"type":"Point","coordinates":[-75.603929,6.25844]}},{"type":"Feature","properties":{"nombre":"Casa Articulada Hostal","tipo":"Hostal"},"geometry":{"type":"Point","coordinates":[-75.595798,6.237269]}},{"type":"Feature","properties":{"nombre":"Albaka Hostel","tipo":"Hostal"},"geometry":{"type":"Point","coordinates":[-75.573718,6.213257]}},{"type":"Feature","properties":{"nombre":"Cerezos de Calasanz","tipo":"Apartamento turístico"},"geometry":{"type":"Point","coordinates":[-75.603105,6.271211]}},{"type":"Feature","properties":{"nombre":"Tania","tipo":"Casa de huéspedes"},"geometry":{"type":"Point","coordinates":[-75.548564,6.243889]}},{"type":"Feature","properties":{"nombre":"Casa Eli","tipo":"Casa de huéspedes"},"geometry":{"type":"Point","coordinates":[-75.586985,6.2461]}},{"type":"Feature","properties":{"nombre":"Hostal del Prado","tipo":"Hostal"},"geometry":{"type":"Point","coordinates":[-75.566034,6.257947]}},{"type":"Feature","properties":{"nombre":"Hostal Plaza","tipo":"Hostal"},"geometry":{"type":"Point","coordinates":[-75.570224,6.257955]}},{"type":"Feature","properties":{"nombre":"citté","tipo":"Apartamento turístico"},"geometry":{"type":"Point","coordinates":[-75.56123,6.225601]}},{"type":"Feature","properties":{"nombre":"Madre","tipo":"Apartamento turístico"},"geometry":{"type":"Point","coordinates":[-75.584723,6.255198]}},{"type":"Feature","properties":{"nombre":"Arcadia Hostel","tipo":"Hostal","web":"http://www.arcadiahostelmedellin.com"},"geometry":{"type":"Point","coordinates":[-75.563683,6.211673]}},{"type":"Feature","properties":{"nombre":"Casa Ram","tipo":"Hostal"},"geometry":{"type":"Point","coordinates":[-75.569106,6.2114]}},{"type":"Feature","properties":{"nombre":"Hotel Punto Dos","tipo":"Hotel"},"geometry":{"type":"Point","coordinates":[-75.562004,6.248808]}},{"type":"Feature","properties":{"nombre":"Nomad hostel","tipo":"Hostal","web":"https://www.nomadhostel.co/"},"geometry":{"type":"Point","coordinates":[-75.561618,6.258485]}},{"type":"Feature","properties":{"nombre":"Experience B&B Estadio","tipo":"Hostal","web":"http://experiencelatam.travel"},"geometry":{"type":"Point","coordinates":[-75.590544,6.253279]}},{"type":"Feature","properties":{"nombre":"Hostel Monet's poblado","tipo":"Hotel"},"geometry":{"type":"Point","coordinates":[-75.566291,6.197853]}},{"type":"Feature","properties":{"tipo":"Hostal"},"geometry":{"type":"Point","coordinates":[-75.561533,6.258404]}},{"type":"Feature","properties":{"nombre":"Lenin House","tipo":"Hostal"},"geometry":{"type":"Point","coordinates":[-75.583613,6.205637]}},{"type":"Feature","properties":{"nombre":"The Kings and the Queens","tipo":"Hostal"},"geometry":{"type":"Point","coordinates":[-75.573005,6.21401]}},{"type":"Feature","properties":{"nombre":"Hotel Plaza Caracas","tipo":"Hotel"},"geometry":{"type":"Point","coordinates":[-75.562535,6.250625]}},{"type":"Feature","properties":{"nombre":"Hotel Casa Linda","tipo":"Hotel"},"geometry":{"type":"Point","coordinates":[-75.564298,6.24786]}},{"type":"Feature","properties":{"nombre":"Gran Hotel","tipo":"Hotel"},"geometry":{"type":"Point","coordinates":[-75.563105,6.251142]}},{"type":"Feature","properties":{"nombre":"Lion House Medellin","tipo":"Apartamento turístico","web":"https://sites.google.com/inverissla.com/lionexpeditions/accommodation"},"geometry":{"type":"Point","coordinates":[-75.552921,6.244873]}},{"type":"Feature","properties":{"nombre":"Edificio Torre San Ignacio","tipo":"Apartamento turístico"},"geometry":{"type":"Point","coordinates":[-75.565215,6.245029]}},{"type":"Feature","properties":{"nombre":"Casa Otrabanda","tipo":"Casa de huéspedes"},"geometry":{"type":"Point","coordinates":[-75.579729,6.257997]}},{"type":"Feature","properties":{"nombre":"Hotel 47","tipo":"Hotel"},"geometry":{"type":"Point","coordinates":[-75.566551,6.245859]}},{"type":"Feature","properties":{"nombre":"61Prado Guesthouse","tipo":"Hotel"},"geometry":{"type":"Point","coordinates":[-75.563941,6.258836]}},{"type":"Feature","properties":{"nombre":"Tierra primaveral","tipo":"Hostal"},"geometry":{"type":"Point","coordinates":[-75.566685,6.208962]}},{"type":"Feature","properties":{"nombre":"Guadarrama 1","tipo":"Apartamento turístico"},"geometry":{"type":"Point","coordinates":[-75.612327,6.242512]}},{"type":"Feature","properties":{"tipo":"Hostal"},"geometry":{"type":"Point","coordinates":[-75.561582,6.258517]}},{"type":"Feature","properties":{"nombre":"Edificio Sao Paulo","tipo":"Apartamento turístico"},"geometry":{"type":"Point","coordinates":[-75.579956,6.185592]}},{"type":"Feature","properties":{"nombre":"Panela Hostel","tipo":"Hostal"},"geometry":{"type":"Point","coordinates":[-75.57159,6.209765]}},{"type":"Feature","properties":{"nombre":"Panela Hostel","tipo":"Hostal"},"geometry":{"type":"Point","coordinates":[-75.572032,6.210395]}},{"type":"Feature","properties":{"nombre":"4U Hostal","tipo":"Hostal"},"geometry":{"type":"Point","coordinates":[-75.59709,6.249795]}},{"type":"Feature","properties":{"tipo":"Hostal"},"geometry":{"type":"Point","coordinates":[-75.5647,6.264385]}},{"type":"Feature","properties":{"nombre":"Hostal Casa en el Cuelo","tipo":"Hostal"},"geometry":{"type":"Point","coordinates":[-75.60223,6.23785]}},{"type":"Feature","properties":{"nombre":"Guayabalia","tipo":"Apartamento turístico"},"geometry":{"type":"Point","coordinates":[-75.595181,6.198012]}},{"type":"Feature","properties":{"nombre":"Hostel Medellín Salsa","tipo":"Hostal"},"geometry":{"type":"Point","coordinates":[-75.564664,6.264413]}},{"type":"Feature","properties":{"nombre":"Zadquiel","tipo":"Apartamento turístico"},"geometry":{"type":"Point","coordinates":[-75.582368,6.221011]}},{"type":"Feature","properties":{"nombre":"Edificio San José","tipo":"Apartamento turístico"},"geometry":{"type":"Point","coordinates":[-75.599799,6.240239]}},{"type":"Feature","properties":{"nombre":"Hostel Medellin Salsa","tipo":"Hostal"},"geometry":{"type":"Point","coordinates":[-75.56469,6.26435]}},{"type":"Feature","properties":{"nombre":"San felipe","tipo":"Apartamento turístico"},"geometry":{"type":"Point","coordinates":[-75.591748,6.244867]}},{"type":"Feature","properties":{"nombre":"Poblado De Lomalinde","tipo":"Apartamento turístico"},"geometry":{"type":"Point","coordinates":[-75.563691,6.213063]}},{"type":"Feature","properties":{"nombre":"Hostal Casa en el Cielo","tipo":"Casa de huéspedes"},"geometry":{"type":"Point","coordinates":[-75.602231,6.237932]}},{"type":"Feature","properties":{"nombre":"Amazonia","tipo":"Hostal"},"geometry":{"type":"Point","coordinates":[-75.571158,6.213523]}},{"type":"Feature","properties":{"nombre":"Finca ROCIO DE STA ELENA","tipo":"Hotel"},"geometry":{"type":"Point","coordinates":[-75.495498,6.231998]}},{"type":"Feature","properties":{"nombre":"Calle Doce","tipo":"Hostal"},"geometry":{"type":"Point","coordinates":[-75.571328,6.213577]}},{"type":"Feature","properties":{"nombre":"AIR","tipo":"Hostal"},"geometry":{"type":"Point","coordinates":[-75.571413,6.213781]}},{"type":"Feature","properties":{"nombre":"Inbox Change Hostal","tipo":"Hostal"},"geometry":{"type":"Point","coordinates":[-75.571129,6.21349]}},{"type":"Feature","properties":{"nombre":"The Somos Hostal","tipo":"Hostal"},"geometry":{"type":"Point","coordinates":[-75.568109,6.210506]}},{"type":"Feature","properties":{"nombre":"Hostal Casa Pranna","tipo":"Hostal","web":"https://www.instagram.com/casapranasantaelena/?hl=es-la"},"geometry":{"type":"Point","coordinates":[-75.595821,6.250338]}},{"type":"Feature","properties":{"nombre":"Edificio Oslo","tipo":"Apartamento turístico"},"geometry":{"type":"Point","coordinates":[-75.559352,6.203571]}},{"type":"Feature","properties":{"nombre":"Macondo Guesthouse","tipo":"Hostal"},"geometry":{"type":"Point","coordinates":[-75.575311,6.207493]}},{"type":"Feature","properties":{"nombre":"Hostal Casa Lirio","tipo":"Hostal","web":"http://cocoahostel.com"},"geometry":{"type":"Point","coordinates":[-75.574361,6.207269]}},{"type":"Feature","properties":{"nombre":"Bosques del campestre 2","tipo":"Apartamento turístico"},"geometry":{"type":"Point","coordinates":[-75.575546,6.190585]}},{"type":"Feature","properties":{"nombre":"Tu Casa narural","tipo":"Hostal"},"geometry":{"type":"Point","coordinates":[-75.585236,6.254017]}},{"type":"Feature","properties":{"nombre":"Guest House The Laureles","tipo":"Casa de huéspedes"},"geometry":{"type":"Point","coordinates":[-75.59905,6.246306]}},{"type":"Feature","properties":{"nombre":"Viamonti","tipo":"Apartamento turístico"},"geometry":{"type":"Point","coordinates":[-75.568585,6.217665]}},{"type":"Feature","properties":{"nombre":"Altos de San Angel","tipo":"Apartamento turístico"},"geometry":{"type":"Point","coordinates":[-75.603708,6.219061]}},{"type":"Feature","properties":{"tipo":"Apartamento turístico"},"geometry":{"type":"Point","coordinates":[-75.561661,6.227057]}},{"type":"Feature","properties":{"nombre":"Macarena Hostel","tipo":"Hostal"},"geometry":{"type":"Point","coordinates":[-75.565351,6.206328]}},{"type":"Feature","properties":{"tipo":"Apartamento turístico"},"geometry":{"type":"Point","coordinates":[-75.592609,6.245334]}},{"type":"Feature","properties":{"nombre":"Hostel Cloud9","tipo":"Casa de huéspedes"},"geometry":{"type":"Point","coordinates":[-75.576158,6.208102]}},{"type":"Feature","properties":{"nombre":"Casa","tipo":"Casa de huéspedes"},"geometry":{"type":"Point","coordinates":[-75.542747,6.26821]}},{"type":"Feature","properties":{"nombre":"Belen Plaza","tipo":"Hotel"},"geometry":{"type":"Point","coordinates":[-75.594906,6.231626]}},{"type":"Feature","properties":{"nombre":"Casa","tipo":"Casa de huéspedes"},"geometry":{"type":"Point","coordinates":[-75.542847,6.268005]}},{"type":"Feature","properties":{"nombre":"Hogar Infantil Brisas de Robledo","tipo":"Hostal"},"geometry":{"type":"Point","coordinates":[-75.586271,6.290926]}},{"type":"Feature","properties":{"nombre":"Tierra Grata Palmas","tipo":"Apartamento turístico"},"geometry":{"type":"Point","coordinates":[-75.561558,6.225655]}},{"type":"Feature","properties":{"nombre":"Conjunto Residencial Providencia","tipo":"Apartamento turístico"},"geometry":{"type":"Point","coordinates":[-75.592102,6.265306]}},{"type":"Feature","properties":{"nombre":"Zojo","tipo":"Apartamento turístico"},"geometry":{"type":"Point","coordinates":[-75.584907,6.23501]}},{"type":"Feature","properties":{"nombre":"Casa con chicas - Samantha","tipo":"Apartamento turístico"},"geometry":{"type":"Point","coordinates":[-75.591874,6.259177]}},{"type":"Feature","properties":{"nombre":"Santa Catalina de Castropolo","tipo":"Apartamento turístico"},"geometry":{"type":"Point","coordinates":[-75.568487,6.217707]}},{"type":"Feature","properties":{"nombre":"Hotel Premium Real","tipo":"Hotel"},"geometry":{"type":"Point","coordinates":[-75.562229,6.20971]}},{"type":"Feature","properties":{"nombre":"Hola Estelar Square Superior","tipo":"Hotel","estrellas":"5","web":"https://estelarsquare.com"},"geometry":{"type":"Point","coordinates":[-75.575585,6.194677]}},{"type":"Feature","properties":{"nombre":"Hotel BH El Poblado","tipo":"Hotel","web":"https://bhhoteles.com"},"geometry":{"type":"Point","coordinates":[-75.57485,6.195419]}},{"type":"Feature","properties":{"nombre":"Urbanización Arboleda de San Antonio","tipo":"Apartamento turístico"},"geometry":{"type":"Point","coordinates":[-75.646006,6.185785]}},{"type":"Feature","properties":{"nombre":"Biomarket","tipo":"Hostal"},"geometry":{"type":"Point","coordinates":[-75.571985,6.210371]}},{"type":"Feature","properties":{"nombre":"Gardena 11","tipo":"Hostal"},"geometry":{"type":"Point","coordinates":[-75.573786,6.212969]}},{"type":"Feature","properties":{"nombre":"Sol y luna","tipo":"Casa de huéspedes"},"geometry":{"type":"Point","coordinates":[-75.563967,6.283917]}},{"type":"Feature","properties":{"nombre":"Aspen","tipo":"Apartamento turístico"},"geometry":{"type":"Point","coordinates":[-75.580234,6.187351]}},{"type":"Feature","properties":{"nombre":"Marriott","tipo":"Hotel"},"geometry":{"type":"Point","coordinates":[-75.572785,6.202927]}},{"type":"Feature","properties":{"nombre":"Nutibara Express","tipo":"Hotel"},"geometry":{"type":"Point","coordinates":[-75.567068,6.251874]}},{"type":"Feature","properties":{"nombre":"Aspen","tipo":"Apartamento turístico"},"geometry":{"type":"Point","coordinates":[-75.580219,6.186317]}},{"type":"Feature","properties":{"nombre":"Hotel Egina Medellin","tipo":"Hotel"},"geometry":{"type":"Point","coordinates":[-75.587328,6.252586]}},{"type":"Feature","properties":{"nombre":"Co404 Medellin - Coliving-Coworking","tipo":"Hostal","web":"https://co404.com"},"geometry":{"type":"Point","coordinates":[-75.596367,6.249409]}},{"type":"Feature","properties":{"nombre":"Gas Inyecieni","tipo":"Motel"},"geometry":{"type":"Point","coordinates":[-75.588562,6.248492]}},{"type":"Feature","properties":{"nombre":"Hotel Vivre","tipo":"Hotel","web":"https://hotelvivre.com/"},"geometry":{"type":"Point","coordinates":[-75.589232,6.248311]}},{"type":"Feature","properties":{"nombre":"First Class Hotel","tipo":"Hotel"},"geometry":{"type":"Point","coordinates":[-75.593385,6.248962]}},{"type":"Feature","properties":{"nombre":"Hotel Colored Boutique","tipo":"Hotel"},"geometry":{"type":"Point","coordinates":[-75.592472,6.267366]}},{"type":"Feature","properties":{"nombre":"YIS","tipo":"Apartamento turístico"},"geometry":{"type":"Point","coordinates":[-75.588381,6.286474]}},{"type":"Feature","properties":{"nombre":"Hotel Greenview Medellin","tipo":"Hotel","web":"https://greenviewmedellin.com/"},"geometry":{"type":"Point","coordinates":[-75.561852,6.214319]}},{"type":"Feature","properties":{"nombre":"Hotel Plaza del Río","tipo":"Hotel"},"geometry":{"type":"Point","coordinates":[-75.578991,6.24149]}},{"type":"Feature","properties":{"nombre":"Hotel Romanza","tipo":"Hotel"},"geometry":{"type":"Point","coordinates":[-75.566176,6.245195]}},{"type":"Feature","properties":{"nombre":"Seven Inn","tipo":"Hotel","web":"https://seveninnhotel.com"},"geometry":{"type":"Point","coordinates":[-75.590567,6.245218]}},{"type":"Feature","properties":{"nombre":"Sie7e","tipo":"Hotel"},"geometry":{"type":"Point","coordinates":[-75.589735,6.246611]}},{"type":"Feature","properties":{"nombre":"Edificio La Frontera, Mio Lofts","tipo":"Apartamento turístico"},"geometry":{"type":"Point","coordinates":[-75.577334,6.183832]}},{"type":"Feature","properties":{"nombre":"Florentina Hotel","tipo":"Hotel"},"geometry":{"type":"Point","coordinates":[-75.573111,6.213121]}},{"type":"Feature","properties":{"nombre":"Circular Flats","tipo":"Apartamento turístico"},"geometry":{"type":"Point","coordinates":[-75.588298,6.244293]}},{"type":"Feature","properties":{"nombre":"Key West Hostel","tipo":"Hostal"},"geometry":{"type":"Point","coordinates":[-75.590014,6.245957]}},{"type":"Feature","properties":{"nombre":"Nodo Hostel","tipo":"Hostal"},"geometry":{"type":"Point","coordinates":[-75.57295,6.21294]}},{"type":"Feature","properties":{"nombre":"Hotel Picasso","tipo":"Hotel"},"geometry":{"type":"Point","coordinates":[-75.587393,6.248566]}},{"type":"Feature","properties":{"nombre":"Hotel Medellín Gold HMG","tipo":"Hotel"},"geometry":{"type":"Point","coordinates":[-75.587535,6.247261]}},{"type":"Feature","properties":{"nombre":"Origen Local Suites","tipo":"Hotel","web":"https://www.origenlocalsuites.com/"},"geometry":{"type":"Point","coordinates":[-75.588001,6.247208]}},{"type":"Feature","properties":{"nombre":"Diez Hotel Categoría Colombia","tipo":"Hotel","web":"https://www.diezhotel.com/"},"geometry":{"type":"Point","coordinates":[-75.565223,6.208985]}},{"type":"Feature","properties":{"nombre":"Cavalta","tipo":"Hotel"},"geometry":{"type":"Point","coordinates":[-75.586084,6.239534]}},{"type":"Feature","properties":{"nombre":"Viajero hostel","tipo":"Hostal"},"geometry":{"type":"Point","coordinates":[-75.572088,6.213057]}},{"type":"Feature","properties":{"nombre":"hotel el paraíso","tipo":"Hotel"},"geometry":{"type":"Point","coordinates":[-75.572156,6.274022]}},{"type":"Feature","properties":{"nombre":"Eutopiq","tipo":"Hotel","web":"https://www.booking.com/hotel/co/eutopiq.html"},"geometry":{"type":"Point","coordinates":[-75.588772,6.244997]}},{"type":"Feature","properties":{"tipo":"Apartamento turístico"},"geometry":{"type":"Point","coordinates":[-75.552019,6.302338]}},{"type":"Feature","properties":{"nombre":"Subotanico","tipo":"Hotel","web":"http://www.subotanicomedellin.com/"},"geometry":{"type":"Point","coordinates":[-75.57319,6.215078]}},{"type":"Feature","properties":{"nombre":"Marquee Hotel Medellin","tipo":"Hotel","web":"https://marqueemedellin.com/"},"geometry":{"type":"Point","coordinates":[-75.567676,6.209163]}},{"type":"Feature","properties":{"nombre":"Estadio 80","tipo":"Hotel"},"geometry":{"type":"Point","coordinates":[-75.597026,6.260218]}},{"type":"Feature","properties":{"nombre":"Hotel San Marino Real","tipo":"Hotel"},"geometry":{"type":"Point","coordinates":[-75.566528,6.244824]}},{"type":"Feature","properties":{"nombre":"Casa Almarita","tipo":"Hostal","web":"https://www.booking.com/hotel/co/casa-almarita.html"},"geometry":{"type":"Point","coordinates":[-75.598755,6.261123]}},{"type":"Feature","properties":{"nombre":"Casa","tipo":"Apartamento turístico"},"geometry":{"type":"Point","coordinates":[-75.604719,6.257996]}},{"type":"Feature","properties":{"nombre":"Hotel Bomboná","tipo":"Hotel"},"geometry":{"type":"Point","coordinates":[-75.56594,6.245729]}},{"type":"Feature","properties":{"nombre":"Hotel La Mansión","tipo":"Hotel"},"geometry":{"type":"Point","coordinates":[-75.561738,6.249455]}},{"type":"Feature","properties":{"tipo":"Hotel"},"geometry":{"type":"Point","coordinates":[-75.593332,6.244131]}},{"type":"Feature","properties":{"nombre":"Barcelo Coliving","tipo":"Hotel","web":"https://barcelocoliving.com/"},"geometry":{"type":"Point","coordinates":[-75.595433,6.257337]}},{"type":"Feature","properties":{"nombre":"Ayenda Villas de San Juan","tipo":"Hotel"},"geometry":{"type":"Point","coordinates":[-75.589558,6.249511]}},{"type":"Feature","properties":{"tipo":"Casa de huéspedes"},"geometry":{"type":"Point","coordinates":[-75.568963,6.210593]}},{"type":"Feature","properties":{"tipo":"Hostal","web":"https://www.selina.com/colombia/medellin/"},"geometry":{"type":"Point","coordinates":[-75.564073,6.207805]}},{"type":"Feature","properties":{"nombre":"Casa almarita 2","tipo":"Hostal"},"geometry":{"type":"Point","coordinates":[-75.599485,6.263302]}},{"type":"Feature","properties":{"tipo":"Hotel"},"geometry":{"type":"Point","coordinates":[-75.587589,6.251066]}},{"type":"Feature","properties":{"tipo":"Hotel","web":"https://www.hoteldoradola70.com/es/"},"geometry":{"type":"Point","coordinates":[-75.587589,6.2512]}},{"type":"Feature","properties":{"nombre":"Camelot apartahotel","tipo":"Hotel"},"geometry":{"type":"Point","coordinates":[-75.572231,6.210072]}},{"type":"Feature","properties":{"nombre":"Edificio Borneo","tipo":"Apartamento turístico"},"geometry":{"type":"Point","coordinates":[-75.566566,6.216876]}},{"type":"Feature","properties":{"tipo":"Hostal"},"geometry":{"type":"Point","coordinates":[-75.599439,6.263279]}},{"type":"Feature","properties":{"nombre":"Parcero Med Hostel","tipo":"Hotel"},"geometry":{"type":"Point","coordinates":[-75.570841,6.215861]}},{"type":"Feature","properties":{"tipo":"Hostal"},"geometry":{"type":"Point","coordinates":[-75.57205,6.210371]}},{"type":"Feature","properties":{"nombre":"La Campana Hotel Boutique","tipo":"Hotel","web":"https://lacampanahotelboutique.com"},"geometry":{"type":"Point","coordinates":[-75.562661,6.211707]}},{"type":"Feature","properties":{"nombre":"Rock Hostel Medellín","tipo":"Hostal"},"geometry":{"type":"Point","coordinates":[-75.590249,6.25311]}},{"type":"Feature","properties":{"tipo":"Hotel"},"geometry":{"type":"Point","coordinates":[-75.567168,6.210531]}},{"type":"Feature","properties":{"nombre":"Hotel Boutique Estadio","tipo":"Hotel"},"geometry":{"type":"Point","coordinates":[-75.59392,6.261716]}},{"type":"Feature","properties":{"nombre":"Centro hostel la Playa","tipo":"Hostal"},"geometry":{"type":"Point","coordinates":[-75.560262,6.247191]}},{"type":"Feature","properties":{"nombre":"Centro hostel Córdoba","tipo":"Hostal"},"geometry":{"type":"Point","coordinates":[-75.561284,6.248775]}},{"type":"Feature","properties":{"nombre":"Centro Hotel Cordova","tipo":"Hotel"},"geometry":{"type":"Point","coordinates":[-75.561723,6.249243]}},{"type":"Feature","properties":{"nombre":"Hotel Poblado Alejandria","tipo":"Hotel"},"geometry":{"type":"Point","coordinates":[-75.568609,6.198962]}},{"type":"Feature","properties":{"nombre":"Novelty Suites","tipo":"Hotel"},"geometry":{"type":"Point","coordinates":[-75.574236,6.2005]}},{"type":"Feature","properties":{"nombre":"1616 Hotel","tipo":"Hotel"},"geometry":{"type":"Point","coordinates":[-75.559564,6.208602]}},{"type":"Feature","properties":{"nombre":"Nomada Hotel Origen","tipo":"Hotel","web":"https://nomadahotel.com.co/"},"geometry":{"type":"Point","coordinates":[-75.57291,6.213295]}},{"type":"Feature","properties":{"nombre":"St Martin","tipo":"Apartamento turístico"},"geometry":{"type":"Point","coordinates":[-75.593133,6.252901]}},{"type":"Feature","properties":{"nombre":"St Martin","tipo":"Apartamento turístico"},"geometry":{"type":"Point","coordinates":[-75.593097,6.252828]}},{"type":"Feature","properties":{"tipo":"Apartamento turístico"},"geometry":{"type":"Point","coordinates":[-75.563238,6.240581]}},{"type":"Feature","properties":{"nombre":"Centro Hostel","tipo":"Hostal"},"geometry":{"type":"Point","coordinates":[-75.560391,6.247329]}},{"type":"Feature","properties":{"nombre":"Airbnb Medellin","tipo":"Casa de huéspedes"},"geometry":{"type":"Point","coordinates":[-75.581204,6.25435]}},{"type":"Feature","properties":{"nombre":"Hospedaje cerca al estadio y la 70","tipo":"Hotel"},"geometry":{"type":"Point","coordinates":[-75.584468,6.255946]}},{"type":"Feature","properties":{"tipo":"Hostal"},"geometry":{"type":"Point","coordinates":[-75.600875,6.257317]}},{"type":"Feature","properties":{"nombre":"Colegio de la J.V.A.","tipo":"Apartamento turístico"},"geometry":{"type":"Point","coordinates":[-75.542749,6.255676]}},{"type":"Feature","properties":{"nombre":"El Oscar Hotel","tipo":"Hotel"},"geometry":{"type":"Point","coordinates":[-75.587723,6.250913]}},{"type":"Feature","properties":{"nombre":"La Familia","tipo":"Hostal"},"geometry":{"type":"Point","coordinates":[-75.570064,6.21054]}},{"type":"Feature","properties":{"nombre":"Hostal-Restaurante El Nido","tipo":"Hotel"},"geometry":{"type":"Point","coordinates":[-75.612226,6.2886]}},{"type":"Feature","properties":{"nombre":"Fundación Remar","tipo":"Hostal"},"geometry":{"type":"Point","coordinates":[-75.612929,6.289035]}},{"type":"Feature","properties":{"nombre":"Hotel Boutique Laureles Medellin","tipo":"Hotel"},"geometry":{"type":"Point","coordinates":[-75.59192,6.245785]}},{"type":"Feature","properties":{"nombre":"Casa almarita","tipo":"Hostal"},"geometry":{"type":"Point","coordinates":[-75.597072,6.259892]}},{"type":"Feature","properties":{"nombre":"Casa Hermosa","tipo":"Apartamento turístico"},"geometry":{"type":"Point","coordinates":[-75.584596,6.237642]}},{"type":"Feature","properties":{"nombre":"Hotel Caribe","tipo":"Hotel"},"geometry":{"type":"Point","coordinates":[-75.57388,6.271759]}},{"type":"Feature","properties":{"nombre":"Nivel Place","tipo":"Hotel"},"geometry":{"type":"Point","coordinates":[-75.584202,6.215679]}},{"type":"Feature","properties":{"nombre":"Botanica Casa Hotel","tipo":"Hotel"},"geometry":{"type":"Point","coordinates":[-75.570904,6.214394]}},{"type":"Feature","properties":{"nombre":"Refugio del Jaguar","tipo":"Hotel"},"geometry":{"type":"Point","coordinates":[-75.571047,6.211282]}},{"type":"Feature","properties":{"nombre":"Absolute hotel & Hostel boutique","tipo":"Hostal"},"geometry":{"type":"Point","coordinates":[-75.581713,6.245415]}},{"type":"Feature","properties":{"nombre":"Hotel Laureles de Aburrá","tipo":"Hotel"},"geometry":{"type":"Point","coordinates":[-75.591021,6.247367]}},{"type":"Feature","properties":{"nombre":"Mascomunal hostel","tipo":"Hostal"},"geometry":{"type":"Point","coordinates":[-75.57304,6.213181]}},{"type":"Feature","properties":{"nombre":"Harbour Hotel","tipo":"Hotel"},"geometry":{"type":"Point","coordinates":[-75.590462,6.24611]}},{"type":"Feature","properties":{"nombre":"Villa Jardín II","tipo":"Apartamento turístico"},"geometry":{"type":"Point","coordinates":[-75.581959,6.189694]}},{"type":"Feature","properties":{"nombre":"Yolo Hostel Medellin","tipo":"Hostal","web":"https://www.booking.com/Share-gAkyvS"},"geometry":{"type":"Point","coordinates":[-75.563891,6.207281]}},{"type":"Feature","properties":{"nombre":"Rooftop Bar & Hostel Ziruma Tiki Bar","tipo":"Hostal"},"geometry":{"type":"Point","coordinates":[-75.573182,6.21353]}},{"type":"Feature","properties":{"nombre":"Masaya Medellín","tipo":"Casa de huéspedes"},"geometry":{"type":"Point","coordinates":[-75.572017,6.209299]}},{"type":"Feature","properties":{"nombre":"Masaya Medellin","tipo":"Hostal"},"geometry":{"type":"Point","coordinates":[-75.572011,6.209307]}},{"type":"Feature","properties":{"nombre":"Loma Verde Apartahotel","tipo":"Apartamento turístico"},"geometry":{"type":"Point","coordinates":[-75.560742,6.211314]}},{"type":"Feature","properties":{"nombre":"Café Hotel","tipo":"Hotel","web":"https://cafehotel.com.co/"},"geometry":{"type":"Point","coordinates":[-75.561723,6.210893]}},{"type":"Feature","properties":{"nombre":"Kyux Studios","tipo":"Apartamento turístico"},"geometry":{"type":"Point","coordinates":[-75.59659,6.240088]}},{"type":"Feature","properties":{"nombre":"CoNomad House","tipo":"Casa de huéspedes","web":"https://conomadhouse.hostexbooking.site"},"geometry":{"type":"Point","coordinates":[-75.596108,6.247353]}},{"type":"Feature","properties":{"nombre":"Quadrato Studios","tipo":"Hotel"},"geometry":{"type":"Point","coordinates":[-75.586122,6.242787]}},{"type":"Feature","properties":{"nombre":"Hotel Living by Armoniko","tipo":"Hotel"},"geometry":{"type":"Point","coordinates":[-75.59735,6.245385]}},{"type":"Feature","properties":{"nombre":"Hotel Egina","tipo":"Hotel"},"geometry":{"type":"Point","coordinates":[-75.58661,6.252333]}},{"type":"Feature","properties":{"nombre":"Indie Universe","tipo":"Hotel"},"geometry":{"type":"Point","coordinates":[-75.591885,6.241132]}},{"type":"Feature","properties":{"nombre":"Hotel Guayacanes","tipo":"Hotel"},"geometry":{"type":"Point","coordinates":[-75.587098,6.248818]}},{"type":"Feature","properties":{"nombre":"Torre Primavera","tipo":"Hotel"},"geometry":{"type":"Point","coordinates":[-75.592567,6.246893]}},{"type":"Feature","properties":{"nombre":"Duo Boutique Hotel","tipo":"Hotel"},"geometry":{"type":"Point","coordinates":[-75.598805,6.24271]}},{"type":"Feature","properties":{"nombre":"Laureles Garden Hostel","tipo":"Hostal"},"geometry":{"type":"Point","coordinates":[-75.596222,6.249356]}},{"type":"Feature","properties":{"nombre":"Four Points by Sheraton Medellin","tipo":"Hotel"},"geometry":{"type":"Point","coordinates":[-75.576058,6.199347]}},{"type":"Feature","properties":{"nombre":"Hotel Dix","tipo":"Hotel"},"geometry":{"type":"Point","coordinates":[-75.569174,6.210015]}},{"type":"Feature","properties":{"nombre":"Hotel Estelar Blue","tipo":"Hotel"},"geometry":{"type":"Point","coordinates":[-75.570715,6.20213]}},{"type":"Feature","properties":{"nombre":"Park Caribe Hotel Medellín S.A.S","tipo":"Hotel"},"geometry":{"type":"Point","coordinates":[-75.571946,6.272834]}},{"type":"Feature","properties":{"nombre":"Hotel sanalejo","tipo":"Hotel"},"geometry":{"type":"Point","coordinates":[-75.574237,6.27264]}},{"type":"Feature","properties":{"tipo":"Casa de huéspedes"},"geometry":{"type":"Point","coordinates":[-75.605134,6.258073]}},{"type":"Feature","properties":{"nombre":"Hotel El Puente","tipo":"Hotel"},"geometry":{"type":"Point","coordinates":[-75.574626,6.253208]}},{"type":"Feature","properties":{"nombre":"Casas","tipo":"Casa de huéspedes"},"geometry":{"type":"Point","coordinates":[-75.533405,6.238693]}},{"type":"Feature","properties":{"tipo":"Hotel"},"geometry":{"type":"Point","coordinates":[-75.568365,6.257593]}},{"type":"Feature","properties":{"nombre":"Hotel Medellin","tipo":"Hotel"},"geometry":{"type":"Point","coordinates":[-75.566998,6.208956]}},{"type":"Feature","properties":{"nombre":"The Cut Medellín","tipo":"Hotel","web":"https://thecutmedellin.com/"},"geometry":{"type":"Point","coordinates":[-75.570996,6.213798]}},{"type":"Feature","properties":{"nombre":"Bruma Verde","tipo":"Hotel"},"geometry":{"type":"Point","coordinates":[-75.583433,6.25629]}},{"type":"Feature","properties":{"nombre":"Intercontinental Medellín","tipo":"Hotel","estrellas":"4","web":"https://www.movichhotels.com/en/hotel-intercontinental-medellin-in-medellin/"},"geometry":{"type":"Point","coordinates":[-75.558287,6.213692]}},{"type":"Feature","properties":{"nombre":"Apartahotel Rodeo Plaza","tipo":"Hotel"},"geometry":{"type":"Point","coordinates":[-75.595422,6.211049]}},{"type":"Feature","properties":{"nombre":"Refugio de Ancianos San Crsitobal","tipo":"Hostal"},"geometry":{"type":"Point","coordinates":[-75.636919,6.280909]}},{"type":"Feature","properties":{"nombre":"Hotel Ibis","tipo":"Hotel"},"geometry":{"type":"Point","coordinates":[-75.574692,6.224304]}},{"type":"Feature","properties":{"tipo":"Hotel"},"geometry":{"type":"Point","coordinates":[-75.578297,6.285631]}},{"type":"Feature","properties":{"nombre":"Hotel Merlott","tipo":"Hotel"},"geometry":{"type":"Point","coordinates":[-75.620053,6.257088]}},{"type":"Feature","properties":{"nombre":"Hotel Dann Carlton","tipo":"Hotel"},"geometry":{"type":"Point","coordinates":[-75.570725,6.207283]}},{"type":"Feature","properties":{"nombre":"Suite Comfort","tipo":"Hotel","estrellas":"2"},"geometry":{"type":"Point","coordinates":[-75.585029,6.245123]}},{"type":"Feature","properties":{"nombre":"Inntu","tipo":"Hotel"},"geometry":{"type":"Point","coordinates":[-75.596828,6.24561]}},{"type":"Feature","properties":{"nombre":"Balcones de la 70","tipo":"Hotel","estrellas":"3"},"geometry":{"type":"Point","coordinates":[-75.588741,6.245607]}},{"type":"Feature","properties":{"nombre":"Hotel Mirador","tipo":"Hotel"},"geometry":{"type":"Point","coordinates":[-75.585275,6.246214]}},{"type":"Feature","properties":{"nombre":"Verony San Joaquín","tipo":"Hotel"},"geometry":{"type":"Point","coordinates":[-75.588236,6.245907]}},{"type":"Feature","properties":{"nombre":"Hotel","tipo":"Hotel"},"geometry":{"type":"Point","coordinates":[-75.587353,6.248826]}},{"type":"Feature","properties":{"nombre":"Park 6","tipo":"Hotel"},"geometry":{"type":"Point","coordinates":[-75.584643,6.245189]}},{"type":"Feature","properties":{"nombre":"Palm Tree Hostal","tipo":"Hostal","web":"http://www.hostalenmedellin.com/"},"geometry":{"type":"Point","coordinates":[-75.583664,6.255876]}},{"type":"Feature","properties":{"nombre":"Hotel Morgana el poblado Suites","tipo":"Hotel","estrellas":"5"},"geometry":{"type":"Point","coordinates":[-75.561549,6.217571]}},{"type":"Feature","properties":{"nombre":"Hotel Poma Rosa","tipo":"Hotel","web":"https://hoteles70group.com/hotel-poma-rosa/"},"geometry":{"type":"Point","coordinates":[-75.591968,6.243419]}},{"type":"Feature","properties":{"nombre":"hotel medellin","tipo":"Hotel"},"geometry":{"type":"Point","coordinates":[-75.566996,6.208936]}},{"type":"Feature","properties":{"nombre":"Hotel Sites","tipo":"Hotel"},"geometry":{"type":"Point","coordinates":[-75.574439,6.206836]}},{"type":"Feature","properties":{"nombre":"NH Collection Medellín Royal","tipo":"Hotel","estrellas":"5","web":"https://www.nh-collection.com/es/hotel/nh-collection-medellin-royal"},"geometry":{"type":"Point","coordinates":[-75.572524,6.197109]}},{"type":"Feature","properties":{"nombre":"Hotel Casa Laureles","tipo":"Hotel","estrellas":"3","web":"http://hotelcasalaureles.com-medellin.com, http://www.hoteleslaurelesestadio.com"},"geometry":{"type":"Point","coordinates":[-75.599116,6.242769]}},{"type":"Feature","properties":{"tipo":"Hotel"},"geometry":{"type":"Point","coordinates":[-75.580754,6.239756]}},{"type":"Feature","properties":{"nombre":"Hotel Paris","tipo":"Hotel"},"geometry":{"type":"Point","coordinates":[-75.564675,6.247485]}},{"type":"Feature","properties":{"nombre":"Hotel D'Leoni","tipo":"Hotel"},"geometry":{"type":"Point","coordinates":[-75.564561,6.24723]}},{"type":"Feature","properties":{"nombre":"Hotel Panorama","tipo":"Hotel"},"geometry":{"type":"Point","coordinates":[-75.564477,6.247312]}},{"type":"Feature","properties":{"nombre":"San José Hotel","tipo":"Hotel"},"geometry":{"type":"Point","coordinates":[-75.564916,6.247269]}},{"type":"Feature","properties":{"nombre":"Hotel San Ignacio","tipo":"Hotel"},"geometry":{"type":"Point","coordinates":[-75.564062,6.24521]}},{"type":"Feature","properties":{"nombre":"Hotel Sol & Luna","tipo":"Hotel"},"geometry":{"type":"Point","coordinates":[-75.565091,6.246328]}},{"type":"Feature","properties":{"nombre":"45 Golden Hotel","tipo":"Hotel"},"geometry":{"type":"Point","coordinates":[-75.5635,6.249282]}},{"type":"Feature","properties":{"nombre":"Gotel Golden","tipo":"Hotel"},"geometry":{"type":"Point","coordinates":[-75.599902,6.244558]}},{"type":"Feature","properties":{"nombre":"Hotel Merlott","tipo":"Hotel"},"geometry":{"type":"Point","coordinates":[-75.58893,6.250085]}},{"type":"Feature","properties":{"nombre":"Obo Hotel","tipo":"Hotel"},"geometry":{"type":"Point","coordinates":[-75.589702,6.249844]}},{"type":"Feature","properties":{"nombre":"Remanso del Rodeo","tipo":"Hotel"},"geometry":{"type":"Point","coordinates":[-75.601297,6.205173]}},{"type":"Feature","properties":{"nombre":"El Playon","tipo":"Hotel"},"geometry":{"type":"Point","coordinates":[-75.555433,6.30655]}},{"type":"Feature","properties":{"nombre":"Hotel Dorado La 70","tipo":"Hotel","estrellas":"4"},"geometry":{"type":"Point","coordinates":[-75.588195,6.250918]}},{"type":"Feature","properties":{"nombre":"LQ Hotel La Quinta","tipo":"Hotel"},"geometry":{"type":"Point","coordinates":[-75.565849,6.224732]}},{"type":"Feature","properties":{"nombre":"City Express Plus","tipo":"Hotel"},"geometry":{"type":"Point","coordinates":[-75.573341,6.200543]}},{"type":"Feature","properties":{"nombre":"Zona Verde","tipo":"Hotel"},"geometry":{"type":"Point","coordinates":[-75.596049,6.235205]}},{"type":"Feature","properties":{"nombre":"Kuboz","tipo":"Motel"},"geometry":{"type":"Point","coordinates":[-75.588289,6.23895]}},{"type":"Feature","properties":{"nombre":"Binn","tipo":"Hotel"},"geometry":{"type":"Point","coordinates":[-75.55513,6.20861]}},{"type":"Feature","properties":{"nombre":"Hotel Porton Medellin","tipo":"Hotel"},"geometry":{"type":"Point","coordinates":[-75.575624,6.19582]}},{"type":"Feature","properties":{"nombre":"Hotel Casa Malibu","tipo":"Hotel","web":"https://hotelcasamalibu.com.co/"},"geometry":{"type":"Point","coordinates":[-75.588549,6.238273]}},{"type":"Feature","properties":{"nombre":"Hotel Casa Malibu","tipo":"Hotel","web":"https://hotelcasamalibu.com.co/"},"geometry":{"type":"Point","coordinates":[-75.588454,6.238261]}},{"type":"Feature","properties":{"nombre":"Seventy Selva Hostel","tipo":"Hostal","web":"https://www.70selva.com/"},"geometry":{"type":"Point","coordinates":[-75.587028,6.250096]}},{"type":"Feature","properties":{"nombre":"The Click Clack Hotel Medellin","tipo":"Hotel","estrellas":"5","web":"https://www.clickclackhotel.com/es/hoteles/colombia/medellin/clickclackmedellin/"},"geometry":{"type":"Point","coordinates":[-75.566483,6.210439]}},{"type":"Feature","properties":{"nombre":"Viaggio Medellín Grand Select","tipo":"Hotel","estrellas":"4","web":"https://www.viaggiomedellin.com/"},"geometry":{"type":"Point","coordinates":[-75.569481,6.215872]}},{"type":"Feature","properties":{"nombre":"Viaggio Medellín Grand Select","tipo":"Hotel","web":"https://www.viaggiomedellin.com"},"geometry":{"type":"Point","coordinates":[-75.568951,6.215521]}},{"type":"Feature","properties":{"tipo":"Hotel"},"geometry":{"type":"Point","coordinates":[-75.597141,6.249751]}},{"type":"Feature","properties":{"nombre":"Oasis paisa Glamping","tipo":"Hotel"},"geometry":{"type":"Point","coordinates":[-75.69484,6.352859]}},{"type":"Feature","properties":{"nombre":"Aura Hotel","tipo":"Hotel","web":"https://aura.ibnhotel.com/"},"geometry":{"type":"Point","coordinates":[-75.591008,6.240063]}},{"type":"Feature","properties":{"nombre":"Hotel San Pedro del Fuerte","tipo":"Hotel","web":"https://hotelsanpedrodelfuerte.com/"},"geometry":{"type":"Point","coordinates":[-75.598661,6.256165]}},{"type":"Feature","properties":{"nombre":"Santa Ana","tipo":"Hotel"},"geometry":{"type":"Point","coordinates":[-75.601792,6.256757]}},{"type":"Feature","properties":{"tipo":"Casa de huéspedes"},"geometry":{"type":"Point","coordinates":[-75.588162,6.297015]}},{"type":"Feature","properties":{"tipo":"Hotel"},"geometry":{"type":"Point","coordinates":[-75.564333,6.207758]}},{"type":"Feature","properties":{"nombre":"Pranik Coliving & Coworking","tipo":"Hostal","web":"https://www.pranikliving.com/"},"geometry":{"type":"Point","coordinates":[-75.601614,6.249214]}},{"type":"Feature","properties":{"tipo":"Hotel"},"geometry":{"type":"Point","coordinates":[-75.573843,6.252743]}},{"type":"Feature","properties":{"nombre":"Hotel Colombia","tipo":"Hotel"},"geometry":{"type":"Point","coordinates":[-75.573833,6.252771]}}]}