{"type":"FeatureCollection","features":[{"type":"Feature","properties":{"nombre":"Centro de Turismo Inteligente Parques del Rio","direccion":"Cl. 42 #58-54, Medellín, Antioquia","comuna":"Laureles Estadio"},"geometry":{"type":"Point","coordinates":[-75.578491,6.242126]}},{"type":"Feature","properties":{"nombre":"Punto de Información Turística Comuna 13","direccion":"Cra. 109 #39-2 a 39-4, Medellín, Antioquia","comuna":"San Javier"},"geometry":{"type":"Point","coordinates":[-75.621887,6.251099]}},{"type":"Feature","properties":{"nombre":"Punto de Información Turística Cerro Nutibara","direccion":"Calle 30 A #55 - 64, Medellín, Antioquia","comuna":"Belén"},"geometry":{"type":"Point","coordinates":[-75.582397,6.235718]}}]}